{"type":"FeatureCollection","name":"adm_zones","crs":{"type":"name","properties":{"name":"urn:ogc:def:crs:OGC:1.3:CRS84"}},"features":[{"type":"Feature","id":"ADM_ZONES-000000","geometry":{"type":"MultiPolygon","coordinates":[[[[39.230238,21.500331],[39.230418,21.500315],[39.230424,21.500322],[39.23043,21.500329],[39.230436,21.500335],[39.230443,21.500341],[39.230449,21.500347],[39.230456,21.500353],[39.230464,21.500358],[39.232655,21.50017],[39.23325,21.500076],[39.233637,21.500087],[39.236171,21.499867],[39.238806,21.499639],[39.239231,21.499602],[39.239232,21.499602],[39.239237,21.499602],[39.239241,21.499602],[39.239246,21.499601],[39.239251,21.4996],[39.239255,21.499598],[39.23926,21.499596],[39.239264,21.499594],[39.239268,21.499592],[39.239273,21.49959],[39.239273,21.49959],[39.239274,21.499589],[39.239275,21.499588],[39.239275,21.499588],[39.239276,21.499588],[39.239276,21.499587],[39.239277,21.499587],[39.239277,21.499586],[39.239278,21.499586],[39.239278,21.499586],[39.239278,21.499586],[39.239279,21.499585],[39.239279,21.499585],[39.23928,21.499584],[39.23928,21.499584],[39.239281,21.499583],[39.239282,21.499583],[39.239282,21.499582],[39.239283,21.499582],[39.239283,21.499582],[39.239284,21.499581],[39.239284,21.49958],[39.239284,21.49958],[39.239285,21.49958],[39.239285,21.49958],[39.239285,21.499579],[39.239286,21.499579],[39.239286,21.499578],[39.239287,21.499578],[39.239287,21.499578],[39.239287,21.499578],[39.239287,21.499577],[39.239288,21.499577],[39.239288,21.499577],[39.239288,21.499577],[39.239288,21.499577],[39.239288,21.499576],[39.239288,21.499576],[39.239288,21.499576],[39.239289,21.499576],[39.239291,21.499574],[39.239292,21.499571],[39.239294,21.499569],[39.239296,21.499566],[39.239297,21.499564],[39.239299,21.499561],[39.2393,21.499558],[39.2393,21.499558],[39.2393,21.499557],[39.239383,21.49955],[39.239477,21.499542],[39.239553,21.499535],[39.239538,21.498733],[39.239535,21.498552],[39.239534,21.498511],[39.239532,21.4984],[39.239531,21.498379],[39.239526,21.498109],[39.239526,21.498088],[39.239454,21.494314],[39.239453,21.49429],[39.239444,21.493804],[39.239076,21.493849],[39.239045,21.493853],[39.238726,21.493892],[39.238674,21.493898],[39.237223,21.494074],[39.237192,21.494078],[39.237096,21.49409],[39.237042,21.494096],[39.23696,21.494106],[39.236932,21.49411],[39.23546,21.494288],[39.235435,21.494291],[39.23535,21.494302],[39.235335,21.494303],[39.232807,21.49461],[39.232791,21.494612],[39.232702,21.494623],[39.232656,21.494629],[39.232601,21.494635],[39.232582,21.494638],[39.231964,21.494713],[39.231933,21.494716],[39.231294,21.494794],[39.231287,21.494804],[39.231251,21.494853],[39.231242,21.494866],[39.23119,21.494872],[39.231177,21.494873],[39.231164,21.494874],[39.231151,21.494874],[39.231138,21.494874],[39.231125,21.494874],[39.231112,21.494874],[39.231099,21.494873],[39.23109,21.49489],[39.231081,21.494907],[39.231073,21.494924],[39.231064,21.494941],[39.231055,21.494958],[39.231046,21.494974],[39.231037,21.494991],[39.231021,21.495021],[39.231005,21.49505],[39.230989,21.49508],[39.230973,21.495109],[39.230956,21.495138],[39.230939,21.495167],[39.230923,21.495197],[39.230911,21.495216],[39.2309,21.495235],[39.230889,21.495254],[39.230877,21.495274],[39.230866,21.495293],[39.230854,21.495312],[39.230843,21.495331],[39.230838,21.495339],[39.230833,21.495346],[39.230829,21.495354],[39.230824,21.495361],[39.230819,21.495369],[39.230815,21.495376],[39.23081,21.495384],[39.230776,21.495437],[39.230742,21.495491],[39.230707,21.495544],[39.230672,21.495597],[39.230636,21.495649],[39.2306,21.495702],[39.230563,21.495753],[39.230415,21.495872],[39.230263,21.495985],[39.230106,21.496092],[39.229944,21.496194],[39.229778,21.496289],[39.229608,21.496378],[39.229434,21.49646],[39.229401,21.496425],[39.228938,21.496709],[39.228522,21.497222],[39.228539,21.497281],[39.226774,21.499735],[39.226732,21.499731],[39.226509,21.500027],[39.226465,21.499999],[39.226319,21.500188],[39.226312,21.500214],[39.226307,21.500241],[39.226305,21.500269],[39.226304,21.500296],[39.226305,21.500323],[39.226309,21.500351],[39.226315,21.500378],[39.226322,21.500404],[39.226332,21.50043],[39.226343,21.500455],[39.226357,21.500479],[39.226372,21.500503],[39.226389,21.500525],[39.226408,21.500546],[39.226428,21.500566],[39.226449,21.500585],[39.226472,21.500602],[39.226496,21.500617],[39.226522,21.500631],[39.226548,21.500643],[39.226575,21.500653],[39.226603,21.500662],[39.226631,21.500668],[39.22666,21.500673],[39.226689,21.500676],[39.226719,21.500677],[39.226748,21.500675],[39.22724,21.500637],[39.227733,21.500597],[39.228225,21.500556],[39.228717,21.500514],[39.229209,21.500471],[39.229701,21.500426],[39.230193,21.50038],[39.230196,21.500379],[39.2302,21.500378],[39.230204,21.500376],[39.230207,21.500375],[39.230211,21.500373],[39.230214,21.500371],[39.230217,21.500368],[39.23022,21.500366],[39.230223,21.500363],[39.230225,21.500361],[39.230228,21.500358],[39.23023,21.500355],[39.230232,21.500351],[39.230233,21.500348],[39.230235,21.500345],[39.230236,21.500341],[39.230237,21.500338],[39.230238,21.500334],[39.230238,21.500331]]]]},"properties":{"zone_code":1000.0,"name_ar":"موقف 3521","branch":"السليمانية","area_sqm":712181.015,"zone_id":"ADM_ZONES-000000"}},{"type":"Feature","id":"ADM_ZONES-000001","geometry":{"type":"MultiPolygon","coordinates":[[[[39.239443,21.493723],[39.239413,21.49194],[39.239384,21.490191],[39.239383,21.490125],[39.239376,21.489676],[39.239372,21.489428],[39.239366,21.489096],[39.239363,21.488874],[39.239363,21.488869],[39.239361,21.488785],[39.23933,21.486929],[39.239329,21.486853],[39.239327,21.486693],[39.23932,21.486317],[39.239309,21.485659],[39.239304,21.485348],[39.239285,21.484165],[39.239284,21.484145],[39.239266,21.484145],[39.239169,21.484147],[39.239122,21.484147],[39.239012,21.484148],[39.238543,21.484154],[39.238375,21.484156],[39.238337,21.484146],[39.238298,21.484138],[39.238259,21.484131],[39.23822,21.484126],[39.238181,21.484122],[39.238141,21.48412],[39.238102,21.484119],[39.238077,21.48412],[39.238051,21.484121],[39.238026,21.484123],[39.238,21.484125],[39.237975,21.484128],[39.23795,21.484132],[39.237925,21.484136],[39.236894,21.484247],[39.236801,21.484274],[39.235859,21.484359],[39.235818,21.484303],[39.234789,21.484378],[39.234788,21.484378],[39.234787,21.484378],[39.234786,21.484378],[39.234785,21.484378],[39.234784,21.484379],[39.234783,21.484379],[39.234782,21.484379],[39.234781,21.484379],[39.234756,21.484384],[39.234731,21.484391],[39.234707,21.4844],[39.234683,21.48441],[39.23466,21.484421],[39.234638,21.484434],[39.234617,21.484448],[39.234598,21.484464],[39.234579,21.48448],[39.233818,21.485372],[39.233743,21.485537],[39.233742,21.485658],[39.23374,21.485779],[39.233736,21.485901],[39.233732,21.486022],[39.233727,21.486143],[39.23372,21.486264],[39.233712,21.486385],[39.233703,21.486508],[39.233692,21.48663],[39.233681,21.486752],[39.233668,21.486874],[39.233654,21.486995],[39.233639,21.487117],[39.233622,21.487239],[39.233602,21.487395],[39.233563,21.487613],[39.23352,21.48783],[39.233471,21.488046],[39.233418,21.488262],[39.233359,21.488476],[39.233296,21.488689],[39.233228,21.488901],[39.233173,21.489057],[39.233155,21.489107],[39.233136,21.489157],[39.233117,21.489207],[39.233098,21.489257],[39.233079,21.489307],[39.233059,21.489357],[39.233039,21.489407],[39.232988,21.489534],[39.232978,21.489558],[39.232968,21.489582],[39.232957,21.489606],[39.232947,21.48963],[39.232937,21.489654],[39.232927,21.489678],[39.232916,21.489702],[39.232892,21.489754],[39.232868,21.489806],[39.232845,21.489859],[39.23282,21.489911],[39.232796,21.489963],[39.232772,21.490015],[39.232748,21.490067],[39.232748,21.490068],[39.232738,21.490087],[39.232729,21.490107],[39.232719,21.490127],[39.232709,21.490146],[39.232699,21.490166],[39.23269,21.490186],[39.23268,21.490205],[39.231222,21.492896],[39.231167,21.492889],[39.231131,21.492966],[39.230644,21.494025],[39.230623,21.494055],[39.230605,21.494087],[39.230589,21.49412],[39.230576,21.494154],[39.230565,21.494189],[39.230556,21.494224],[39.230551,21.49426],[39.230547,21.494296],[39.230546,21.494332],[39.230548,21.494368],[39.230553,21.494404],[39.23056,21.494439],[39.230569,21.494474],[39.230581,21.494509],[39.230596,21.494542],[39.230613,21.494575],[39.230632,21.494606],[39.230652,21.494636],[39.230675,21.494664],[39.2307,21.494691],[39.230726,21.494717],[39.230754,21.494741],[39.230784,21.494763],[39.230815,21.494783],[39.230847,21.494801],[39.230881,21.494818],[39.230915,21.494832],[39.230951,21.494845],[39.230987,21.494855],[39.231024,21.494863],[39.231061,21.494869],[39.231099,21.494873],[39.231112,21.494874],[39.231125,21.494874],[39.231138,21.494874],[39.231151,21.494874],[39.231164,21.494874],[39.231177,21.494873],[39.23119,21.494872],[39.231242,21.494866],[39.231251,21.494853],[39.231287,21.494804],[39.231294,21.494794],[39.231933,21.494716],[39.231964,21.494713],[39.232582,21.494638],[39.232601,21.494635],[39.232656,21.494629],[39.232702,21.494623],[39.232791,21.494612],[39.232807,21.49461],[39.235335,21.494303],[39.23535,21.494302],[39.235435,21.494291],[39.23546,21.494288],[39.236932,21.49411],[39.23696,21.494106],[39.237042,21.494096],[39.237096,21.49409],[39.237192,21.494078],[39.237223,21.494074],[39.238674,21.493898],[39.238726,21.493892],[39.239045,21.493853],[39.239076,21.493849],[39.239444,21.493804],[39.239443,21.493748],[39.239443,21.493723]]]]},"properties":{"zone_code":2000.0,"name_ar":"موقف 1242","branch":"السليمانية","area_sqm":765342.942,"zone_id":"ADM_ZONES-000001"}},{"type":"Feature","id":"ADM_ZONES-000002","geometry":{"type":"MultiPolygon","coordinates":[[[[39.249208,21.485557],[39.248378,21.485425],[39.248372,21.485471],[39.248367,21.485509],[39.248363,21.48551],[39.248307,21.485796],[39.248298,21.485842],[39.248269,21.485988],[39.248268,21.485996],[39.248152,21.486586],[39.248151,21.486591],[39.248133,21.486744],[39.24813,21.486774],[39.248064,21.48733],[39.248051,21.487445],[39.248051,21.487446],[39.24805,21.487449],[39.247977,21.488068],[39.247969,21.488141],[39.247967,21.488152],[39.247967,21.488155],[39.247961,21.488206],[39.24796,21.488214],[39.247953,21.488273],[39.247949,21.488309],[39.247947,21.488323],[39.247945,21.488344],[39.247938,21.488401],[39.247732,21.49015],[39.247729,21.490167],[39.247711,21.490324],[39.247712,21.490333],[39.247768,21.49073],[39.247777,21.490797],[39.247788,21.490879],[39.24784,21.491251],[39.247849,21.49131],[39.247866,21.491435],[39.247874,21.491491],[39.247883,21.49151],[39.247892,21.491529],[39.247898,21.491549],[39.247904,21.491569],[39.247907,21.49159],[39.247909,21.491611],[39.247909,21.491632],[39.247908,21.491653],[39.247905,21.491674],[39.247901,21.491694],[39.247895,21.491714],[39.247888,21.491734],[39.247879,21.491753],[39.247878,21.491755],[39.247876,21.491758],[39.247874,21.491761],[39.247864,21.491779],[39.247852,21.491796],[39.247838,21.491812],[39.247824,21.491827],[39.247809,21.491842],[39.247792,21.491855],[39.247774,21.491867],[39.247756,21.491878],[39.247737,21.491888],[39.247717,21.491896],[39.247697,21.491903],[39.247676,21.491909],[39.247655,21.491913],[39.247651,21.491914],[39.247648,21.491915],[39.247644,21.491915],[39.24899,21.492497],[39.249435,21.492689],[39.250713,21.493242],[39.250719,21.493244],[39.250726,21.493247],[39.250732,21.493249],[39.250738,21.493252],[39.250745,21.493254],[39.250751,21.493257],[39.250758,21.493259],[39.2508,21.493276],[39.250844,21.493292],[39.250887,21.493307],[39.250931,21.493322],[39.250974,21.493336],[39.251018,21.49335],[39.251063,21.493363],[39.251063,21.493363],[39.251139,21.493384],[39.251215,21.493403],[39.251291,21.49342],[39.251368,21.493436],[39.251446,21.49345],[39.251524,21.493462],[39.251602,21.493473],[39.251657,21.493479],[39.251712,21.493485],[39.251767,21.493489],[39.251823,21.493493],[39.251878,21.493496],[39.251933,21.493498],[39.251989,21.493499],[39.253911,21.493468],[39.253928,21.493468],[39.254337,21.493461],[39.254327,21.493416],[39.254318,21.493371],[39.254308,21.493325],[39.254297,21.49328],[39.254286,21.493235],[39.254274,21.49319],[39.254262,21.493145],[39.254262,21.493142],[39.254261,21.49314],[39.25426,21.493137],[39.254259,21.493135],[39.254259,21.493132],[39.254258,21.49313],[39.254257,21.493127],[39.254241,21.493071],[39.254225,21.493015],[39.254207,21.49296],[39.254189,21.492905],[39.254171,21.49285],[39.254151,21.492795],[39.254131,21.49274],[39.254131,21.49274],[39.254131,21.49274],[39.254131,21.49274],[39.254126,21.492728],[39.254122,21.492717],[39.254118,21.492705],[39.254113,21.492694],[39.254109,21.492682],[39.254104,21.492671],[39.2541,21.492659],[39.25406,21.492563],[39.254017,21.492466],[39.253973,21.492371],[39.253927,21.492277],[39.253878,21.492184],[39.253827,21.492091],[39.253774,21.492],[39.253769,21.491992],[39.253765,21.491985],[39.25376,21.491977],[39.253756,21.491969],[39.253751,21.491962],[39.253746,21.491954],[39.253742,21.491947],[39.253735,21.491937],[39.253729,21.491927],[39.253723,21.491918],[39.253716,21.491908],[39.25371,21.491898],[39.253704,21.491888],[39.253698,21.491879],[39.253667,21.491831],[39.253637,21.491784],[39.253607,21.491736],[39.253576,21.491688],[39.253547,21.49164],[39.253517,21.491592],[39.253487,21.491544],[39.253436,21.491461],[39.253386,21.491377],[39.253336,21.491293],[39.253287,21.491209],[39.253238,21.491125],[39.253189,21.49104],[39.253141,21.490955],[39.253133,21.49094],[39.253131,21.490931],[39.253093,21.490789],[39.253056,21.490647],[39.253021,21.490504],[39.252988,21.490361],[39.252957,21.490218],[39.252926,21.490074],[39.252898,21.48993],[39.25288,21.489835],[39.252862,21.489739],[39.252846,21.489643],[39.25283,21.489547],[39.252814,21.489451],[39.2528,21.489355],[39.252786,21.489258],[39.252785,21.489252],[39.252784,21.489246],[39.252783,21.48924],[39.252782,21.489234],[39.252781,21.489227],[39.25278,21.489221],[39.25278,21.489215],[39.252779,21.48921],[39.252778,21.489206],[39.252778,21.489201],[39.252777,21.489197],[39.252776,21.489193],[39.252776,21.489188],[39.252775,21.489184],[39.252772,21.489162],[39.25277,21.489146],[39.252768,21.489131],[39.252766,21.489115],[39.252764,21.489099],[39.252762,21.489083],[39.25276,21.489068],[39.252758,21.489052],[39.252756,21.489035],[39.252748,21.48897],[39.25274,21.488905],[39.252733,21.488839],[39.252726,21.488774],[39.252719,21.488709],[39.252713,21.488643],[39.252707,21.488578],[39.252706,21.488561],[39.252702,21.488519],[39.252698,21.488476],[39.252695,21.488433],[39.252692,21.48839],[39.252688,21.488347],[39.252685,21.488304],[39.252682,21.488261],[39.252682,21.488251],[39.252681,21.48824],[39.25268,21.48823],[39.25268,21.48822],[39.252679,21.488209],[39.252679,21.488199],[39.252678,21.488188],[39.252997,21.486204],[39.252978,21.486201],[39.252903,21.486189],[39.252815,21.486176],[39.251747,21.486008],[39.25171,21.486003],[39.251615,21.485988],[39.25162,21.485964],[39.249298,21.485598],[39.249278,21.485592],[39.249208,21.485557]]]]},"properties":{"zone_code":4000.0,"name_ar":"موقف 2194","branch":"السليمانية","area_sqm":433339.882,"zone_id":"ADM_ZONES-000002"}},{"type":"Feature","id":"ADM_ZONES-000003","geometry":{"type":"MultiPolygon","coordinates":[[[[39.253783,21.498269],[39.25379,21.498231],[39.253797,21.498193],[39.253804,21.498155],[39.25381,21.498117],[39.253817,21.498079],[39.253824,21.498041],[39.253831,21.498002],[39.253872,21.497773],[39.253913,21.497544],[39.253954,21.497314],[39.253996,21.497085],[39.254037,21.496856],[39.254078,21.496626],[39.25412,21.496397],[39.254157,21.496192],[39.254194,21.495987],[39.254231,21.495782],[39.254268,21.495577],[39.254305,21.495373],[39.254343,21.495168],[39.25438,21.494963],[39.25439,21.494872],[39.254398,21.49478],[39.254404,21.494688],[39.254409,21.494596],[39.254412,21.494504],[39.254414,21.494412],[39.254414,21.49432],[39.254413,21.494252],[39.254411,21.494184],[39.254408,21.494116],[39.254405,21.494048],[39.2544,21.493979],[39.254395,21.493911],[39.254389,21.493843],[39.254385,21.493809],[39.254381,21.493776],[39.254377,21.493742],[39.254373,21.493708],[39.254369,21.493674],[39.254364,21.49364],[39.25436,21.493606],[39.254357,21.493589],[39.254354,21.49357],[39.254352,21.493552],[39.254349,21.493534],[39.254346,21.493516],[39.254343,21.493498],[39.25434,21.49348],[39.254337,21.493461],[39.253928,21.493468],[39.253911,21.493468],[39.251989,21.493499],[39.251933,21.493498],[39.251878,21.493496],[39.251823,21.493493],[39.251767,21.493489],[39.251712,21.493485],[39.251657,21.493479],[39.251602,21.493473],[39.251524,21.493462],[39.251446,21.49345],[39.251368,21.493436],[39.251291,21.49342],[39.251215,21.493403],[39.251139,21.493384],[39.251063,21.493363],[39.251063,21.493363],[39.251018,21.49335],[39.250974,21.493336],[39.250931,21.493322],[39.250887,21.493307],[39.250844,21.493292],[39.2508,21.493276],[39.250758,21.493259],[39.250751,21.493257],[39.250745,21.493254],[39.250738,21.493252],[39.250732,21.493249],[39.250726,21.493247],[39.250719,21.493244],[39.250713,21.493242],[39.249435,21.492689],[39.24899,21.492497],[39.247644,21.491915],[39.247518,21.491861],[39.24739,21.49181],[39.24726,21.491763],[39.247129,21.491718],[39.246998,21.491677],[39.246864,21.491639],[39.24673,21.491604],[39.246509,21.491554],[39.246286,21.491512],[39.246061,21.49148],[39.245835,21.491456],[39.245608,21.491442],[39.24538,21.491437],[39.245152,21.49144],[39.245152,21.49144],[39.245143,21.491441],[39.245058,21.491449],[39.243919,21.491548],[39.243474,21.491587],[39.24036,21.491858],[39.240245,21.491868],[39.240131,21.491878],[39.239637,21.491921],[39.239413,21.49194],[39.239443,21.493723],[39.239443,21.493748],[39.239444,21.493804],[39.239453,21.49429],[39.239454,21.494314],[39.239526,21.498088],[39.239526,21.498109],[39.239531,21.498379],[39.239532,21.4984],[39.239534,21.498511],[39.239535,21.498552],[39.239538,21.498733],[39.239547,21.498693],[39.23956,21.498654],[39.239575,21.498616],[39.239592,21.498579],[39.239613,21.498543],[39.239636,21.498509],[39.239661,21.498476],[39.239689,21.498445],[39.239719,21.498415],[39.239751,21.498388],[39.239785,21.498363],[39.239786,21.498363],[39.239815,21.498344],[39.239844,21.498327],[39.239875,21.498311],[39.239907,21.498297],[39.239939,21.498285],[39.239973,21.498274],[39.240006,21.498265],[39.240146,21.498235],[39.240288,21.498211],[39.24043,21.498192],[39.240573,21.498179],[39.240716,21.498172],[39.24086,21.49817],[39.241004,21.498175],[39.241087,21.49818],[39.24117,21.498187],[39.241253,21.498196],[39.241336,21.498207],[39.241419,21.49822],[39.241501,21.498235],[39.241583,21.498251],[39.241622,21.49826],[39.241661,21.498269],[39.241701,21.498279],[39.241739,21.498289],[39.241778,21.4983],[39.241817,21.498311],[39.241856,21.498322],[39.24326,21.498718],[39.24326,21.498718],[39.243427,21.498766],[39.246445,21.499618],[39.24676,21.499707],[39.24676,21.499707],[39.246988,21.499745],[39.247132,21.499769],[39.247242,21.499787],[39.24726,21.49979],[39.247797,21.499879],[39.247813,21.499882],[39.247923,21.4999],[39.248063,21.499924],[39.248425,21.499984],[39.24998,21.500098],[39.250834,21.50016],[39.251037,21.500175],[39.251251,21.500191],[39.251562,21.500214],[39.252632,21.500292],[39.253033,21.500321],[39.253414,21.500349],[39.253422,21.500303],[39.25343,21.500257],[39.253438,21.500212],[39.253446,21.500166],[39.253454,21.50012],[39.253462,21.500074],[39.253471,21.500028],[39.253513,21.499785],[39.253552,21.499568],[39.25359,21.499352],[39.253629,21.499135],[39.253667,21.498919],[39.253706,21.498702],[39.253745,21.498486],[39.253783,21.498269]]]]},"properties":{"zone_code":5000.0,"name_ar":"موقف 13221","branch":"السليمانية","area_sqm":1195777.837,"zone_id":"ADM_ZONES-000003"}},{"type":"Feature","id":"ADM_ZONES-000004","geometry":{"type":"MultiPolygon","coordinates":[[[[39.25953,21.502696],[39.260289,21.501727],[39.260303,21.501677],[39.260624,21.501276],[39.260603,21.501255],[39.260643,21.501202],[39.260611,21.50118],[39.260609,21.501182],[39.260133,21.500858],[39.258065,21.500688],[39.257923,21.500676],[39.257889,21.500674],[39.257807,21.500667],[39.257739,21.500662],[39.257706,21.50066],[39.257573,21.50065],[39.25439,21.50042],[39.253736,21.500373],[39.253717,21.500371],[39.253578,21.500361],[39.253414,21.500349],[39.253033,21.500321],[39.252632,21.500292],[39.251562,21.500214],[39.251251,21.500191],[39.251037,21.500175],[39.250834,21.50016],[39.24998,21.500098],[39.248425,21.499984],[39.248063,21.499924],[39.247923,21.4999],[39.247813,21.499882],[39.247797,21.499879],[39.24726,21.49979],[39.247242,21.499787],[39.247132,21.499769],[39.246988,21.499745],[39.24676,21.499707],[39.24676,21.499707],[39.246445,21.499618],[39.243427,21.498766],[39.24326,21.498718],[39.24326,21.498718],[39.241856,21.498322],[39.241817,21.498311],[39.241778,21.4983],[39.241739,21.498289],[39.241701,21.498279],[39.241661,21.498269],[39.241622,21.49826],[39.241583,21.498251],[39.241501,21.498235],[39.241419,21.49822],[39.241336,21.498207],[39.241253,21.498196],[39.24117,21.498187],[39.241087,21.49818],[39.241004,21.498175],[39.24086,21.49817],[39.240716,21.498172],[39.240573,21.498179],[39.24043,21.498192],[39.240288,21.498211],[39.240146,21.498235],[39.240006,21.498265],[39.239973,21.498274],[39.239939,21.498285],[39.239907,21.498297],[39.239875,21.498311],[39.239844,21.498327],[39.239815,21.498344],[39.239786,21.498363],[39.239785,21.498363],[39.239751,21.498388],[39.239719,21.498415],[39.239689,21.498445],[39.239661,21.498476],[39.239636,21.498509],[39.239613,21.498543],[39.239592,21.498579],[39.239575,21.498616],[39.23956,21.498654],[39.239547,21.498693],[39.239538,21.498733],[39.239553,21.499535],[39.239557,21.499536],[39.239558,21.4996],[39.239558,21.499605],[39.23956,21.499607],[39.239564,21.499609],[39.239598,21.499609],[39.239608,21.499608],[39.239643,21.501589],[39.239706,21.501658],[39.242461,21.5017],[39.242623,21.501703],[39.242985,21.501708],[39.243165,21.501711],[39.246624,21.501764],[39.246684,21.501795],[39.246746,21.501821],[39.24681,21.501843],[39.246875,21.501861],[39.246942,21.501874],[39.247009,21.501883],[39.247077,21.501886],[39.247083,21.501885],[39.247088,21.501884],[39.247094,21.501882],[39.247099,21.50188],[39.247104,21.501878],[39.24711,21.501876],[39.247115,21.501874],[39.24712,21.501871],[39.247125,21.501869],[39.247129,21.501866],[39.247134,21.501863],[39.247138,21.50186],[39.247143,21.501857],[39.247147,21.501854],[39.247457,21.501906],[39.24746,21.501909],[39.247464,21.501912],[39.247467,21.501915],[39.247471,21.501917],[39.247475,21.50192],[39.247479,21.501922],[39.247483,21.501924],[39.247487,21.501925],[39.247492,21.501927],[39.247496,21.501945],[39.250592,21.502137],[39.250663,21.502141],[39.251063,21.502166],[39.251117,21.502159],[39.257728,21.502609],[39.25865,21.502671],[39.258656,21.502645],[39.259024,21.50267],[39.25904,21.502693],[39.259476,21.502723],[39.25953,21.502696]]]]},"properties":{"zone_code":6000.0,"name_ar":"موقف 2519","branch":"السليمانية","area_sqm":544958.891,"zone_id":"ADM_ZONES-000004"}},{"type":"Feature","id":"ADM_ZONES-000005","geometry":{"type":"MultiPolygon","coordinates":[[[[39.253033,21.48621],[39.252997,21.486204],[39.252678,21.488188],[39.252679,21.488199],[39.252679,21.488209],[39.25268,21.48822],[39.25268,21.48823],[39.252681,21.48824],[39.252682,21.488251],[39.252682,21.488261],[39.252685,21.488304],[39.252688,21.488347],[39.252692,21.48839],[39.252695,21.488433],[39.252698,21.488476],[39.252702,21.488519],[39.252706,21.488561],[39.252707,21.488578],[39.252713,21.488643],[39.252719,21.488709],[39.252726,21.488774],[39.252733,21.488839],[39.25274,21.488905],[39.252748,21.48897],[39.252756,21.489035],[39.252758,21.489052],[39.25276,21.489068],[39.252762,21.489083],[39.252764,21.489099],[39.252766,21.489115],[39.252768,21.489131],[39.25277,21.489146],[39.252772,21.489162],[39.252775,21.489184],[39.252776,21.489188],[39.252776,21.489193],[39.252777,21.489197],[39.252778,21.489201],[39.252778,21.489206],[39.252779,21.48921],[39.25278,21.489215],[39.25278,21.489221],[39.252781,21.489227],[39.252782,21.489234],[39.252783,21.48924],[39.252784,21.489246],[39.252785,21.489252],[39.252786,21.489258],[39.2528,21.489355],[39.252814,21.489451],[39.25283,21.489547],[39.252846,21.489643],[39.252862,21.489739],[39.25288,21.489835],[39.252898,21.48993],[39.252926,21.490074],[39.252957,21.490218],[39.252988,21.490361],[39.253021,21.490504],[39.253056,21.490647],[39.253093,21.490789],[39.253131,21.490931],[39.253133,21.49094],[39.253141,21.490955],[39.253189,21.49104],[39.253238,21.491125],[39.253287,21.491209],[39.253336,21.491293],[39.253386,21.491377],[39.253436,21.491461],[39.253487,21.491544],[39.253517,21.491592],[39.253547,21.49164],[39.253576,21.491688],[39.253607,21.491736],[39.253637,21.491784],[39.253667,21.491831],[39.253698,21.491879],[39.253704,21.491888],[39.25371,21.491898],[39.253716,21.491908],[39.253723,21.491918],[39.253729,21.491927],[39.253735,21.491937],[39.253742,21.491947],[39.253746,21.491954],[39.253751,21.491962],[39.253756,21.491969],[39.25376,21.491977],[39.253765,21.491985],[39.253769,21.491992],[39.253774,21.492],[39.253827,21.492091],[39.253878,21.492184],[39.253927,21.492277],[39.253973,21.492371],[39.254017,21.492466],[39.25406,21.492563],[39.2541,21.492659],[39.254104,21.492671],[39.254109,21.492682],[39.254113,21.492694],[39.254118,21.492705],[39.254122,21.492717],[39.254126,21.492728],[39.254131,21.49274],[39.254131,21.49274],[39.254131,21.49274],[39.254131,21.49274],[39.254151,21.492795],[39.254171,21.49285],[39.254189,21.492905],[39.254207,21.49296],[39.254225,21.493015],[39.254241,21.493071],[39.254257,21.493127],[39.254258,21.49313],[39.254259,21.493132],[39.254259,21.493135],[39.25426,21.493137],[39.254261,21.49314],[39.254262,21.493142],[39.254262,21.493145],[39.254274,21.49319],[39.254286,21.493235],[39.254297,21.49328],[39.254308,21.493325],[39.254318,21.493371],[39.254327,21.493416],[39.254337,21.493461],[39.25434,21.49348],[39.254343,21.493498],[39.254346,21.493516],[39.254349,21.493534],[39.254352,21.493552],[39.254354,21.49357],[39.254357,21.493589],[39.25436,21.493606],[39.254364,21.49364],[39.254369,21.493674],[39.254373,21.493708],[39.254377,21.493742],[39.254381,21.493776],[39.254385,21.493809],[39.254389,21.493843],[39.254395,21.493911],[39.2544,21.493979],[39.254405,21.494048],[39.254408,21.494116],[39.254411,21.494184],[39.254413,21.494252],[39.254414,21.49432],[39.254414,21.494412],[39.254412,21.494504],[39.254409,21.494596],[39.254404,21.494688],[39.254398,21.49478],[39.25439,21.494872],[39.25438,21.494963],[39.254343,21.495168],[39.254305,21.495373],[39.254268,21.495577],[39.254231,21.495782],[39.254194,21.495987],[39.254157,21.496192],[39.25412,21.496397],[39.254078,21.496626],[39.254037,21.496856],[39.253996,21.497085],[39.253954,21.497314],[39.253913,21.497544],[39.253872,21.497773],[39.253831,21.498002],[39.253824,21.498041],[39.253817,21.498079],[39.25381,21.498117],[39.253804,21.498155],[39.253797,21.498193],[39.25379,21.498231],[39.253783,21.498269],[39.253745,21.498486],[39.253706,21.498702],[39.253667,21.498919],[39.253629,21.499135],[39.25359,21.499352],[39.253552,21.499568],[39.253513,21.499785],[39.253471,21.500028],[39.253462,21.500074],[39.253454,21.50012],[39.253446,21.500166],[39.253438,21.500212],[39.25343,21.500257],[39.253422,21.500303],[39.253414,21.500349],[39.253578,21.500361],[39.253717,21.500371],[39.253736,21.500373],[39.25439,21.50042],[39.257573,21.50065],[39.257706,21.50066],[39.257739,21.500662],[39.257807,21.500667],[39.257922,21.500503],[39.257934,21.500486],[39.257975,21.500426],[39.258007,21.500381],[39.26184,21.494894],[39.261872,21.494848],[39.261895,21.494815],[39.261934,21.494759],[39.262395,21.494099],[39.260897,21.489639],[39.260196,21.487551],[39.260172,21.487479],[39.260143,21.487395],[39.256151,21.48673],[39.255906,21.486689],[39.255786,21.486669],[39.254969,21.486532],[39.254767,21.486499],[39.253033,21.48621]]]]},"properties":{"zone_code":7000.0,"name_ar":"موقف 500","branch":"السليمانية","area_sqm":1114652.69,"zone_id":"ADM_ZONES-000005"}},{"type":"Feature","id":"ADM_ZONES-000006","geometry":{"type":"MultiPolygon","coordinates":[[[[39.262445,21.487761],[39.260133,21.487342],[39.260143,21.487395],[39.260172,21.487479],[39.260196,21.487551],[39.260897,21.489639],[39.262395,21.494099],[39.261934,21.494759],[39.261895,21.494815],[39.261872,21.494848],[39.26184,21.494894],[39.258007,21.500381],[39.257975,21.500426],[39.257934,21.500486],[39.257922,21.500503],[39.257807,21.500667],[39.257889,21.500674],[39.257923,21.500676],[39.258065,21.500688],[39.260133,21.500858],[39.260609,21.501182],[39.260611,21.50118],[39.260813,21.500981],[39.260828,21.500967],[39.26083,21.500964],[39.261206,21.500478],[39.261208,21.500476],[39.263262,21.497815],[39.263265,21.49781],[39.263269,21.497806],[39.263272,21.497801],[39.263276,21.497796],[39.263279,21.497792],[39.263283,21.497787],[39.263287,21.497782],[39.263637,21.497328],[39.264658,21.495699],[39.264717,21.495615],[39.264869,21.495397],[39.264907,21.495267],[39.265449,21.494432],[39.265655,21.494116],[39.265841,21.493683],[39.266421,21.492336],[39.266497,21.492161],[39.266511,21.492128],[39.266585,21.491894],[39.266659,21.49166],[39.266837,21.491099],[39.266851,21.491014],[39.266862,21.490929],[39.266869,21.490843],[39.266872,21.490757],[39.266871,21.490671],[39.266866,21.490585],[39.266858,21.4905],[39.266836,21.490355],[39.266803,21.490212],[39.266759,21.490072],[39.266705,21.489935],[39.266641,21.489801],[39.266568,21.489673],[39.266485,21.489549],[39.266393,21.48943],[39.266292,21.489319],[39.266184,21.489213],[39.266068,21.489115],[39.265945,21.489025],[39.265816,21.488943],[39.265431,21.48873],[39.265035,21.488534],[39.264628,21.488358],[39.264213,21.488201],[39.263791,21.488063],[39.263361,21.487946],[39.262925,21.487848],[39.262522,21.487775],[39.262445,21.487761]]]]},"properties":{"zone_code":8000.0,"name_ar":"موقف 364","branch":"السليمانية","area_sqm":609047.073,"zone_id":"ADM_ZONES-000006"}},{"type":"Feature","id":"ADM_ZONES-000007","geometry":{"type":"MultiPolygon","coordinates":[[[[39.24673,21.491604],[39.246864,21.491639],[39.246998,21.491677],[39.247129,21.491718],[39.24726,21.491763],[39.24739,21.49181],[39.247518,21.491861],[39.247644,21.491915],[39.247648,21.491915],[39.247651,21.491914],[39.247673,21.49191],[39.247695,21.491904],[39.247715,21.491897],[39.247736,21.491888],[39.247755,21.491878],[39.247774,21.491867],[39.247792,21.491855],[39.247809,21.491841],[39.247825,21.491826],[39.24784,21.491811],[39.247853,21.491794],[39.247865,21.491777],[39.247876,21.491758],[39.247878,21.491755],[39.247879,21.491753],[39.247888,21.491734],[39.247895,21.491714],[39.247901,21.491694],[39.247905,21.491674],[39.247908,21.491653],[39.247909,21.491632],[39.247909,21.491611],[39.247907,21.49159],[39.247904,21.491569],[39.247898,21.491549],[39.247892,21.491529],[39.247883,21.49151],[39.247874,21.491491],[39.247866,21.491435],[39.247849,21.49131],[39.24784,21.491251],[39.247788,21.490879],[39.247777,21.490797],[39.247768,21.49073],[39.247712,21.490333],[39.247711,21.490324],[39.247729,21.490167],[39.247732,21.49015],[39.247938,21.488401],[39.247945,21.488344],[39.247947,21.488323],[39.247949,21.488309],[39.247953,21.488273],[39.24796,21.488214],[39.247961,21.488206],[39.247967,21.488155],[39.247967,21.488152],[39.247969,21.488141],[39.247977,21.488068],[39.24805,21.487449],[39.248051,21.487446],[39.248051,21.487445],[39.248064,21.48733],[39.24813,21.486774],[39.248133,21.486744],[39.248151,21.486591],[39.248152,21.486586],[39.248268,21.485996],[39.248269,21.485988],[39.248298,21.485842],[39.248307,21.485796],[39.248363,21.48551],[39.248367,21.485509],[39.248372,21.485471],[39.248378,21.485425],[39.24686,21.485184],[39.246857,21.485197],[39.246854,21.485215],[39.246788,21.485204],[39.246764,21.4852],[39.246697,21.485188],[39.246701,21.485172],[39.246702,21.485167],[39.246702,21.485161],[39.246702,21.485156],[39.246701,21.485151],[39.246701,21.485146],[39.2467,21.485141],[39.246698,21.485136],[39.246696,21.485132],[39.246694,21.485127],[39.246691,21.485122],[39.246689,21.485118],[39.246685,21.485114],[39.246682,21.48511],[39.246678,21.485106],[39.246674,21.485103],[39.24667,21.4851],[39.246665,21.485097],[39.246661,21.485094],[39.246656,21.485092],[39.246651,21.48509],[39.246646,21.485088],[39.24664,21.485087],[39.246635,21.485086],[39.24663,21.485085],[39.246624,21.485085],[39.246619,21.485085],[39.246613,21.485085],[39.246608,21.485086],[39.246603,21.485087],[39.246587,21.485103],[39.246569,21.485123],[39.244279,21.48474],[39.243975,21.484583],[39.243954,21.484579],[39.243933,21.484575],[39.243911,21.484572],[39.24389,21.484569],[39.243868,21.484567],[39.243847,21.484565],[39.243825,21.484564],[39.243822,21.484564],[39.243819,21.484563],[39.243816,21.484563],[39.243813,21.484563],[39.24381,21.484563],[39.243807,21.484563],[39.243805,21.484563],[39.243802,21.484563],[39.243799,21.484562],[39.243796,21.484562],[39.243794,21.484562],[39.243787,21.484562],[39.243784,21.484562],[39.24378,21.484562],[39.243777,21.484562],[39.243773,21.484562],[39.243769,21.484562],[39.243766,21.484562],[39.243762,21.484562],[39.243761,21.484562],[39.24376,21.484562],[39.243758,21.484562],[39.243757,21.484562],[39.243756,21.484562],[39.243754,21.484562],[39.243753,21.484562],[39.243752,21.484562],[39.243751,21.484562],[39.243749,21.484562],[39.243748,21.484562],[39.243747,21.484562],[39.243746,21.484562],[39.243744,21.484562],[39.243743,21.484562],[39.243742,21.484562],[39.24374,21.484562],[39.243739,21.484562],[39.243738,21.484562],[39.243737,21.484562],[39.243735,21.484562],[39.243734,21.484562],[39.243733,21.484562],[39.243731,21.484562],[39.24373,21.484562],[39.243729,21.484562],[39.243728,21.484562],[39.243726,21.484562],[39.243725,21.484562],[39.243724,21.484562],[39.243723,21.484562],[39.243721,21.484562],[39.24372,21.484562],[39.243719,21.484562],[39.243717,21.484562],[39.243716,21.484562],[39.243715,21.484562],[39.243714,21.484562],[39.243712,21.484562],[39.243711,21.484562],[39.24371,21.484563],[39.243708,21.484563],[39.243707,21.484563],[39.243706,21.484563],[39.243705,21.484563],[39.243703,21.484563],[39.243702,21.484563],[39.243701,21.484563],[39.2437,21.484563],[39.243698,21.484563],[39.243697,21.484563],[39.243696,21.484563],[39.243694,21.484563],[39.243693,21.484563],[39.243692,21.484563],[39.243691,21.484563],[39.243689,21.484564],[39.243688,21.484564],[39.243687,21.484564],[39.243685,21.484564],[39.243684,21.484564],[39.243683,21.484564],[39.243682,21.484564],[39.24368,21.484564],[39.243679,21.484564],[39.243678,21.484564],[39.243677,21.484564],[39.243675,21.484564],[39.243674,21.484565],[39.243673,21.484565],[39.243671,21.484565],[39.24367,21.484565],[39.243669,21.484565],[39.243668,21.484565],[39.243667,21.484565],[39.243665,21.484565],[39.243664,21.484565],[39.24366,21.484566],[39.243656,21.484566],[39.243653,21.484566],[39.243649,21.484567],[39.243645,21.484567],[39.243641,21.484567],[39.243637,21.484568],[39.243635,21.484568],[39.243634,21.484568],[39.243632,21.484568],[39.243631,21.484568],[39.243629,21.484569],[39.243627,21.484569],[39.243626,21.484569],[39.243624,21.484569],[39.243618,21.48457],[39.243618,21.48457],[39.243588,21.484574],[39.243558,21.484579],[39.243529,21.484584],[39.243499,21.484591],[39.24347,21.484598],[39.243441,21.484606],[39.243412,21.484614],[39.243412,21.484614],[39.243046,21.484548],[39.243005,21.484513],[39.242962,21.484481],[39.242916,21.484451],[39.242869,21.484425],[39.242819,21.484402],[39.242768,21.484382],[39.242715,21.484366],[39.242662,21.484354],[39.242607,21.484345],[39.242468,21.484329],[39.242443,21.484396],[39.24169,21.484308],[39.240663,21.484152],[39.24065,21.484083],[39.240643,21.484083],[39.240635,21.484082],[39.240628,21.484082],[39.24062,21.484083],[39.240613,21.484084],[39.240605,21.484085],[39.240598,21.484087],[39.240591,21.48409],[39.240584,21.484093],[39.240577,21.484096],[39.24057,21.4841],[39.24038,21.484065],[39.240377,21.484062],[39.240373,21.484059],[39.240369,21.484056],[39.240366,21.484053],[39.240361,21.484051],[39.240357,21.484049],[39.240353,21.484047],[39.240222,21.484018],[39.240091,21.483993],[39.239959,21.48397],[39.239827,21.483949],[39.239694,21.483932],[39.23956,21.483916],[39.239427,21.483904],[39.239416,21.483904],[39.239405,21.483905],[39.239395,21.483907],[39.239384,21.483909],[39.239374,21.483912],[39.239364,21.483915],[39.239354,21.48392],[39.239344,21.483924],[39.239335,21.48393],[39.239326,21.483935],[39.239318,21.483942],[39.23931,21.483949],[39.239302,21.483956],[39.239263,21.484056],[39.239266,21.484145],[39.239284,21.484145],[39.239285,21.484165],[39.239304,21.485348],[39.239309,21.485659],[39.23932,21.486317],[39.239327,21.486693],[39.239329,21.486853],[39.23933,21.486929],[39.239361,21.488785],[39.239363,21.488869],[39.239363,21.488874],[39.239366,21.489096],[39.239372,21.489428],[39.239376,21.489676],[39.239383,21.490125],[39.239384,21.490191],[39.239413,21.49194],[39.239637,21.491921],[39.240131,21.491878],[39.240245,21.491868],[39.24036,21.491858],[39.243474,21.491587],[39.243919,21.491548],[39.245058,21.491449],[39.245143,21.491441],[39.245152,21.49144],[39.245152,21.49144],[39.24538,21.491437],[39.245608,21.491442],[39.245835,21.491456],[39.246061,21.49148],[39.246286,21.491512],[39.246509,21.491554],[39.24673,21.491604]]]]},"properties":{"zone_code":3000.0,"name_ar":"موقف 2987","branch":"السليمانية","area_sqm":696444.234,"zone_id":"ADM_ZONES-000007"}}]}