{"type":"FeatureCollection","name":"adm_investment","crs":{"type":"name","properties":{"name":"urn:ogc:def:crs:OGC:1.3:CRS84"}},"features":[{"type":"Feature","id":"ADM_INVESTMENT-000000","geometry":{"type":"MultiPolygon","coordinates":[[[[39.255747,21.500565],[39.255742,21.500565],[39.254043,21.500441],[39.253998,21.500441],[39.253953,21.500443],[39.253908,21.500449],[39.253863,21.500457],[39.253819,21.500469],[39.253777,21.500483],[39.253735,21.5005],[39.253713,21.500511],[39.253692,21.500523],[39.25367,21.500535],[39.25365,21.500548],[39.25363,21.500562],[39.25361,21.500576],[39.253591,21.500591],[39.253576,21.500601],[39.253561,21.500611],[39.253545,21.50062],[39.253529,21.500629],[39.253512,21.500637],[39.253496,21.500645],[39.253479,21.500652],[39.253458,21.500664],[39.253436,21.500676],[39.253414,21.500687],[39.253391,21.500696],[39.253367,21.500703],[39.253343,21.50071],[39.253319,21.500715],[39.253295,21.500719],[39.25327,21.500721],[39.253269,21.500721],[39.253268,21.500721],[39.253268,21.500721],[39.253267,21.500721],[39.253266,21.500721],[39.253266,21.500721],[39.253265,21.500721],[39.253233,21.500716],[39.253202,21.50071],[39.253172,21.500702],[39.253142,21.500692],[39.253113,21.50068],[39.253084,21.500667],[39.253057,21.500653],[39.25303,21.500636],[39.253005,21.500618],[39.252859,21.50218],[39.252906,21.502184],[39.252902,21.502257],[39.255595,21.502441],[39.255747,21.500565]]]]},"properties":{"land_tenure":"OWN","ownership":"UNI","usage_status":"ACT","contract_status":"ACT","contract_type":"LEA","investment_type":"EDU","area_sqm":56988.102,"investment_id":"ADM_INVESTMENT-000000"}},{"type":"Feature","id":"ADM_INVESTMENT-000001","geometry":{"type":"MultiPolygon","coordinates":[[[[39.253315,21.499467],[39.253476,21.498601],[39.253484,21.498554],[39.25348,21.498518],[39.253425,21.498502],[39.249605,21.497894],[39.249208,21.499775],[39.249208,21.499775],[39.249208,21.499775],[39.249208,21.499775],[39.249208,21.499775],[39.249208,21.499775],[39.249208,21.499775],[39.249208,21.499775],[39.249208,21.499775],[39.249208,21.499775],[39.249208,21.499775],[39.249208,21.499775],[39.249246,21.499838],[39.249246,21.499838],[39.249247,21.499838],[39.249247,21.499839],[39.249247,21.499839],[39.249247,21.499839],[39.249247,21.499839],[39.249247,21.499839],[39.249247,21.499839],[39.249247,21.499839],[39.249247,21.499839],[39.249247,21.499839],[39.249247,21.499839],[39.249247,21.499839],[39.249247,21.499839],[39.249247,21.499839],[39.250663,21.499943],[39.252558,21.500067],[39.252609,21.500067],[39.252661,21.500063],[39.252712,21.500056],[39.252762,21.500045],[39.252812,21.500032],[39.252861,21.500015],[39.252908,21.499995],[39.252953,21.499972],[39.252997,21.499946],[39.253038,21.499917],[39.253078,21.499886],[39.253115,21.499852],[39.253149,21.499816],[39.253181,21.499778],[39.25321,21.499738],[39.253235,21.499696],[39.253258,21.499652],[39.253277,21.499607],[39.253293,21.499561],[39.253306,21.499514],[39.253315,21.499467]]]]},"properties":{"land_tenure":"OWN","ownership":"UNI","usage_status":"ACT","contract_status":"ACT","contract_type":"LEA","investment_type":"EDU","area_sqm":80938.993,"investment_id":"ADM_INVESTMENT-000001"}},{"type":"Feature","id":"ADM_INVESTMENT-000002","geometry":{"type":"MultiPolygon","coordinates":[[[[39.264864,21.490184],[39.265496,21.490011],[39.265333,21.489512],[39.265923,21.489311],[39.265681,21.489138],[39.265513,21.489033],[39.265354,21.488954],[39.265165,21.488862],[39.264882,21.488727],[39.264758,21.488671],[39.264676,21.488638],[39.264547,21.488592],[39.264448,21.488559],[39.264396,21.488572],[39.264358,21.488617],[39.264354,21.488657],[39.264828,21.490166],[39.264829,21.490168],[39.264829,21.490169],[39.26483,21.490171],[39.264831,21.490173],[39.264832,21.490174],[39.264834,21.490176],[39.264835,21.490177],[39.264836,21.490178],[39.264838,21.49018],[39.264839,21.490181],[39.264841,21.490182],[39.264843,21.490183],[39.264845,21.490183],[39.264846,21.490184],[39.264848,21.490185],[39.26485,21.490185],[39.264852,21.490185],[39.264854,21.490185],[39.264856,21.490185],[39.264858,21.490185],[39.26486,21.490185],[39.264862,21.490185],[39.264864,21.490184]]]]},"properties":{"land_tenure":"OWN","ownership":"UNI","usage_status":"ACT","contract_status":"ACT","contract_type":"LEA","investment_type":"EDU","area_sqm":14381.342,"investment_id":"ADM_INVESTMENT-000002"}},{"type":"Feature","id":"ADM_INVESTMENT-000003","geometry":{"type":"MultiPolygon","coordinates":[[[[39.263955,21.493221],[39.262369,21.488193],[39.262367,21.488186],[39.262365,21.488179],[39.262363,21.488171],[39.262362,21.488164],[39.262361,21.488157],[39.262361,21.488149],[39.26236,21.488142],[39.26236,21.488135],[39.262359,21.488129],[39.262358,21.488123],[39.262358,21.488117],[39.262357,21.488111],[39.262357,21.488104],[39.262356,21.488098],[39.262356,21.488094],[39.262354,21.488089],[39.262353,21.488085],[39.262351,21.488081],[39.262349,21.488077],[39.262347,21.488073],[39.262344,21.48807],[39.262341,21.488066],[39.262338,21.488063],[39.262334,21.48806],[39.262331,21.488057],[39.262327,21.488054],[39.262323,21.488052],[39.26228,21.488037],[39.262237,21.48802],[39.262196,21.488002],[39.262154,21.487984],[39.262113,21.487964],[39.262073,21.487943],[39.262033,21.487922],[39.262023,21.487915],[39.262013,21.487908],[39.262003,21.487901],[39.261993,21.487894],[39.261982,21.487887],[39.261972,21.48788],[39.261962,21.487873],[39.258972,21.487386],[39.258775,21.488691],[39.258803,21.488694],[39.258831,21.488696],[39.258859,21.488698],[39.258888,21.4887],[39.258916,21.488701],[39.258944,21.488702],[39.258972,21.488703],[39.259023,21.488715],[39.259073,21.488729],[39.259122,21.488747],[39.259171,21.488766],[39.259217,21.488789],[39.259263,21.488813],[39.259307,21.48884],[39.259331,21.488855],[39.259353,21.488871],[39.259375,21.488889],[39.259396,21.488907],[39.259415,21.488927],[39.259433,21.488948],[39.25945,21.488969],[39.259465,21.488992],[39.259479,21.489015],[39.259495,21.489033],[39.25951,21.489052],[39.259525,21.48907],[39.25954,21.489089],[39.259554,21.489108],[39.259569,21.489127],[39.259583,21.489146],[39.259585,21.489147],[39.259587,21.489149],[39.259589,21.48915],[39.259591,21.489151],[39.259593,21.489151],[39.259595,21.489152],[39.259598,21.489153],[39.2596,21.489153],[39.259602,21.489153],[39.259605,21.489153],[39.259607,21.489153],[39.25961,21.489153],[39.259612,21.489153],[39.260433,21.489053],[39.260572,21.490037],[39.259828,21.490127],[39.25982,21.490129],[39.259812,21.49013],[39.259805,21.490132],[39.259797,21.490134],[39.259789,21.490136],[39.259782,21.490138],[39.259774,21.490141],[39.259773,21.490142],[39.259771,21.490143],[39.25977,21.490145],[39.259769,21.490146],[39.259768,21.490148],[39.259767,21.490149],[39.259766,21.490151],[39.259766,21.490152],[39.259765,21.490154],[39.259765,21.490156],[39.259765,21.490158],[39.259765,21.49016],[39.259765,21.490161],[39.259765,21.490163],[39.259765,21.490165],[39.259837,21.490669],[39.261992,21.492044],[39.262503,21.493677],[39.263955,21.493221]]]]},"properties":{"land_tenure":"OWN","ownership":"UNI","usage_status":"ACT","contract_status":"ACT","contract_type":"LEA","investment_type":"EDU","area_sqm":169082.379,"investment_id":"ADM_INVESTMENT-000003"}},{"type":"Feature","id":"ADM_INVESTMENT-000004","geometry":{"type":"MultiPolygon","coordinates":[[[[39.257259,21.489744],[39.257256,21.489726],[39.258562,21.48957],[39.258568,21.489569],[39.258575,21.489567],[39.258581,21.489565],[39.258587,21.489563],[39.258593,21.489561],[39.258599,21.489558],[39.258604,21.489554],[39.25861,21.489551],[39.258615,21.489547],[39.258619,21.489542],[39.258624,21.489538],[39.258628,21.489533],[39.258631,21.489528],[39.258635,21.489522],[39.258638,21.489517],[39.25864,21.489511],[39.258642,21.489505],[39.258644,21.489499],[39.258645,21.489493],[39.258646,21.489487],[39.258646,21.489481],[39.258646,21.489474],[39.258645,21.489468],[39.258625,21.48933],[39.258606,21.489332],[39.258566,21.489048],[39.258585,21.489046],[39.25857,21.48894],[39.258569,21.488937],[39.258568,21.488934],[39.258567,21.488932],[39.258566,21.488929],[39.258564,21.488927],[39.258562,21.488925],[39.25856,21.488923],[39.258558,21.488921],[39.258556,21.488919],[39.258554,21.488917],[39.258551,21.488916],[39.258549,21.488914],[39.258546,21.488913],[39.258544,21.488912],[39.258541,21.488911],[39.258538,21.48891],[39.258535,21.48891],[39.258532,21.488909],[39.258529,21.488909],[39.258526,21.488909],[39.258523,21.488909],[39.25852,21.48891],[39.258518,21.48891],[39.257618,21.489021],[39.25761,21.489022],[39.257601,21.489023],[39.257593,21.489024],[39.257584,21.489024],[39.257576,21.489025],[39.257567,21.489025],[39.257559,21.489025],[39.257501,21.489025],[39.257443,21.489022],[39.257386,21.489015],[39.25733,21.489005],[39.257274,21.488991],[39.257219,21.488975],[39.257166,21.488955],[39.257114,21.488931],[39.257063,21.488905],[39.25706,21.488904],[39.257056,21.488903],[39.257052,21.488902],[39.257048,21.488901],[39.257044,21.488901],[39.25704,21.4889],[39.257036,21.4889],[39.257033,21.488901],[39.257029,21.488901],[39.257025,21.488902],[39.257021,21.488903],[39.257017,21.488905],[39.257014,21.488906],[39.25701,21.488908],[39.257007,21.48891],[39.257004,21.488912],[39.257001,21.488914],[39.256998,21.488917],[39.256995,21.48892],[39.256988,21.488928],[39.256981,21.488937],[39.256974,21.488946],[39.256967,21.488955],[39.25696,21.488964],[39.256954,21.488973],[39.256948,21.488982],[39.256941,21.488993],[39.256935,21.489005],[39.25693,21.489017],[39.256926,21.489029],[39.256923,21.489042],[39.256921,21.489055],[39.25692,21.489067],[39.25692,21.48908],[39.256921,21.489093],[39.256946,21.48909],[39.257014,21.489573],[39.256996,21.489575],[39.257,21.48959],[39.257004,21.489605],[39.25701,21.489619],[39.257018,21.489633],[39.257026,21.489646],[39.257035,21.489659],[39.257045,21.489671],[39.257056,21.489682],[39.257067,21.489693],[39.25708,21.489703],[39.257093,21.489712],[39.257107,21.48972],[39.257121,21.489727],[39.257136,21.489733],[39.257151,21.489739],[39.257167,21.489743],[39.257183,21.489746],[39.257199,21.489748],[39.257216,21.489749],[39.257259,21.489744]]]]},"properties":{"land_tenure":"OWN","ownership":"UNI","usage_status":"ACT","contract_status":"ACT","contract_type":"LEA","investment_type":"EDU","area_sqm":12816.593,"investment_id":"ADM_INVESTMENT-000004"}},{"type":"Feature","id":"ADM_INVESTMENT-000005","geometry":{"type":"MultiPolygon","coordinates":[[[[39.257774,21.488811],[39.258507,21.488719],[39.258722,21.487346],[39.257328,21.487126],[39.256028,21.486914],[39.255935,21.487402],[39.256093,21.487427],[39.25608,21.487292],[39.256877,21.487196],[39.256993,21.487185],[39.257102,21.487186],[39.257127,21.487189],[39.257146,21.487194],[39.25718,21.487205],[39.2572,21.487216],[39.257225,21.487232],[39.257251,21.487252],[39.257279,21.487285],[39.257294,21.487309],[39.257331,21.487416],[39.257437,21.488006],[39.257479,21.488356],[39.257405,21.488472],[39.257182,21.488752],[39.257372,21.488818],[39.2574,21.488824],[39.257574,21.488831],[39.257774,21.488811]]]]},"properties":{"land_tenure":"OWN","ownership":"UNI","usage_status":"ACT","contract_status":"ACT","contract_type":"LEA","investment_type":"EDU","area_sqm":25606.661,"investment_id":"ADM_INVESTMENT-000005"}},{"type":"Feature","id":"ADM_INVESTMENT-000006","geometry":{"type":"MultiPolygon","coordinates":[[[[39.255514,21.495956],[39.256279,21.494904],[39.256313,21.494854],[39.256343,21.494802],[39.256369,21.494748],[39.256391,21.494693],[39.25641,21.494637],[39.256424,21.494579],[39.256435,21.494521],[39.256441,21.494462],[39.256443,21.494403],[39.256441,21.494344],[39.256435,21.494285],[39.256363,21.493771],[39.255999,21.493816],[39.255996,21.493816],[39.255992,21.493817],[39.255989,21.493818],[39.255986,21.493819],[39.255983,21.49382],[39.255981,21.493822],[39.255978,21.493824],[39.255975,21.493825],[39.255973,21.493827],[39.255971,21.49383],[39.255968,21.493832],[39.255966,21.493834],[39.255965,21.493837],[39.255963,21.49384],[39.255962,21.493842],[39.255954,21.493858],[39.255945,21.493874],[39.255935,21.493889],[39.255924,21.493903],[39.255912,21.493916],[39.255899,21.493929],[39.255885,21.49394],[39.255871,21.493951],[39.255855,21.493961],[39.255839,21.493969],[39.255822,21.493977],[39.255805,21.493984],[39.255787,21.493989],[39.255769,21.493994],[39.255751,21.493997],[39.255732,21.493999],[39.255714,21.493999],[39.255695,21.493999],[39.255676,21.493997],[39.255658,21.493994],[39.25564,21.49399],[39.255622,21.493985],[39.255605,21.493979],[39.255588,21.493971],[39.255571,21.493963],[39.255556,21.493953],[39.255541,21.493942],[39.255527,21.493931],[39.255514,21.493919],[39.255502,21.493905],[39.25549,21.493891],[39.25548,21.493877],[39.255471,21.493862],[39.255463,21.493846],[39.255456,21.493829],[39.255455,21.493827],[39.255454,21.493824],[39.255452,21.493822],[39.255451,21.493819],[39.255449,21.493817],[39.255447,21.493815],[39.255445,21.493813],[39.255442,21.493811],[39.25544,21.493809],[39.255437,21.493808],[39.255435,21.493806],[39.255432,21.493805],[39.255429,21.493804],[39.255426,21.493803],[39.255423,21.493802],[39.255209,21.493749],[39.254835,21.493656],[39.254828,21.493659],[39.254821,21.493661],[39.254814,21.493663],[39.254807,21.493665],[39.2548,21.493667],[39.254793,21.493668],[39.254786,21.493669],[39.254777,21.493668],[39.254769,21.493666],[39.25476,21.493665],[39.254752,21.493664],[39.254744,21.493663],[39.254736,21.493661],[39.254727,21.49366],[39.25471,21.493658],[39.254693,21.493658],[39.254676,21.493659],[39.254659,21.493661],[39.254643,21.493663],[39.254626,21.493667],[39.25461,21.493672],[39.254594,21.493678],[39.254579,21.493685],[39.254564,21.493693],[39.25455,21.493702],[39.254535,21.493712],[39.254522,21.493723],[39.254509,21.493735],[39.254497,21.493748],[39.254486,21.493762],[39.254476,21.493776],[39.254467,21.493791],[39.254459,21.493807],[39.254452,21.493822],[39.254446,21.493839],[39.254442,21.493855],[39.254439,21.493872],[39.254437,21.493889],[39.254436,21.493906],[39.254436,21.493923],[39.254438,21.49394],[39.25444,21.493957],[39.254459,21.494141],[39.254469,21.494325],[39.25447,21.49451],[39.254463,21.494694],[39.254446,21.494878],[39.254421,21.495061],[39.254388,21.495242],[39.254483,21.495305],[39.254492,21.495305],[39.254501,21.495305],[39.254509,21.495305],[39.254518,21.495306],[39.254526,21.495307],[39.254535,21.495309],[39.254543,21.495312],[39.254551,21.495315],[39.254559,21.495318],[39.254566,21.495322],[39.254574,21.495327],[39.254581,21.495332],[39.254587,21.495337],[39.254594,21.495343],[39.254599,21.495349],[39.254605,21.495355],[39.25461,21.495362],[39.254614,21.495369],[39.254618,21.495376],[39.254622,21.495383],[39.254624,21.495391],[39.254627,21.495399],[39.254629,21.495407],[39.255494,21.495959],[39.255495,21.49596],[39.255496,21.49596],[39.255497,21.49596],[39.255497,21.495961],[39.255498,21.495961],[39.255499,21.495961],[39.2555,21.495961],[39.255501,21.495961],[39.255502,21.495961],[39.255503,21.495961],[39.255504,21.495961],[39.255505,21.495961],[39.255506,21.495961],[39.255507,21.49596],[39.255508,21.49596],[39.255509,21.49596],[39.255509,21.495959],[39.25551,21.495959],[39.255511,21.495958],[39.255512,21.495958],[39.255512,21.495957],[39.255513,21.495956],[39.255514,21.495956]]]]},"properties":{"land_tenure":"OWN","ownership":"UNI","usage_status":"ACT","contract_status":"ACT","contract_type":"LEA","investment_type":"EDU","area_sqm":38235.355,"investment_id":"ADM_INVESTMENT-000006"}},{"type":"Feature","id":"ADM_INVESTMENT-000007","geometry":{"type":"MultiPolygon","coordinates":[[[[39.252909,21.493547],[39.25212,21.493546],[39.252072,21.493547],[39.252025,21.493547],[39.251978,21.493547],[39.251931,21.493546],[39.251883,21.493545],[39.251836,21.493543],[39.251789,21.49354],[39.2517,21.493964],[39.25278,21.494157],[39.252909,21.493547]]]]},"properties":{"land_tenure":"OWN","ownership":"UNI","usage_status":"ACT","contract_status":"ACT","contract_type":"LEA","investment_type":"EDU","area_sqm":6608.101,"investment_id":"ADM_INVESTMENT-000007"}},{"type":"Feature","id":"ADM_INVESTMENT-000008","geometry":{"type":"MultiPolygon","coordinates":[[[[39.251688,21.493533],[39.251628,21.493527],[39.251568,21.49352],[39.251509,21.493512],[39.251449,21.493503],[39.25139,21.493493],[39.251331,21.493483],[39.251272,21.493471],[39.251211,21.493457],[39.251151,21.493443],[39.251091,21.493428],[39.251031,21.493411],[39.250972,21.493394],[39.250913,21.493376],[39.250854,21.493356],[39.250806,21.493338],[39.250758,21.493319],[39.25071,21.493301],[39.250661,21.493283],[39.250612,21.493266],[39.250564,21.493249],[39.250515,21.493232],[39.250512,21.493231],[39.250509,21.493231],[39.250507,21.493231],[39.250504,21.493231],[39.250501,21.493231],[39.250498,21.493232],[39.250496,21.493232],[39.250493,21.493233],[39.250491,21.493234],[39.250488,21.493235],[39.250486,21.493236],[39.250484,21.493237],[39.250481,21.493239],[39.250479,21.493241],[39.250477,21.493242],[39.250476,21.493244],[39.250474,21.493246],[39.250472,21.493248],[39.250471,21.493251],[39.25047,21.493253],[39.250469,21.493255],[39.250468,21.493258],[39.250467,21.49326],[39.250467,21.493263],[39.250467,21.493265],[39.250466,21.493268],[39.250467,21.49327],[39.250467,21.493273],[39.250467,21.493275],[39.250367,21.493728],[39.251606,21.493947],[39.251688,21.493533]]]]},"properties":{"land_tenure":"OWN","ownership":"UNI","usage_status":"ACT","contract_status":"ACT","contract_type":"LEA","investment_type":"EDU","area_sqm":6332.378,"investment_id":"ADM_INVESTMENT-000008"}},{"type":"Feature","id":"ADM_INVESTMENT-000009","geometry":{"type":"MultiPolygon","coordinates":[[[[39.255254,21.488143],[39.255326,21.487761],[39.254541,21.48763],[39.254472,21.487978],[39.254404,21.488248],[39.255254,21.488143]]]]},"properties":{"land_tenure":"OWN","ownership":"UNI","usage_status":"ACT","contract_status":"ACT","contract_type":"LEA","investment_type":"EDU","area_sqm":4674.213,"investment_id":"ADM_INVESTMENT-000009"}},{"type":"Feature","id":"ADM_INVESTMENT-000010","geometry":{"type":"MultiPolygon","coordinates":[[[[39.254747,21.486501],[39.253274,21.486256],[39.253257,21.486368],[39.253209,21.486363],[39.253204,21.486356],[39.253203,21.486357],[39.253185,21.486459],[39.253059,21.486441],[39.253034,21.486591],[39.252971,21.486582],[39.252922,21.486869],[39.254623,21.487156],[39.254747,21.486501]]]]},"properties":{"land_tenure":"OWN","ownership":"UNI","usage_status":"ACT","contract_status":"ACT","contract_type":"LEA","investment_type":"EDU","area_sqm":12529.512,"investment_id":"ADM_INVESTMENT-000010"}},{"type":"Feature","id":"ADM_INVESTMENT-000011","geometry":{"type":"MultiPolygon","coordinates":[[[[39.252582,21.48673],[39.252611,21.486556],[39.252588,21.486554],[39.252592,21.486524],[39.252555,21.486518],[39.252576,21.486365],[39.252452,21.486348],[39.252472,21.486242],[39.252416,21.486231],[39.252437,21.486114],[39.251752,21.485992],[39.251641,21.486584],[39.25249,21.486735],[39.252559,21.486746],[39.252561,21.486746],[39.252563,21.486746],[39.252565,21.486745],[39.252567,21.486744],[39.252569,21.486744],[39.25257,21.486743],[39.252572,21.486742],[39.252574,21.486741],[39.252575,21.48674],[39.252577,21.486738],[39.252578,21.486737],[39.252579,21.486735],[39.25258,21.486734],[39.252581,21.486732],[39.252582,21.48673]]]]},"properties":{"land_tenure":"OWN","ownership":"UNI","usage_status":"ACT","contract_status":"ACT","contract_type":"LEA","investment_type":"EDU","area_sqm":5846.342,"investment_id":"ADM_INVESTMENT-000011"}},{"type":"Feature","id":"ADM_INVESTMENT-000012","geometry":{"type":"MultiPolygon","coordinates":[[[[39.242648,21.500388],[39.242661,21.500249],[39.242683,21.500112],[39.242712,21.499975],[39.24275,21.49984],[39.242795,21.499708],[39.242848,21.499578],[39.242908,21.499451],[39.242222,21.499257],[39.242086,21.499672],[39.242078,21.4997],[39.242021,21.499872],[39.241917,21.500204],[39.242185,21.5004],[39.242188,21.500402],[39.24219,21.500403],[39.242193,21.500404],[39.242196,21.500405],[39.242199,21.500406],[39.242202,21.500407],[39.242204,21.500408],[39.242207,21.500408],[39.24221,21.500408],[39.242621,21.500413],[39.242623,21.500413],[39.242624,21.500413],[39.242626,21.500413],[39.242628,21.500413],[39.242629,21.500412],[39.242631,21.500412],[39.242633,21.500411],[39.242634,21.50041],[39.242636,21.50041],[39.242637,21.500409],[39.242638,21.500408],[39.24264,21.500407],[39.242641,21.500406],[39.242642,21.500404],[39.242643,21.500403],[39.242644,21.500402],[39.242645,21.5004],[39.242646,21.500399],[39.242646,21.500397],[39.242647,21.500396],[39.242647,21.500394],[39.242648,21.500393],[39.242648,21.500391],[39.242648,21.500389],[39.242648,21.500388]]]]},"properties":{"land_tenure":"OWN","ownership":"UNI","usage_status":"ACT","contract_status":"ACT","contract_type":"LEA","investment_type":"EDU","area_sqm":8538.41,"investment_id":"ADM_INVESTMENT-000012"}},{"type":"Feature","id":"ADM_INVESTMENT-000013","geometry":{"type":"MultiPolygon","coordinates":[[[[39.240384,21.500112],[39.240402,21.499214],[39.239651,21.499175],[39.239666,21.500116],[39.239794,21.500117],[39.240374,21.500121],[39.240375,21.500121],[39.240375,21.500121],[39.240376,21.500121],[39.240377,21.500121],[39.240377,21.500121],[39.240378,21.500121],[39.240379,21.50012],[39.240379,21.50012],[39.24038,21.50012],[39.24038,21.500119],[39.240381,21.500119],[39.240381,21.500119],[39.240382,21.500118],[39.240382,21.500118],[39.240382,21.500117],[39.240383,21.500117],[39.240383,21.500116],[39.240383,21.500115],[39.240383,21.500115],[39.240384,21.500114],[39.240384,21.500114],[39.240384,21.500113],[39.240384,21.500112]]]]},"properties":{"land_tenure":"OWN","ownership":"UNI","usage_status":"ACT","contract_status":"ACT","contract_type":"LEA","investment_type":"EDU","area_sqm":7778.894,"investment_id":"ADM_INVESTMENT-000013"}},{"type":"Feature","id":"ADM_INVESTMENT-000014","geometry":{"type":"MultiPolygon","coordinates":[[[[39.247893,21.486844],[39.247818,21.486826],[39.246973,21.486692],[39.246825,21.487353],[39.247767,21.487508],[39.247893,21.486844]]]]},"properties":{"land_tenure":"OWN","ownership":"UNI","usage_status":"ACT","contract_status":"ACT","contract_type":"LEA","investment_type":"EDU","area_sqm":7343.211,"investment_id":"ADM_INVESTMENT-000014"}},{"type":"Feature","id":"ADM_INVESTMENT-000015","geometry":{"type":"MultiPolygon","coordinates":[[[[39.247107,21.486022],[39.246728,21.485957],[39.246629,21.486486],[39.247005,21.486547],[39.247107,21.486022]]]]},"properties":{"land_tenure":"OWN","ownership":"UNI","usage_status":"ACT","contract_status":"ACT","contract_type":"LEA","investment_type":"EDU","area_sqm":2352.177,"investment_id":"ADM_INVESTMENT-000015"}},{"type":"Feature","id":"ADM_INVESTMENT-000016","geometry":{"type":"MultiPolygon","coordinates":[[[[39.246066,21.487782],[39.246111,21.48779],[39.246116,21.487791],[39.24612,21.487791],[39.246125,21.487791],[39.24613,21.487791],[39.246134,21.487791],[39.246139,21.48779],[39.246143,21.487789],[39.246148,21.487787],[39.246152,21.487786],[39.246156,21.487784],[39.24616,21.487782],[39.246164,21.487779],[39.246168,21.487776],[39.246171,21.487773],[39.246174,21.48777],[39.246177,21.487767],[39.24618,21.487764],[39.246183,21.48776],[39.246185,21.487756],[39.246187,21.487752],[39.246188,21.487748],[39.24619,21.487744],[39.246191,21.48774],[39.246319,21.4871],[39.245959,21.487032],[39.245824,21.487765],[39.246061,21.487808],[39.246066,21.487782]]]]},"properties":{"land_tenure":"OWN","ownership":"UNI","usage_status":"ACT","contract_status":"ACT","contract_type":"LEA","investment_type":"EDU","area_sqm":3030.128,"investment_id":"ADM_INVESTMENT-000016"}},{"type":"Feature","id":"ADM_INVESTMENT-000017","geometry":{"type":"MultiPolygon","coordinates":[[[[39.245894,21.486951],[39.245278,21.486854],[39.245164,21.487486],[39.245273,21.487583],[39.245308,21.487621],[39.245404,21.487688],[39.245745,21.48775],[39.245894,21.486951]]]]},"properties":{"land_tenure":"OWN","ownership":"UNI","usage_status":"ACT","contract_status":"ACT","contract_type":"LEA","investment_type":"EDU","area_sqm":5509.53,"investment_id":"ADM_INVESTMENT-000017"}},{"type":"Feature","id":"ADM_INVESTMENT-000018","geometry":{"type":"MultiPolygon","coordinates":[[[[39.24088,21.48442],[39.240723,21.484181],[39.23986,21.484045],[39.239402,21.483974],[39.239393,21.483975],[39.239385,21.483977],[39.239377,21.483979],[39.239369,21.483981],[39.239361,21.483984],[39.239353,21.483987],[39.239346,21.483991],[39.239339,21.483995],[39.239332,21.484],[39.239325,21.484005],[39.239319,21.484011],[39.239317,21.484015],[39.239315,21.484018],[39.239312,21.484022],[39.23931,21.484026],[39.239307,21.48403],[39.239305,21.484034],[39.239303,21.484038],[39.239311,21.48465],[39.240792,21.484885],[39.24088,21.48442]]]]},"properties":{"land_tenure":"OWN","ownership":"UNI","usage_status":"ACT","contract_status":"ACT","contract_type":"LEA","investment_type":"EDU","area_sqm":12023.602,"investment_id":"ADM_INVESTMENT-000018"}},{"type":"Feature","id":"ADM_INVESTMENT-000019","geometry":{"type":"MultiPolygon","coordinates":[[[[39.234384,21.487144],[39.234186,21.485039],[39.23404,21.485216],[39.23402,21.485239],[39.234001,21.485263],[39.233985,21.485288],[39.23397,21.485315],[39.233958,21.485342],[39.233947,21.48537],[39.233939,21.485398],[39.233933,21.485427],[39.233929,21.485457],[39.233678,21.487194],[39.234384,21.487144]]]]},"properties":{"land_tenure":"OWN","ownership":"UNI","usage_status":"ACT","contract_status":"ACT","contract_type":"LEA","investment_type":"EDU","area_sqm":10670.627,"investment_id":"ADM_INVESTMENT-000019"}},{"type":"Feature","id":"ADM_INVESTMENT-000020","geometry":{"type":"MultiPolygon","coordinates":[[[[39.231386,21.496403],[39.231923,21.49634],[39.231786,21.495305],[39.231786,21.495304],[39.231786,21.495303],[39.231786,21.495302],[39.231786,21.495302],[39.231786,21.495301],[39.231786,21.4953],[39.231786,21.495299],[39.231787,21.495298],[39.231787,21.495297],[39.231808,21.495247],[39.231627,21.495284],[39.23157,21.495299],[39.231514,21.495315],[39.231459,21.495334],[39.231405,21.495354],[39.231351,21.495376],[39.231298,21.4954],[39.231247,21.495425],[39.231232,21.495489],[39.231361,21.49639],[39.231361,21.496391],[39.231362,21.496393],[39.231363,21.496394],[39.231364,21.496395],[39.231365,21.496396],[39.231366,21.496397],[39.231368,21.496398],[39.231369,21.496399],[39.23137,21.4964],[39.231372,21.496401],[39.231373,21.496402],[39.231375,21.496402],[39.231376,21.496403],[39.231378,21.496403],[39.231379,21.496403],[39.231381,21.496403],[39.231383,21.496404],[39.231384,21.496404],[39.231386,21.496403]]]]},"properties":{"land_tenure":"OWN","ownership":"UNI","usage_status":"ACT","contract_status":"ACT","contract_type":"LEA","investment_type":"EDU","area_sqm":6877.068,"investment_id":"ADM_INVESTMENT-000020"}},{"type":"Feature","id":"ADM_INVESTMENT-000021","geometry":{"type":"MultiPolygon","coordinates":[[[[39.23004,21.499281],[39.229965,21.498749],[39.229834,21.498766],[39.229833,21.498766],[39.229831,21.498766],[39.229829,21.498766],[39.229828,21.498766],[39.229826,21.498765],[39.229824,21.498765],[39.229823,21.498765],[39.229821,21.498764],[39.22982,21.498763],[39.229819,21.498762],[39.229817,21.498762],[39.229816,21.498761],[39.229815,21.49876],[39.229813,21.498759],[39.229812,21.498757],[39.229811,21.498756],[39.229811,21.498755],[39.22981,21.498753],[39.229809,21.498752],[39.229809,21.498751],[39.229808,21.498749],[39.229808,21.498748],[39.229807,21.498746],[39.229765,21.498452],[39.229765,21.49845],[39.229764,21.498449],[39.229764,21.498447],[39.229763,21.498446],[39.229763,21.498444],[39.229762,21.498443],[39.229761,21.498442],[39.22976,21.49844],[39.229759,21.498439],[39.229758,21.498438],[39.229757,21.498437],[39.229755,21.498436],[39.229754,21.498435],[39.229753,21.498434],[39.229751,21.498434],[39.22975,21.498433],[39.229748,21.498432],[39.229746,21.498432],[39.229745,21.498432],[39.229743,21.498432],[39.229742,21.498431],[39.22974,21.498431],[39.229738,21.498432],[39.228963,21.498527],[39.229081,21.499399],[39.23004,21.499281]]]]},"properties":{"land_tenure":"OWN","ownership":"UNI","usage_status":"ACT","contract_status":"ACT","contract_type":"LEA","investment_type":"EDU","area_sqm":9105.463,"investment_id":"ADM_INVESTMENT-000021"}},{"type":"Feature","id":"ADM_INVESTMENT-000022","geometry":{"type":"MultiPolygon","coordinates":[[[[39.228473,21.4995],[39.228509,21.499451],[39.2284,21.498691],[39.22835,21.49866],[39.227746,21.498744],[39.227629,21.498749],[39.227571,21.498793],[39.227393,21.499033],[39.227399,21.499061],[39.227405,21.499088],[39.227952,21.499442],[39.227983,21.499481],[39.227985,21.499526],[39.228026,21.499556],[39.228473,21.4995]]]]},"properties":{"land_tenure":"OWN","ownership":"UNI","usage_status":"ACT","contract_status":"ACT","contract_type":"LEA","investment_type":"EDU","area_sqm":7832.996,"investment_id":"ADM_INVESTMENT-000022"}},{"type":"Feature","id":"ADM_INVESTMENT-000023","geometry":{"type":"MultiPolygon","coordinates":[[[[39.250968,21.495813],[39.250155,21.495679],[39.250057,21.496198],[39.250868,21.496335],[39.250968,21.495813]]]]},"properties":{"land_tenure":"OWN","ownership":"UNI","usage_status":"ACT","contract_status":"ACT","contract_type":"LEA","investment_type":"EDU","area_sqm":4997.043,"investment_id":"ADM_INVESTMENT-000023"}},{"type":"Feature","id":"ADM_INVESTMENT-000024","geometry":{"type":"MultiPolygon","coordinates":[[[[39.253787,21.495967],[39.250209,21.495392],[39.250188,21.495507],[39.253764,21.496082],[39.253787,21.495967]]]]},"properties":{"land_tenure":"OWN","ownership":"UNI","usage_status":"ACT","contract_status":"ACT","contract_type":"LEA","investment_type":"EDU","area_sqm":4886.799,"investment_id":"ADM_INVESTMENT-000024"}},{"type":"Feature","id":"ADM_INVESTMENT-000025","geometry":{"type":"MultiPolygon","coordinates":[[[[39.228391,21.499608],[39.228072,21.499649],[39.228084,21.499732],[39.228061,21.499733],[39.22811,21.500069],[39.22813,21.500066],[39.228151,21.500233],[39.228132,21.500235],[39.228151,21.500373],[39.22834,21.500349],[39.228338,21.500334],[39.22844,21.50032],[39.22848,21.500348],[39.228577,21.500335],[39.228588,21.500319],[39.228681,21.50031],[39.228716,21.500335],[39.228764,21.50033],[39.228762,21.500298],[39.228844,21.500288],[39.228867,21.500282],[39.228888,21.500272],[39.228918,21.500244],[39.228977,21.500172],[39.228984,21.500163],[39.229,21.500113],[39.228997,21.500085],[39.228982,21.500087],[39.228906,21.499544],[39.228817,21.499557],[39.22885,21.499806],[39.228826,21.499809],[39.228834,21.499868],[39.228629,21.499897],[39.228607,21.499754],[39.228413,21.499778],[39.228391,21.499608]]]]},"properties":{"land_tenure":"OWN","ownership":"UNI","usage_status":"ACT","contract_status":"ACT","contract_type":"LEA","investment_type":"EDU","area_sqm":5890.494,"investment_id":"ADM_INVESTMENT-000025"}},{"type":"Feature","id":"ADM_INVESTMENT-000026","geometry":{"type":"MultiPolygon","coordinates":[[[[39.229259,21.500283],[39.229335,21.500274],[39.229333,21.500254],[39.229412,21.500245],[39.229415,21.500264],[39.230002,21.500192],[39.230005,21.500214],[39.230097,21.500203],[39.230051,21.499879],[39.230072,21.499876],[39.230049,21.499706],[39.230028,21.499709],[39.230022,21.499667],[39.230043,21.499664],[39.230008,21.499419],[39.229762,21.499449],[39.229764,21.499467],[39.229154,21.499541],[39.229258,21.500283],[39.229259,21.500283]]]]},"properties":{"land_tenure":"OWN","ownership":"UNI","usage_status":"ACT","contract_status":"ACT","contract_type":"LEA","investment_type":"EDU","area_sqm":7377.791,"investment_id":"ADM_INVESTMENT-000026"}},{"type":"Feature","id":"ADM_INVESTMENT-000027","geometry":{"type":"MultiPolygon","coordinates":[[[[39.231651,21.496823],[39.231644,21.496777],[39.23179,21.496758],[39.231744,21.496452],[39.231453,21.496489],[39.231471,21.496616],[39.231496,21.496613],[39.231507,21.496692],[39.231482,21.496695],[39.231504,21.49684],[39.231651,21.496823]]]]},"properties":{"land_tenure":"OWN","ownership":"UNI","usage_status":"ACT","contract_status":"ACT","contract_type":"LEA","investment_type":"EDU","area_sqm":1098.879,"investment_id":"ADM_INVESTMENT-000027"}},{"type":"Feature","id":"ADM_INVESTMENT-000028","geometry":{"type":"MultiPolygon","coordinates":[[[[39.260464,21.500718],[39.260514,21.500662],[39.260574,21.500613],[39.260646,21.500581],[39.260718,21.50056],[39.260805,21.500542],[39.260895,21.500512],[39.260942,21.500463],[39.263213,21.497526],[39.263304,21.497407],[39.263378,21.497283],[39.26349,21.497035],[39.264251,21.495837],[39.264465,21.495479],[39.264554,21.495355],[39.264579,21.495304],[39.264582,21.495257],[39.264572,21.495197],[39.264552,21.495154],[39.263991,21.49334],[39.262562,21.493818],[39.258014,21.500154],[39.258004,21.500289],[39.258004,21.500367],[39.258035,21.500425],[39.258113,21.500464],[39.258223,21.500488],[39.26008,21.500605],[39.260207,21.50063],[39.260311,21.500654],[39.260383,21.500697],[39.26042,21.500732],[39.260464,21.500718]]]]},"properties":{"description":"Wadi Jeddah Land","land_tenure":"OWN","ownership":"UNI","usage_status":"ACT","contract_status":"ACT","contract_type":"LEA","investment_type":"EDU","area_sqm":237176.403,"investment_id":"ADM_INVESTMENT-000028"}},{"type":"Feature","id":"ADM_INVESTMENT-000029","geometry":{"type":"MultiPolygon","coordinates":[[[[39.232601,21.500135],[39.232768,21.50009],[39.233228,21.50005],[39.233235,21.500048],[39.233236,21.500041],[39.23322,21.49994],[39.233218,21.499932],[39.233274,21.499924],[39.233275,21.499929],[39.233286,21.499927],[39.23319,21.499234],[39.233187,21.499227],[39.233125,21.499139],[39.232555,21.49921],[39.232503,21.499248],[39.232463,21.49929],[39.232432,21.499338],[39.232416,21.499386],[39.232404,21.499447],[39.232407,21.499507],[39.232438,21.499721],[39.232477,21.499756],[39.232499,21.499927],[39.232466,21.499969],[39.232491,21.500144],[39.232601,21.500135]]]]},"properties":{"description":"Wadi Jeddah Land","land_tenure":"OWN","ownership":"UNI","usage_status":"ACT","contract_status":"ACT","contract_type":"LEA","investment_type":"EDU","area_sqm":8132.069,"investment_id":"ADM_INVESTMENT-000029"}},{"type":"Feature","id":"ADM_INVESTMENT-000030","geometry":{"type":"MultiPolygon","coordinates":[[[[39.230129,21.500246],[39.230159,21.50021],[39.230048,21.499414],[39.230004,21.499383],[39.229142,21.499488],[39.229109,21.499529],[39.229215,21.500285],[39.229258,21.500318],[39.230129,21.500246]]]]},"properties":{"land_tenure":"OWN","ownership":"UNI","usage_status":"ACT","contract_status":"ACT","contract_type":"LEA","investment_type":"EDU","area_sqm":9235.8,"investment_id":"ADM_INVESTMENT-000030"}},{"type":"Feature","id":"ADM_INVESTMENT-000031","geometry":{"type":"MultiPolygon","coordinates":[[[[39.229037,21.500336],[39.22907,21.500297],[39.228965,21.499546],[39.228922,21.499515],[39.228046,21.499622],[39.228013,21.499663],[39.228113,21.500377],[39.228156,21.50041],[39.229037,21.500336]]]]},"properties":{"land_tenure":"OWN","ownership":"UNI","usage_status":"ACT","contract_status":"ACT","contract_type":"LEA","investment_type":"EDU","area_sqm":8900.019,"investment_id":"ADM_INVESTMENT-000031"}},{"type":"Feature","id":"ADM_INVESTMENT-000032","geometry":{"type":"MultiPolygon","coordinates":[[[[39.228909,21.499426],[39.228943,21.499385],[39.228838,21.498639],[39.228795,21.498608],[39.22853,21.49864],[39.228497,21.498681],[39.228602,21.499427],[39.228645,21.499458],[39.228909,21.499426]]]]},"properties":{"land_tenure":"OWN","ownership":"UNI","usage_status":"ACT","contract_status":"ACT","contract_type":"LEA","investment_type":"EDU","area_sqm":3222.183,"investment_id":"ADM_INVESTMENT-000032"}},{"type":"Feature","id":"ADM_INVESTMENT-000033","geometry":{"type":"MultiPolygon","coordinates":[[[[39.231213,21.496141],[39.231242,21.496105],[39.23116,21.495524],[39.231118,21.495506],[39.231081,21.49553],[39.231038,21.495559],[39.230995,21.495587],[39.230952,21.495616],[39.23091,21.495645],[39.230867,21.495675],[39.230825,21.495704],[39.230783,21.495734],[39.230729,21.495774],[39.230675,21.495814],[39.230621,21.495854],[39.230567,21.495896],[39.230514,21.495937],[39.230462,21.495979],[39.23041,21.496022],[39.230376,21.496049],[39.230342,21.496076],[39.230308,21.496102],[39.230273,21.496129],[39.230239,21.496154],[39.230203,21.496179],[39.230168,21.496204],[39.230151,21.496216],[39.230134,21.496227],[39.230117,21.496239],[39.2301,21.49625],[39.230083,21.496261],[39.230066,21.496272],[39.230049,21.496283],[39.231213,21.496141]]]]},"properties":{"land_tenure":"OWN","ownership":"UNI","usage_status":"ACT","contract_status":"ACT","contract_type":"LEA","investment_type":"EDU","area_sqm":4627.026,"investment_id":"ADM_INVESTMENT-000033"}},{"type":"Feature","id":"ADM_INVESTMENT-000034","geometry":{"type":"MultiPolygon","coordinates":[[[[39.231334,21.497046],[39.231368,21.497005],[39.231264,21.496262],[39.23122,21.496231],[39.22988,21.496395],[39.229847,21.496436],[39.229951,21.497179],[39.229994,21.49721],[39.231334,21.497046]]]]},"properties":{"land_tenure":"OWN","ownership":"UNI","usage_status":"ACT","contract_status":"ACT","contract_type":"LEA","investment_type":"EDU","area_sqm":13427.373,"investment_id":"ADM_INVESTMENT-000034"}},{"type":"Feature","id":"ADM_INVESTMENT-000035","geometry":{"type":"MultiPolygon","coordinates":[[[[39.229865,21.498386],[39.229898,21.498345],[39.229777,21.497475],[39.229739,21.497447],[39.229142,21.497524],[39.229085,21.497556],[39.228901,21.497793],[39.228875,21.497853],[39.228959,21.49846],[39.229003,21.498491],[39.229865,21.498386]]]]},"properties":{"land_tenure":"OWN","ownership":"UNI","usage_status":"ACT","contract_status":"ACT","contract_type":"LEA","investment_type":"EDU","area_sqm":9779.27,"investment_id":"ADM_INVESTMENT-000035"}},{"type":"Feature","id":"ADM_INVESTMENT-000036","geometry":{"type":"MultiPolygon","coordinates":[[[[39.228097,21.498602],[39.228783,21.498518],[39.228816,21.498478],[39.228737,21.497913],[39.228673,21.497846],[39.228516,21.497746],[39.228453,21.497732],[39.228391,21.497745],[39.228346,21.497783],[39.227883,21.498374],[39.227877,21.498382],[39.227872,21.498391],[39.227868,21.4984],[39.227864,21.498409],[39.227861,21.498419],[39.227858,21.498428],[39.227857,21.498438],[39.227856,21.498448],[39.227855,21.498458],[39.227856,21.498468],[39.227857,21.498478],[39.227859,21.498488],[39.227861,21.498497],[39.227865,21.498507],[39.227869,21.498516],[39.227873,21.498525],[39.227879,21.498534],[39.227884,21.498542],[39.227891,21.49855],[39.227898,21.498557],[39.227905,21.498564],[39.227913,21.498571],[39.227922,21.498577],[39.227931,21.498582],[39.22794,21.498587],[39.22795,21.498592],[39.22796,21.498595],[39.22797,21.498598],[39.22798,21.498601],[39.227991,21.498602],[39.228001,21.498603],[39.228015,21.498604],[39.228029,21.498605],[39.228042,21.498605],[39.228056,21.498605],[39.22807,21.498604],[39.228083,21.498603],[39.228097,21.498602]]]]},"properties":{"land_tenure":"OWN","ownership":"UNI","usage_status":"ACT","contract_status":"ACT","contract_type":"LEA","investment_type":"EDU","area_sqm":6442.862,"investment_id":"ADM_INVESTMENT-000036"}},{"type":"Feature","id":"ADM_INVESTMENT-000037","geometry":{"type":"MultiPolygon","coordinates":[[[[39.231516,21.498064],[39.231399,21.497226],[39.23002,21.497394],[39.229987,21.497435],[39.230094,21.498201],[39.230137,21.498232],[39.231516,21.498064]]]]},"properties":{"land_tenure":"OWN","ownership":"UNI","usage_status":"ACT","contract_status":"ACT","contract_type":"LEA","investment_type":"EDU","area_sqm":13827.908,"investment_id":"ADM_INVESTMENT-000037"}},{"type":"Feature","id":"ADM_INVESTMENT-000038","geometry":{"type":"MultiPolygon","coordinates":[[[[39.229698,21.497246],[39.229735,21.497201],[39.22967,21.496731],[39.229668,21.49672],[39.229665,21.496709],[39.229661,21.496698],[39.229657,21.496687],[39.229652,21.496677],[39.229646,21.496667],[39.22964,21.496657],[39.229632,21.496648],[39.229624,21.49664],[39.229616,21.496632],[39.229607,21.496624],[39.229597,21.496617],[39.229587,21.496611],[39.229577,21.496605],[39.229566,21.4966],[39.229555,21.496596],[39.229543,21.496592],[39.229532,21.496589],[39.22952,21.496587],[39.229508,21.496586],[39.229496,21.496585],[39.229483,21.496586],[39.229471,21.496586],[39.229459,21.496588],[39.229448,21.496591],[39.229436,21.496594],[39.229425,21.496598],[39.229414,21.496603],[39.229403,21.496608],[39.229065,21.496792],[39.229009,21.49684],[39.228837,21.497112],[39.228832,21.497181],[39.229017,21.497307],[39.229084,21.49732],[39.229698,21.497246]]]]},"properties":{"land_tenure":"OWN","ownership":"UNI","usage_status":"ACT","contract_status":"ACT","contract_type":"LEA","investment_type":"EDU","area_sqm":5381.289,"investment_id":"ADM_INVESTMENT-000038"}},{"type":"Feature","id":"ADM_INVESTMENT-000039","geometry":{"type":"MultiPolygon","coordinates":[[[[39.231759,21.496994],[39.231826,21.496958],[39.231862,21.496924],[39.231877,21.496887],[39.231801,21.496348],[39.231381,21.496399],[39.231464,21.496993],[39.231507,21.497024],[39.231759,21.496994]]]]},"properties":{"land_tenure":"OWN","ownership":"UNI","usage_status":"ACT","contract_status":"ACT","contract_type":"LEA","investment_type":"EDU","area_sqm":3034.674,"investment_id":"ADM_INVESTMENT-000039"}},{"type":"Feature","id":"ADM_INVESTMENT-000040","geometry":{"type":"MultiPolygon","coordinates":[[[[39.231612,21.498052],[39.23207,21.497996],[39.232103,21.497956],[39.232048,21.497551],[39.232031,21.497507],[39.232,21.497453],[39.231701,21.497189],[39.231399,21.497226],[39.231516,21.498064],[39.231612,21.498052]]]]},"properties":{"land_tenure":"OWN","ownership":"UNI","usage_status":"ACT","contract_status":"ACT","contract_type":"LEA","investment_type":"EDU","area_sqm":5210.302,"investment_id":"ADM_INVESTMENT-000040"}},{"type":"Feature","id":"ADM_INVESTMENT-000041","geometry":{"type":"MultiPolygon","coordinates":[[[[39.240432,21.497603],[39.240387,21.49727],[39.239859,21.497334],[39.239905,21.497654],[39.240432,21.497603]]]]},"properties":{"description":"Wadi Jeddah Land","land_tenure":"OWN","ownership":"UNI","usage_status":"ACT","contract_status":"ACT","contract_type":"LEA","investment_type":"EDU","area_sqm":2003.574,"investment_id":"ADM_INVESTMENT-000041"}},{"type":"Feature","id":"ADM_INVESTMENT-000042","geometry":{"type":"MultiPolygon","coordinates":[[[[39.244023,21.486765],[39.243271,21.486648],[39.243166,21.487207],[39.243924,21.487326],[39.244023,21.486765]]]]},"properties":{"description":"Wadi Jeddah Land","land_tenure":"OWN","ownership":"UNI","usage_status":"ACT","contract_status":"ACT","contract_type":"LEA","investment_type":"EDU","area_sqm":4984.248,"investment_id":"ADM_INVESTMENT-000042"}},{"type":"Feature","id":"ADM_INVESTMENT-000043","geometry":{"type":"MultiPolygon","coordinates":[[[[39.244717,21.488015],[39.24435,21.487943],[39.244386,21.487798],[39.243909,21.487707],[39.243816,21.488154],[39.244655,21.488326],[39.244717,21.488015]]]]},"properties":{"description":"Wadi Jeddah Land","land_tenure":"OWN","ownership":"UNI","usage_status":"ACT","contract_status":"ACT","contract_type":"LEA","investment_type":"EDU","area_sqm":3889.378,"investment_id":"ADM_INVESTMENT-000043"}},{"type":"Feature","id":"ADM_INVESTMENT-000044","geometry":{"type":"MultiPolygon","coordinates":[[[[39.234399,21.487153],[39.23633,21.487005],[39.236208,21.485856],[39.237981,21.48571],[39.237846,21.484211],[39.234721,21.484496],[39.2342,21.485063],[39.234399,21.487153]]]]},"properties":{"description":"Wadi Jeddah Land","land_tenure":"OWN","ownership":"UNI","usage_status":"ACT","contract_status":"ACT","contract_type":"LEA","investment_type":"EDU","area_sqm":87009.044,"investment_id":"ADM_INVESTMENT-000044"}},{"type":"Feature","id":"ADM_INVESTMENT-000045","geometry":{"type":"MultiPolygon","coordinates":[[[[39.252906,21.502184],[39.252859,21.50218],[39.253005,21.500618],[39.252649,21.500378],[39.249752,21.500169],[39.249744,21.500259],[39.249686,21.500256],[39.249681,21.500323],[39.249739,21.500327],[39.249649,21.501403],[39.249487,21.50139],[39.249477,21.501493],[39.249081,21.501463],[39.249037,21.50199],[39.252902,21.502257],[39.252906,21.502184]]]]},"properties":{"description":"Wadi Jeddah Land","land_tenure":"OWN","ownership":"UNI","usage_status":"ACT","contract_status":"ACT","contract_type":"LEA","investment_type":"EDU","area_sqm":73014.082,"investment_id":"ADM_INVESTMENT-000045"}},{"type":"Feature","id":"ADM_INVESTMENT-000046","geometry":{"type":"MultiPolygon","coordinates":[[[[39.25944,21.501245],[39.260202,21.50178],[39.26025,21.501719],[39.260249,21.501717],[39.260242,21.501717],[39.260202,21.501682],[39.260209,21.50168],[39.260307,21.501548],[39.260314,21.501546],[39.260315,21.501545],[39.26027,21.501515],[39.260277,21.501513],[39.260371,21.501378],[39.260378,21.501376],[39.260379,21.501375],[39.260332,21.501348],[39.260339,21.501346],[39.26045,21.501192],[39.260413,21.501166],[39.260375,21.50114],[39.260337,21.501114],[39.2603,21.501088],[39.260262,21.501062],[39.260224,21.501036],[39.260186,21.50101],[39.260172,21.500995],[39.260157,21.500981],[39.260141,21.500968],[39.260124,21.500956],[39.260106,21.500945],[39.260087,21.500935],[39.260068,21.500927],[39.260048,21.50092],[39.260028,21.500914],[39.259976,21.500899],[39.259964,21.500895],[39.25987,21.500888],[39.259777,21.500881],[39.259683,21.500873],[39.25959,21.500866],[39.259496,21.500859],[39.259403,21.500852],[39.259309,21.500845],[39.259153,21.500834],[39.258996,21.500823],[39.258839,21.500812],[39.258682,21.500801],[39.258526,21.500789],[39.258369,21.500778],[39.258212,21.500767],[39.258203,21.500767],[39.258194,21.500767],[39.258185,21.500768],[39.258176,21.500769],[39.258167,21.500771],[39.258158,21.500773],[39.25815,21.500776],[39.258142,21.50078],[39.258134,21.500784],[39.258126,21.500788],[39.258118,21.500793],[39.258111,21.500799],[39.258105,21.500804],[39.258099,21.500811],[39.258093,21.500817],[39.258088,21.500824],[39.258083,21.500832],[39.258079,21.500839],[39.258075,21.500847],[39.258072,21.500855],[39.258069,21.500863],[39.258065,21.500887],[39.257927,21.5026],[39.258336,21.502627],[39.25944,21.501245]]]]},"properties":{"description":"Wadi Jeddah Land","land_tenure":"OWN","ownership":"UNI","usage_status":"ACT","contract_status":"ACT","contract_type":"LEA","investment_type":"EDU","area_sqm":27614.863,"investment_id":"ADM_INVESTMENT-000046"}}]}