{"type":"FeatureCollection","name":"bld_gates","crs":{"type":"name","properties":{"name":"urn:ogc:def:crs:OGC:1.3:CRS84"}},"features":[{"type":"Feature","id":"BLD_GATES-000000","geometry":{"type":"Point","coordinates":[39.231597,21.494875]},"properties":{"branch":"السليمانية","gate_id":"BLD_GATES-000000"}},{"type":"Feature","id":"BLD_GATES-000001","geometry":{"type":"Point","coordinates":[39.231624,21.495069]},"properties":{"branch":"السليمانية","gate_id":"BLD_GATES-000001"}},{"type":"Feature","id":"BLD_GATES-000002","geometry":{"type":"Point","coordinates":[39.233674,21.494715]},"properties":{"branch":"السليمانية","gate_id":"BLD_GATES-000002"}},{"type":"Feature","id":"BLD_GATES-000003","geometry":{"type":"Point","coordinates":[39.235417,21.494503]},"properties":{"branch":"السليمانية","gate_id":"BLD_GATES-000003"}},{"type":"Feature","id":"BLD_GATES-000004","geometry":{"type":"Point","coordinates":[39.233769,21.495396]},"properties":{"branch":"السليمانية","gate_id":"BLD_GATES-000004"}},{"type":"Feature","id":"BLD_GATES-000005","geometry":{"type":"Point","coordinates":[39.23392,21.495914]},"properties":{"branch":"السليمانية","gate_id":"BLD_GATES-000005"}},{"type":"Feature","id":"BLD_GATES-000006","geometry":{"type":"Point","coordinates":[39.233841,21.496457]},"properties":{"branch":"السليمانية","gate_id":"BLD_GATES-000006"}},{"type":"Feature","id":"BLD_GATES-000007","geometry":{"type":"Point","coordinates":[39.233931,21.496547]},"properties":{"branch":"السليمانية","gate_id":"BLD_GATES-000007"}},{"type":"Feature","id":"BLD_GATES-000008","geometry":{"type":"Point","coordinates":[39.233208,21.497111]},"properties":{"branch":"السليمانية","gate_id":"BLD_GATES-000008"}},{"type":"Feature","id":"BLD_GATES-000009","geometry":{"type":"Point","coordinates":[39.233192,21.497008]},"properties":{"branch":"السليمانية","gate_id":"BLD_GATES-000009"}},{"type":"Feature","id":"BLD_GATES-000010","geometry":{"type":"Point","coordinates":[39.235985,21.498443]},"properties":{"branch":"السليمانية","gate_id":"BLD_GATES-000010"}},{"type":"Feature","id":"BLD_GATES-000011","geometry":{"type":"Point","coordinates":[39.237616,21.497993]},"properties":{"branch":"السليمانية","gate_id":"BLD_GATES-000011"}},{"type":"Feature","id":"BLD_GATES-000012","geometry":{"type":"Point","coordinates":[39.239333,21.490355]},"properties":{"branch":"السليمانية","gate_id":"BLD_GATES-000012"}},{"type":"Feature","id":"BLD_GATES-000013","geometry":{"type":"Point","coordinates":[39.23919,21.490357]},"properties":{"branch":"السليمانية","gate_id":"BLD_GATES-000013"}},{"type":"Feature","id":"BLD_GATES-000014","geometry":{"type":"Point","coordinates":[39.23927,21.486838]},"properties":{"branch":"السليمانية","gate_id":"BLD_GATES-000014"}},{"type":"Feature","id":"BLD_GATES-000015","geometry":{"type":"Point","coordinates":[39.239127,21.486851]},"properties":{"branch":"السليمانية","gate_id":"BLD_GATES-000015"}},{"type":"Feature","id":"BLD_GATES-000016","geometry":{"type":"Point","coordinates":[39.238996,21.485463]},"properties":{"branch":"السليمانية","gate_id":"BLD_GATES-000016"}},{"type":"Feature","id":"BLD_GATES-000017","geometry":{"type":"Point","coordinates":[39.23918,21.485426]},"properties":{"branch":"السليمانية","gate_id":"BLD_GATES-000017"}},{"type":"Feature","id":"BLD_GATES-000018","geometry":{"type":"Point","coordinates":[39.239169,21.484928]},"properties":{"branch":"السليمانية","gate_id":"BLD_GATES-000018"}},{"type":"Feature","id":"BLD_GATES-000019","geometry":{"type":"Point","coordinates":[39.243077,21.484889]},"properties":{"branch":"السليمانية","gate_id":"BLD_GATES-000019"}},{"type":"Feature","id":"BLD_GATES-000020","geometry":{"type":"Point","coordinates":[39.243276,21.48492]},"properties":{"branch":"السليمانية","gate_id":"BLD_GATES-000020"}},{"type":"Feature","id":"BLD_GATES-000021","geometry":{"type":"Point","coordinates":[39.242742,21.487187]},"properties":{"branch":"السليمانية","gate_id":"BLD_GATES-000021"}},{"type":"Feature","id":"BLD_GATES-000022","geometry":{"type":"Point","coordinates":[39.243021,21.487232]},"properties":{"branch":"السليمانية","gate_id":"BLD_GATES-000022"}},{"type":"Feature","id":"BLD_GATES-000023","geometry":{"type":"Point","coordinates":[39.243004,21.487322]},"properties":{"branch":"السليمانية","gate_id":"BLD_GATES-000023"}},{"type":"Feature","id":"BLD_GATES-000024","geometry":{"type":"Point","coordinates":[39.240076,21.490824]},"properties":{"branch":"السليمانية","gate_id":"BLD_GATES-000024"}},{"type":"Feature","id":"BLD_GATES-000025","geometry":{"type":"Point","coordinates":[39.240443,21.490843]},"properties":{"branch":"السليمانية","gate_id":"BLD_GATES-000025"}},{"type":"Feature","id":"BLD_GATES-000026","geometry":{"type":"Point","coordinates":[39.240182,21.491847]},"properties":{"branch":"السليمانية","gate_id":"BLD_GATES-000026"}},{"type":"Feature","id":"BLD_GATES-000027","geometry":{"type":"Point","coordinates":[39.240819,21.491768]},"properties":{"branch":"السليمانية","gate_id":"BLD_GATES-000027"}},{"type":"Feature","id":"BLD_GATES-000028","geometry":{"type":"Point","coordinates":[39.24169,21.491559]},"properties":{"branch":"السليمانية","gate_id":"BLD_GATES-000028"}},{"type":"Feature","id":"BLD_GATES-000029","geometry":{"type":"Point","coordinates":[39.24163,21.490992]},"properties":{"branch":"السليمانية","gate_id":"BLD_GATES-000029"}},{"type":"Feature","id":"BLD_GATES-000030","geometry":{"type":"Point","coordinates":[39.248327,21.485537]},"properties":{"branch":"السليمانية","gate_id":"BLD_GATES-000030"}},{"type":"Feature","id":"BLD_GATES-000031","geometry":{"type":"Point","coordinates":[39.248176,21.486625]},"properties":{"branch":"السليمانية","gate_id":"BLD_GATES-000031"}},{"type":"Feature","id":"BLD_GATES-000032","geometry":{"type":"Point","coordinates":[39.247469,21.486621]},"properties":{"branch":"السليمانية","gate_id":"BLD_GATES-000032"}},{"type":"Feature","id":"BLD_GATES-000033","geometry":{"type":"Point","coordinates":[39.249123,21.487751]},"properties":{"branch":"السليمانية","gate_id":"BLD_GATES-000033"}},{"type":"Feature","id":"BLD_GATES-000034","geometry":{"type":"Point","coordinates":[39.25068,21.487302]},"properties":{"branch":"السليمانية","gate_id":"BLD_GATES-000034"}},{"type":"Feature","id":"BLD_GATES-000035","geometry":{"type":"Point","coordinates":[39.250617,21.488227]},"properties":{"branch":"السليمانية","gate_id":"BLD_GATES-000035"}},{"type":"Feature","id":"BLD_GATES-000036","geometry":{"type":"Point","coordinates":[39.251955,21.487448]},"properties":{"branch":"السليمانية","gate_id":"BLD_GATES-000036"}},{"type":"Feature","id":"BLD_GATES-000037","geometry":{"type":"Point","coordinates":[39.252755,21.486776]},"properties":{"branch":"السليمانية","gate_id":"BLD_GATES-000037"}},{"type":"Feature","id":"BLD_GATES-000038","geometry":{"type":"Point","coordinates":[39.252,21.488805]},"properties":{"branch":"السليمانية","gate_id":"BLD_GATES-000038"}},{"type":"Feature","id":"BLD_GATES-000039","geometry":{"type":"Point","coordinates":[39.252002,21.488919]},"properties":{"branch":"السليمانية","gate_id":"BLD_GATES-000039"}},{"type":"Feature","id":"BLD_GATES-000040","geometry":{"type":"Point","coordinates":[39.253485,21.488676]},"properties":{"branch":"السليمانية","gate_id":"BLD_GATES-000040"}},{"type":"Feature","id":"BLD_GATES-000041","geometry":{"type":"Point","coordinates":[39.257561,21.500615]},"properties":{"branch":"السليمانية","gate_id":"BLD_GATES-000041"}},{"type":"Feature","id":"BLD_GATES-000042","geometry":{"type":"Point","coordinates":[39.253779,21.500187]},"properties":{"branch":"السليمانية","gate_id":"BLD_GATES-000042"}},{"type":"Feature","id":"BLD_GATES-000043","geometry":{"type":"Point","coordinates":[39.239844,21.493837]},"properties":{"branch":"السليمانية","gate_id":"BLD_GATES-000043"}},{"type":"Feature","id":"BLD_GATES-000044","geometry":{"type":"Point","coordinates":[39.239877,21.494075]},"properties":{"branch":"السليمانية","gate_id":"BLD_GATES-000044"}},{"type":"Feature","id":"BLD_GATES-000045","geometry":{"type":"Point","coordinates":[39.232301,21.492178]},"properties":{"branch":"السليمانية","gate_id":"BLD_GATES-000045"}},{"type":"Feature","id":"BLD_GATES-000046","geometry":{"type":"Point","coordinates":[39.239123,21.486658]},"properties":{"branch":"السليمانية","gate_id":"BLD_GATES-000046"}},{"type":"Feature","id":"BLD_GATES-000047","geometry":{"type":"Point","coordinates":[39.25581,21.492481]},"properties":{"branch":"السليمانية","gate_id":"BLD_GATES-000047"}},{"type":"Feature","id":"BLD_GATES-000048","geometry":{"type":"Point","coordinates":[39.250969,21.490828]},"properties":{"branch":"السليمانية","gate_id":"BLD_GATES-000048"}},{"type":"Feature","id":"BLD_GATES-000049","geometry":{"type":"Point","coordinates":[39.248021,21.491483]},"properties":{"branch":"السليمانية","gate_id":"BLD_GATES-000049"}},{"type":"Feature","id":"BLD_GATES-000050","geometry":{"type":"Point","coordinates":[39.247912,21.491496]},"properties":{"branch":"السليمانية","gate_id":"BLD_GATES-000050"}},{"type":"Feature","id":"BLD_GATES-000051","geometry":{"type":"Point","coordinates":[39.247063,21.489942]},"properties":{"branch":"السليمانية","gate_id":"BLD_GATES-000051"}},{"type":"Feature","id":"BLD_GATES-000052","geometry":{"type":"Point","coordinates":[39.246097,21.489825]},"properties":{"branch":"السليمانية","gate_id":"BLD_GATES-000052"}},{"type":"Feature","id":"BLD_GATES-000053","geometry":{"type":"Point","coordinates":[39.23893,21.497153]},"properties":{"branch":"السليمانية","gate_id":"BLD_GATES-000053"}},{"type":"Feature","id":"BLD_GATES-000054","geometry":{"type":"Point","coordinates":[39.182248,21.585629]},"properties":{"branch":"الفيصلية","gate_id":"BLD_GATES-000054"}},{"type":"Feature","id":"BLD_GATES-000055","geometry":{"type":"Point","coordinates":[39.180049,21.576626]},"properties":{"branch":"الفيصلية","gate_id":"BLD_GATES-000055"}},{"type":"Feature","id":"BLD_GATES-000056","geometry":{"type":"Point","coordinates":[39.180393,21.575576]},"properties":{"branch":"الفيصلية","gate_id":"BLD_GATES-000056"}},{"type":"Feature","id":"BLD_GATES-000057","geometry":{"type":"Point","coordinates":[39.184916,21.574554]},"properties":{"branch":"الفيصلية","gate_id":"BLD_GATES-000057"}},{"type":"Feature","id":"BLD_GATES-000058","geometry":{"type":"Point","coordinates":[39.187079,21.582469]},"properties":{"branch":"الفيصلية","gate_id":"BLD_GATES-000058"}},{"type":"Feature","id":"BLD_GATES-000059","geometry":{"type":"Point","coordinates":[39.181041,21.57908]},"properties":{"branch":"الفيصلية","gate_id":"BLD_GATES-000059"}}]}