{"type":"FeatureCollection","name":"bld_landmarks","crs":{"type":"name","properties":{"name":"urn:ogc:def:crs:OGC:1.3:CRS84"}},"features":[{"type":"Feature","id":"BLD_LANDMARKS-000000","geometry":{"type":"Point","coordinates":[39.235097,21.496791]},"properties":{"branch":"1","landmark_id":"BLD_LANDMARKS-000000"}},{"type":"Feature","id":"BLD_LANDMARKS-000001","geometry":{"type":"Point","coordinates":[39.239417,21.498245]},"properties":{"branch":"1","landmark_id":"BLD_LANDMARKS-000001"}},{"type":"Feature","id":"BLD_LANDMARKS-000002","geometry":{"type":"Point","coordinates":[39.238675,21.498898]},"properties":{"branch":"1","landmark_id":"BLD_LANDMARKS-000002"}},{"type":"Feature","id":"BLD_LANDMARKS-000003","geometry":{"type":"Point","coordinates":[39.239342,21.494019]},"properties":{"branch":"1","landmark_id":"BLD_LANDMARKS-000003"}},{"type":"Feature","id":"BLD_LANDMARKS-000004","geometry":{"type":"Point","coordinates":[39.233953,21.49352]},"properties":{"branch":"1","landmark_id":"BLD_LANDMARKS-000004"}},{"type":"Feature","id":"BLD_LANDMARKS-000005","geometry":{"type":"Point","coordinates":[39.241612,21.489784]},"properties":{"branch":"1","landmark_id":"BLD_LANDMARKS-000005"}},{"type":"Feature","id":"BLD_LANDMARKS-000006","geometry":{"type":"Point","coordinates":[39.241404,21.492507]},"properties":{"branch":"1","landmark_id":"BLD_LANDMARKS-000006"}},{"type":"Feature","id":"BLD_LANDMARKS-000007","geometry":{"type":"Point","coordinates":[39.245313,21.500417]},"properties":{"branch":"1","landmark_id":"BLD_LANDMARKS-000007"}},{"type":"Feature","id":"BLD_LANDMARKS-000008","geometry":{"type":"Point","coordinates":[39.24684,21.494706]},"properties":{"branch":"1","landmark_id":"BLD_LANDMARKS-000008"}},{"type":"Feature","id":"BLD_LANDMARKS-000009","geometry":{"type":"Point","coordinates":[39.245313,21.490482]},"properties":{"branch":"1","landmark_id":"BLD_LANDMARKS-000009"}},{"type":"Feature","id":"BLD_LANDMARKS-000010","geometry":{"type":"Point","coordinates":[39.244933,21.487695]},"properties":{"branch":"1","landmark_id":"BLD_LANDMARKS-000010"}},{"type":"Feature","id":"BLD_LANDMARKS-000011","geometry":{"type":"Point","coordinates":[39.24527,21.493267]},"properties":{"branch":"1","landmark_id":"BLD_LANDMARKS-000011"}},{"type":"Feature","id":"BLD_LANDMARKS-000012","geometry":{"type":"Point","coordinates":[39.25649,21.490066]},"properties":{"branch":"1","landmark_id":"BLD_LANDMARKS-000012"}},{"type":"Feature","id":"BLD_LANDMARKS-000013","geometry":{"type":"Point","coordinates":[39.252626,21.488847]},"properties":{"branch":"1","landmark_id":"BLD_LANDMARKS-000013"}},{"type":"Feature","id":"BLD_LANDMARKS-000014","geometry":{"type":"Point","coordinates":[39.24371,21.491644]},"properties":{"branch":"1","landmark_id":"BLD_LANDMARKS-000014"}},{"type":"Feature","id":"BLD_LANDMARKS-000015","geometry":{"type":"Point","coordinates":[39.247535,21.499822]},"properties":{"branch":"1","landmark_id":"BLD_LANDMARKS-000015"}},{"type":"Feature","id":"BLD_LANDMARKS-000016","geometry":{"type":"Point","coordinates":[39.253326,21.500236]},"properties":{"branch":"1","landmark_id":"BLD_LANDMARKS-000016"}},{"type":"Feature","id":"BLD_LANDMARKS-000017","geometry":{"type":"Point","coordinates":[39.265215,21.491758]},"properties":{"branch":"1","landmark_id":"BLD_LANDMARKS-000017"}},{"type":"Feature","id":"BLD_LANDMARKS-000018","geometry":{"type":"Point","coordinates":[39.264316,21.490447]},"properties":{"branch":"1","landmark_id":"BLD_LANDMARKS-000018"}},{"type":"Feature","id":"BLD_LANDMARKS-000019","geometry":{"type":"Point","coordinates":[39.266024,21.490363]},"properties":{"branch":"1","landmark_id":"BLD_LANDMARKS-000019"}},{"type":"Feature","id":"BLD_LANDMARKS-000020","geometry":{"type":"Point","coordinates":[39.256847,21.492931]},"properties":{"branch":"1","landmark_id":"BLD_LANDMARKS-000020"}},{"type":"Feature","id":"BLD_LANDMARKS-000021","geometry":{"type":"Point","coordinates":[39.255522,21.494738]},"properties":{"branch":"1","landmark_id":"BLD_LANDMARKS-000021"}},{"type":"Feature","id":"BLD_LANDMARKS-000022","geometry":{"type":"Point","coordinates":[39.256458,21.501345]},"properties":{"branch":"1","landmark_id":"BLD_LANDMARKS-000022"}},{"type":"Feature","id":"BLD_LANDMARKS-000023","geometry":{"type":"Point","coordinates":[39.259468,21.501855]},"properties":{"branch":"1","landmark_id":"BLD_LANDMARKS-000023"}},{"type":"Feature","id":"BLD_LANDMARKS-000024","geometry":{"type":"Point","coordinates":[39.236894,21.492706]},"properties":{"branch":"1","landmark_id":"BLD_LANDMARKS-000024"}},{"type":"Feature","id":"BLD_LANDMARKS-000025","geometry":{"type":"Point","coordinates":[39.237407,21.496112]},"properties":{"branch":"1","landmark_id":"BLD_LANDMARKS-000025"}},{"type":"Feature","id":"BLD_LANDMARKS-000026","geometry":{"type":"Point","coordinates":[39.239817,21.486715]},"properties":{"branch":"1","landmark_id":"BLD_LANDMARKS-000026"}},{"type":"Feature","id":"BLD_LANDMARKS-000027","geometry":{"type":"Point","coordinates":[39.247267,21.486897]},"properties":{"branch":"1","landmark_id":"BLD_LANDMARKS-000027"}},{"type":"Feature","id":"BLD_LANDMARKS-000028","geometry":{"type":"Point","coordinates":[39.239431,21.499177]},"properties":{"branch":"1","landmark_id":"BLD_LANDMARKS-000028"}},{"type":"Feature","id":"BLD_LANDMARKS-000029","geometry":{"type":"Point","coordinates":[39.233444,21.499886]},"properties":{"branch":"1","landmark_id":"BLD_LANDMARKS-000029"}},{"type":"Feature","id":"BLD_LANDMARKS-000030","geometry":{"type":"Point","coordinates":[39.232007,21.494937]},"properties":{"branch":"1","landmark_id":"BLD_LANDMARKS-000030"}},{"type":"Feature","id":"BLD_LANDMARKS-000031","geometry":{"type":"Point","coordinates":[39.247354,21.501368]},"properties":{"branch":"1","landmark_id":"BLD_LANDMARKS-000031"}},{"type":"Feature","id":"BLD_LANDMARKS-000032","geometry":{"type":"Point","coordinates":[39.242814,21.501467]},"properties":{"branch":"1","landmark_id":"BLD_LANDMARKS-000032"}},{"type":"Feature","id":"BLD_LANDMARKS-000033","geometry":{"type":"Point","coordinates":[39.250635,21.502103]},"properties":{"branch":"1","landmark_id":"BLD_LANDMARKS-000033"}},{"type":"Feature","id":"BLD_LANDMARKS-000034","geometry":{"type":"Point","coordinates":[39.260607,21.501052]},"properties":{"branch":"1","landmark_id":"BLD_LANDMARKS-000034"}},{"type":"Feature","id":"BLD_LANDMARKS-000035","geometry":{"type":"Point","coordinates":[39.258881,21.487231]},"properties":{"branch":"1","landmark_id":"BLD_LANDMARKS-000035"}},{"type":"Feature","id":"BLD_LANDMARKS-000036","geometry":{"type":"Point","coordinates":[39.252787,21.486597]},"properties":{"branch":"1","landmark_id":"BLD_LANDMARKS-000036"}},{"type":"Feature","id":"BLD_LANDMARKS-000037","geometry":{"type":"Point","coordinates":[39.251668,21.48597]},"properties":{"branch":"1","landmark_id":"BLD_LANDMARKS-000037"}},{"type":"Feature","id":"BLD_LANDMARKS-000038","geometry":{"type":"Point","coordinates":[39.249242,21.48557]},"properties":{"branch":"1","landmark_id":"BLD_LANDMARKS-000038"}},{"type":"Feature","id":"BLD_LANDMARKS-000039","geometry":{"type":"Point","coordinates":[39.24678,21.485179]},"properties":{"branch":"1","landmark_id":"BLD_LANDMARKS-000039"}},{"type":"Feature","id":"BLD_LANDMARKS-000040","geometry":{"type":"Point","coordinates":[39.24317,21.484921]},"properties":{"branch":"1","landmark_id":"BLD_LANDMARKS-000040"}},{"type":"Feature","id":"BLD_LANDMARKS-000041","geometry":{"type":"Point","coordinates":[39.239167,21.485244]},"properties":{"branch":"1","landmark_id":"BLD_LANDMARKS-000041"}},{"type":"Feature","id":"BLD_LANDMARKS-000042","geometry":{"type":"Point","coordinates":[39.246938,21.494303]},"properties":{"branch":"1","landmark_id":"BLD_LANDMARKS-000042"}},{"type":"Feature","id":"BLD_LANDMARKS-000043","geometry":{"type":"Point","coordinates":[39.240951,21.488073]},"properties":{"branch":"1","landmark_id":"BLD_LANDMARKS-000043"}},{"type":"Feature","id":"BLD_LANDMARKS-000044","geometry":{"type":"Point","coordinates":[39.243449,21.493197]},"properties":{"branch":"1","landmark_id":"BLD_LANDMARKS-000044"}}]}