{
  "type": "FeatureCollection",
  "name": "env_soakaways",
  "features": [
    {
      "type": "Feature",
      "id": "SKW-01",
      "geometry": { "type": "Polygon", "coordinates": [[[39.1612, 21.4930], [39.1618, 21.4930], [39.1618, 21.4933], [39.1612, 21.4933], [39.1612, 21.4930]]] },
      "properties": { "soakaway_id": "SKW-01", "name_ar": "حوض تسريب الحديقة المركزية", "name_en": "Central Park Infiltration Basin", "type": "Infiltration Basin", "area_sqm": 1800, "capacity_m3": 720, "depth_m": 1.2, "infiltration_rate_mmh": 45, "catchment_area_sqm": 42000, "status": "Operational" }
    },
    {
      "type": "Feature",
      "id": "SKW-02",
      "geometry": { "type": "Polygon", "coordinates": [[[39.1563, 21.4906], [39.1590, 21.4906], [39.1590, 21.49072], [39.1563, 21.49072], [39.1563, 21.4906]]] },
      "properties": { "soakaway_id": "SKW-02", "name_ar": "قناة تصريف طريق الملك", "name_en": "King Road Swale", "type": "Swale", "area_sqm": 320, "capacity_m3": 96, "depth_m": 0.6, "infiltration_rate_mmh": 28, "catchment_area_sqm": 8500, "status": "Operational" }
    },
    {
      "type": "Feature",
      "id": "SKW-03",
      "geometry": { "type": "Polygon", "coordinates": [[[39.1626, 21.4872], [39.1632, 21.4872], [39.1632, 21.4876], [39.1626, 21.4876], [39.1626, 21.4872]]] },
      "properties": { "soakaway_id": "SKW-03", "name_ar": "بركة احتجاز المجمع الرياضي", "name_en": "Sports Retention Pond", "type": "Retention Pond", "area_sqm": 2400, "capacity_m3": 3600, "depth_m": 2.4, "infiltration_rate_mmh": 12, "catchment_area_sqm": 28000, "status": "Operational" }
    },
    {
      "type": "Feature",
      "id": "SKW-04",
      "geometry": { "type": "Polygon", "coordinates": [[[39.1570, 21.4892], [39.1578, 21.4892], [39.1578, 21.4898], [39.1570, 21.4898], [39.1570, 21.4892]]] },
      "properties": { "soakaway_id": "SKW-04", "name_ar": "رصف نفاذ موقف السكن", "name_en": "Housing Permeable Pavement", "type": "Permeable Pavement", "area_sqm": 4200, "capacity_m3": 210, "depth_m": 0.35, "infiltration_rate_mmh": 80, "catchment_area_sqm": 6200, "status": "Operational" }
    },
    {
      "type": "Feature",
      "id": "SKW-05",
      "geometry": { "type": "Polygon", "coordinates": [[[39.1570, 21.4880], [39.1580, 21.4880], [39.1580, 21.48812], [39.1570, 21.48812], [39.1570, 21.4880]]] },
      "properties": { "soakaway_id": "SKW-05", "name_ar": "مصرف فرنسي للسكن أ", "name_en": "Housing A French Drain", "type": "French Drain", "area_sqm": 140, "capacity_m3": 42, "depth_m": 0.9, "infiltration_rate_mmh": 60, "catchment_area_sqm": 4100, "status": "Maintenance" }
    },
    {
      "type": "Feature",
      "id": "SKW-06",
      "geometry": { "type": "Polygon", "coordinates": [[[39.1582, 21.4919], [39.1585, 21.4919], [39.1585, 21.4922], [39.1582, 21.4922], [39.1582, 21.4919]]] },
      "properties": { "soakaway_id": "SKW-06", "name_ar": "خزان احتجاز الهندسة", "name_en": "Engineering Detention Tank", "type": "Detention Tank", "area_sqm": 90, "capacity_m3": 180, "depth_m": 3.2, "infiltration_rate_mmh": 0, "catchment_area_sqm": 9600, "status": "Operational" }
    },
    {
      "type": "Feature",
      "id": "SKW-07",
      "geometry": { "type": "Polygon", "coordinates": [[[39.1636, 21.4908], [39.1644, 21.4908], [39.1644, 21.49092], [39.1636, 21.49092], [39.1636, 21.4908]]] },
      "properties": { "soakaway_id": "SKW-07", "name_ar": "قناة تصريف علوم الأرض", "name_en": "Earth Sciences Swale", "type": "Swale", "area_sqm": 180, "capacity_m3": 54, "depth_m": 0.55, "infiltration_rate_mmh": 32, "catchment_area_sqm": 5400, "status": "Silted" }
    },
    {
      "type": "Feature",
      "id": "SKW-08",
      "geometry": { "type": "Polygon", "coordinates": [[[39.1604, 21.4938], [39.1609, 21.4938], [39.1609, 21.4942], [39.1604, 21.4942], [39.1604, 21.4938]]] },
      "properties": { "soakaway_id": "SKW-08", "name_ar": "حوض تسريب المسجد", "name_en": "Mosque Infiltration Basin", "type": "Infiltration Basin", "area_sqm": 950, "capacity_m3": 380, "depth_m": 1.0, "infiltration_rate_mmh": 50, "catchment_area_sqm": 8900, "status": "Operational" }
    },
    {
      "type": "Feature",
      "id": "SKW-09",
      "geometry": { "type": "Polygon", "coordinates": [[[39.1614, 21.4918], [39.1618, 21.4918], [39.1618, 21.4921], [39.1614, 21.4921], [39.1614, 21.4918]]] },
      "properties": { "soakaway_id": "SKW-09", "name_ar": "خزان الإدارة المخطط", "name_en": "Admin Detention Tank (Planned)", "type": "Detention Tank", "area_sqm": 70, "capacity_m3": 140, "depth_m": 2.8, "infiltration_rate_mmh": 0, "catchment_area_sqm": 7200, "status": "Planned" }
    }
  ]
}
