{
  "type": "FeatureCollection",
  "name": "net_transit_stops",
  "features": [
    {
      "type": "Feature",
      "id": "BUS-01",
      "geometry": { "type": "Point", "coordinates": [39.1592, 21.4928] },
      "properties": {
        "stop_id": "BUS-01",
        "name_ar": "محطة كلية الهندسة",
        "name_en": "Engineering Faculty Stop",
        "lines": ["C1", "C3"],
        "shelter": true,
        "real_time_display": true,
        "accessible": true
      }
    },
    {
      "type": "Feature",
      "id": "BUS-07",
      "geometry": { "type": "Point", "coordinates": [39.1608, 21.4908] },
      "properties": {
        "stop_id": "BUS-07",
        "name_ar": "محطة المكتبة المركزية",
        "name_en": "Central Library Stop",
        "lines": ["C1", "C2", "C5"],
        "shelter": true,
        "real_time_display": true,
        "accessible": true
      }
    }
  ]
}
