{"type":"FeatureCollection","name":"net_bike_paths","crs":{"type":"name","properties":{"name":"urn:ogc:def:crs:OGC:1.3:CRS84"}},"features":[{"type":"Feature","id":"NET_BIKE_PATHS-000000","geometry":{"type":"MultiLineString","coordinates":[[[39.252694,21.486151],[39.252602,21.486736],[39.252489,21.487427],[39.252419,21.487911],[39.252409,21.488058],[39.252392,21.488204],[39.252369,21.48835],[39.252346,21.488409],[39.252317,21.488465],[39.252282,21.488519],[39.252242,21.48857],[39.252197,21.488617],[39.252148,21.48866],[39.252095,21.488699],[39.252038,21.488733],[39.252016,21.488743],[39.251991,21.488749],[39.251966,21.488752],[39.251941,21.488751],[39.251982,21.489004],[39.252054,21.489024],[39.252124,21.48905],[39.252191,21.489081],[39.252255,21.489117],[39.252316,21.489157],[39.252373,21.489202],[39.25242,21.48926],[39.252461,21.489322],[39.252496,21.489387],[39.252525,21.489454],[39.252547,21.489524],[39.252562,21.489596],[39.252661,21.490254],[39.252679,21.490389],[39.252704,21.490523],[39.252737,21.490656],[39.252776,21.490788],[39.252822,21.490917],[39.252875,21.491044],[39.252903,21.491107],[39.252934,21.491168],[39.252968,21.491227],[39.253301,21.491745],[39.253306,21.491782],[39.253307,21.491819],[39.253302,21.491856],[39.253292,21.491892],[39.253277,21.491926],[39.253257,21.491958],[39.253328,21.49208],[39.253373,21.49208],[39.253417,21.492086],[39.253461,21.492098],[39.253502,21.492116],[39.253539,21.492139],[39.253573,21.492167],[39.253602,21.492199],[39.253626,21.492235],[39.253759,21.492472],[39.253863,21.492707],[39.253885,21.49275],[39.2539,21.492796],[39.253909,21.492842],[39.253912,21.49289],[39.253908,21.492937],[39.253898,21.492983],[39.253881,21.493028],[39.253858,21.493071],[39.253829,21.49311],[39.253796,21.493146],[39.253757,21.493177],[39.253715,21.493203],[39.253669,21.493224],[39.253621,21.49324],[39.253571,21.493249],[39.25352,21.493253],[39.253523,21.493527]]]},"properties":{"status":"EXT","surface_type":"ALT","length_m":938.266,"path_id":"NET_BIKE_PATHS-000000"}},{"type":"Feature","id":"NET_BIKE_PATHS-000001","geometry":{"type":"MultiLineString","coordinates":[[[39.23945,21.493069],[39.239438,21.492575],[39.239436,21.492208],[39.239441,21.492189],[39.23945,21.49217],[39.239462,21.492154],[39.239477,21.492139],[39.239493,21.492127],[39.239512,21.492117],[39.239532,21.49211],[39.239554,21.492106],[39.240174,21.492054],[39.24056,21.492021],[39.241163,21.491965],[39.241837,21.491902],[39.241847,21.491902],[39.241858,21.491903],[39.241868,21.491905],[39.241878,21.49191],[39.241887,21.491915],[39.241895,21.491922],[39.241901,21.491931],[39.241906,21.49194],[39.241909,21.491949],[39.242088,21.491925],[39.242587,21.491864],[39.242835,21.491832],[39.243182,21.491797],[39.243225,21.491806],[39.243266,21.491819],[39.243305,21.491837],[39.243341,21.491859],[39.243374,21.491886],[39.243404,21.491915],[39.243439,21.491946],[39.243478,21.491972],[39.243521,21.491992],[39.243567,21.492006],[39.243614,21.492015],[39.243695,21.49202],[39.243776,21.49202],[39.243857,21.492015],[39.243991,21.491997],[39.244033,21.491999],[39.244075,21.492006],[39.244184,21.491972],[39.244173,21.491953],[39.244167,21.491932],[39.244163,21.49191],[39.244164,21.491888],[39.244168,21.491867],[39.244175,21.491846],[39.244206,21.491823],[39.244239,21.491805],[39.244275,21.491791],[39.244313,21.491781],[39.244352,21.491777],[39.244663,21.491739],[39.245277,21.491672],[39.245554,21.491656],[39.246067,21.491718],[39.246463,21.491797],[39.247466,21.492142],[39.248189,21.492396],[39.248584,21.492529],[39.24956,21.492874],[39.250186,21.49309],[39.250205,21.493104],[39.250222,21.49312],[39.250235,21.493139],[39.250245,21.493159],[39.250251,21.49318],[39.250253,21.493202]]]},"properties":{"status":"EXT","surface_type":"ALT","length_m":1287.147,"path_id":"NET_BIKE_PATHS-000001"}},{"type":"Feature","id":"NET_BIKE_PATHS-000002","geometry":{"type":"MultiLineString","coordinates":[[[39.23945,21.493069],[39.239159,21.493079],[39.239161,21.493152],[39.239158,21.493225],[39.239148,21.493298],[39.239132,21.49337],[39.239109,21.493441],[39.239081,21.493509],[39.239039,21.493571],[39.238992,21.49363],[39.238941,21.493686],[39.238885,21.493738],[39.238847,21.493774],[39.238805,21.493806],[39.23876,21.493834],[39.238712,21.493857],[39.238661,21.493876],[39.238727,21.494277]]]},"properties":{"status":"EXT","surface_type":"ALT","length_m":184.576,"path_id":"NET_BIKE_PATHS-000002"}},{"type":"Feature","id":"NET_BIKE_PATHS-000003","geometry":{"type":"MultiLineString","coordinates":[[[39.250253,21.493202],[39.250434,21.493254],[39.250439,21.493243],[39.250446,21.493234],[39.250455,21.493226],[39.250464,21.493219],[39.250475,21.493213],[39.250487,21.49321],[39.250499,21.493208],[39.250512,21.493208],[39.250524,21.49321],[39.250535,21.493214],[39.250776,21.493301],[39.251018,21.493385],[39.251139,21.493418],[39.25126,21.493446],[39.251383,21.49347],[39.251506,21.493489],[39.25163,21.493504],[39.251777,21.493515],[39.251924,21.493522],[39.252072,21.493524],[39.252219,21.493521],[39.252982,21.493524],[39.253523,21.493527]]]},"properties":{"status":"EXT","surface_type":"ALT","length_m":346.737,"path_id":"NET_BIKE_PATHS-000003"}},{"type":"Feature","id":"NET_BIKE_PATHS-000004","geometry":{"type":"MultiLineString","coordinates":[[[39.253523,21.493527],[39.253561,21.493523],[39.2536,21.493524],[39.253637,21.493531],[39.253674,21.493543],[39.253708,21.493559],[39.253741,21.493578],[39.253771,21.4936],[39.253797,21.493626],[39.25382,21.493655],[39.253838,21.493687],[39.253879,21.49372],[39.253923,21.49375],[39.253971,21.493775],[39.254021,21.493796],[39.254065,21.493815],[39.254106,21.493839],[39.254142,21.493869],[39.254174,21.493903],[39.25419,21.493955],[39.254201,21.494007],[39.254207,21.49406],[39.254214,21.494241],[39.254214,21.494422],[39.254209,21.494602],[39.254198,21.494782],[39.254182,21.494911],[39.254161,21.495038],[39.253949,21.49614],[39.25357,21.498221],[39.253388,21.499255],[39.253375,21.499345],[39.253357,21.499434],[39.253334,21.499522],[39.253306,21.499609],[39.253273,21.499695],[39.253236,21.499756],[39.253194,21.499813],[39.253145,21.499866],[39.253091,21.499915],[39.253033,21.499959],[39.252971,21.499998],[39.252904,21.500031],[39.252835,21.500058],[39.252763,21.500079],[39.25269,21.500093],[39.252615,21.500101],[39.25254,21.500102],[39.252465,21.500097],[39.251779,21.500048],[39.250146,21.499933],[39.249261,21.499853],[39.248972,21.499837]]]},"properties":{"status":"EXT","surface_type":"ALT","length_m":1196.525,"path_id":"NET_BIKE_PATHS-000004"}},{"type":"Feature","id":"NET_BIKE_PATHS-000005","geometry":{"type":"MultiLineString","coordinates":[[[39.238727,21.494277],[39.238734,21.494376],[39.23699,21.494584],[39.235389,21.494783],[39.232988,21.495086],[39.232071,21.495201],[39.231898,21.495088],[39.231751,21.495109],[39.231672,21.495123],[39.231594,21.49514],[39.231517,21.49516],[39.231414,21.495186],[39.231313,21.495218],[39.231214,21.495254],[39.231117,21.495294]]]},"properties":{"status":"EXT","surface_type":"ALT","length_m":813.442,"path_id":"NET_BIKE_PATHS-000005"}},{"type":"Feature","id":"NET_BIKE_PATHS-000006","geometry":{"type":"MultiLineString","coordinates":[[[39.238727,21.494277],[39.238789,21.49429],[39.238849,21.494309],[39.238906,21.494334],[39.23896,21.494364],[39.239011,21.494399],[39.239051,21.494437],[39.239087,21.494478],[39.239118,21.494522],[39.239143,21.494569],[39.239163,21.494619],[39.239178,21.49467],[39.239187,21.494751],[39.239192,21.494832],[39.239193,21.494913],[39.239211,21.495878],[39.23921,21.495966],[39.23951,21.495958]]]},"properties":{"status":"EXT","surface_type":"ALT","length_m":242.548,"path_id":"NET_BIKE_PATHS-000006"}},{"type":"Feature","id":"NET_BIKE_PATHS-000007","geometry":{"type":"MultiLineString","coordinates":[[[39.23951,21.495958],[39.239502,21.495473],[39.239489,21.495133],[39.239489,21.494775],[39.239495,21.494717],[39.239505,21.49466],[39.23952,21.494604],[39.23954,21.49455],[39.239564,21.494497],[39.239597,21.494449],[39.239634,21.494403],[39.239675,21.49436],[39.239719,21.49432],[39.239771,21.494238],[39.239817,21.494152],[39.239776,21.493794],[39.239714,21.493729],[39.239648,21.493668],[39.239578,21.493611],[39.239545,21.493567],[39.239517,21.49352],[39.239494,21.493471],[39.239476,21.49342],[39.239463,21.493368],[39.239456,21.493314],[39.23945,21.493069]]]},"properties":{"status":"EXT","surface_type":"ALT","length_m":340.999,"path_id":"NET_BIKE_PATHS-000007"}},{"type":"Feature","id":"NET_BIKE_PATHS-000008","geometry":{"type":"MultiLineString","coordinates":[[[39.240199,21.498048],[39.240035,21.498066],[39.239872,21.498087],[39.239826,21.498078],[39.239781,21.498063],[39.239738,21.498043],[39.239699,21.498018],[39.239663,21.497989],[39.239631,21.497956],[39.239603,21.49792],[39.239581,21.497881],[39.239564,21.497839],[39.239552,21.497796],[39.239538,21.497669],[39.239531,21.497101],[39.23951,21.495958]]]},"properties":{"status":"EXT","surface_type":"ALT","length_m":286.891,"path_id":"NET_BIKE_PATHS-000008"}},{"type":"Feature","id":"NET_BIKE_PATHS-000009","geometry":{"type":"MultiLineString","coordinates":[[[39.240199,21.498048],[39.240231,21.498274],[39.240015,21.498305],[39.239955,21.498319],[39.239897,21.498339],[39.239842,21.498365],[39.239791,21.498396],[39.239743,21.498432],[39.2397,21.498473],[39.239662,21.498519],[39.23963,21.498567],[39.239604,21.498619],[39.239585,21.498688],[39.239572,21.498759],[39.239566,21.49883],[39.239566,21.498901],[39.239588,21.499551],[39.239589,21.499553]]]},"properties":{"status":"EXT","surface_type":"ALT","length_m":209.043,"path_id":"NET_BIKE_PATHS-000009"}},{"type":"Feature","id":"NET_BIKE_PATHS-000010","geometry":{"type":"MultiLineString","coordinates":[[[39.246699,21.499192],[39.245399,21.498967],[39.245219,21.498941],[39.244967,21.498926],[39.244556,21.498917],[39.243727,21.498671],[39.243694,21.498652],[39.243662,21.49863],[39.243635,21.498604],[39.24337,21.49854],[39.24185,21.498112],[39.241737,21.498081],[39.241621,21.498057],[39.241505,21.498039],[39.241387,21.498027],[39.241211,21.498016],[39.241035,21.498009],[39.240859,21.498008],[39.240684,21.498012],[39.240508,21.498021],[39.240353,21.498033],[39.240199,21.498048]]]},"properties":{"status":"EXT","surface_type":"ALT","length_m":691.842,"path_id":"NET_BIKE_PATHS-000010"}},{"type":"Feature","id":"NET_BIKE_PATHS-000011","geometry":{"type":"MultiLineString","coordinates":[[[39.246699,21.499192],[39.246557,21.499688],[39.246648,21.499708],[39.246738,21.499734],[39.246825,21.499766],[39.246909,21.499804],[39.246964,21.499845],[39.247017,21.499889],[39.247066,21.499936],[39.247111,21.499985],[39.247153,21.500038],[39.247192,21.500095],[39.247225,21.500154],[39.247252,21.500217],[39.247272,21.500281],[39.247286,21.500347],[39.247295,21.500439],[39.247298,21.500531],[39.247297,21.500623],[39.24729,21.500715],[39.247278,21.500807],[39.247261,21.500898],[39.247193,21.501328],[39.247146,21.501812]]]},"properties":{"status":"EXT","surface_type":"ALT","length_m":332.3,"path_id":"NET_BIKE_PATHS-000011"}},{"type":"Feature","id":"NET_BIKE_PATHS-000012","geometry":{"type":"MultiLineString","coordinates":[[[39.248972,21.499837],[39.248565,21.499814],[39.248406,21.499811],[39.248335,21.499804],[39.248265,21.499792],[39.248196,21.499775],[39.248128,21.499753],[39.248063,21.499726],[39.248,21.499695],[39.247939,21.499659],[39.247898,21.499617],[39.247853,21.499578],[39.247805,21.499542],[39.247755,21.499509],[39.247713,21.499481],[39.247669,21.499458],[39.247623,21.49944],[39.247574,21.499427],[39.247595,21.499345],[39.246777,21.499205],[39.246699,21.499192]]]},"properties":{"status":"EXT","surface_type":"ALT","length_m":260.547,"path_id":"NET_BIKE_PATHS-000012"}},{"type":"Feature","id":"NET_BIKE_PATHS-000013","geometry":{"type":"MultiLineString","coordinates":[[[39.248972,21.499837],[39.248985,21.499827],[39.248995,21.499815],[39.249004,21.499801],[39.249011,21.499787],[39.249015,21.499772],[39.249091,21.499381],[39.249377,21.497869],[39.249528,21.497093],[39.249769,21.495848],[39.249958,21.494902],[39.250192,21.493729],[39.250238,21.493449],[39.250248,21.493367],[39.250253,21.493285],[39.250253,21.493202]]]},"properties":{"status":"EXT","surface_type":"ALT","length_m":747.236,"path_id":"NET_BIKE_PATHS-000013"}},{"type":"Feature","id":"NET_BIKE_PATHS-000014","geometry":{"type":"MultiLineString","coordinates":[[[39.247533,21.492165],[39.247459,21.492548],[39.247354,21.492542],[39.247209,21.493248]],[[39.246787,21.493171],[39.246815,21.493004]],[[39.246787,21.493171],[39.247209,21.493248]],[[39.247209,21.493248],[39.247695,21.493337]],[[39.247695,21.493337],[39.247721,21.493177]],[[39.247695,21.493337],[39.248197,21.493429]],[[39.242908,21.493405],[39.242761,21.492527],[39.242725,21.492335],[39.24267,21.491853]],[[39.242908,21.493405],[39.242935,21.493564],[39.243853,21.49349],[39.243973,21.493531],[39.244075,21.493651],[39.244724,21.493809],[39.245494,21.493964],[39.246124,21.494074]],[[39.248197,21.493429],[39.248227,21.493279]],[[39.248197,21.493429],[39.24789,21.494926]],[[39.240951,21.493675],[39.241993,21.493542],[39.242908,21.493405]],[[39.23978,21.493826],[39.240951,21.493675]],[[39.246124,21.494074],[39.246342,21.493089],[39.246787,21.493171]],[[39.246124,21.494074],[39.24595,21.49502]],[[39.24789,21.494926],[39.24781,21.495317]],[[39.24789,21.494926],[39.249085,21.495118],[39.249068,21.495212],[39.249871,21.495341]],[[39.245878,21.495008],[39.245348,21.494929]],[[39.245878,21.495008],[39.24595,21.49502]],[[39.24595,21.49502],[39.246428,21.495096]],[[39.246428,21.495096],[39.246844,21.495163]],[[39.246428,21.495096],[39.246352,21.495471]],[[39.23949,21.495153],[39.240962,21.494968],[39.240799,21.493967],[39.240997,21.493944],[39.240951,21.493675]],[[39.246844,21.495163],[39.247333,21.495241]],[[39.246844,21.495163],[39.246779,21.495519]],[[39.247333,21.495241],[39.24781,21.495317]],[[39.247333,21.495241],[39.24727,21.495583]],[[39.24781,21.495317],[39.247802,21.495357],[39.247848,21.495553]],[[39.247848,21.495553],[39.248334,21.495632]],[[39.247848,21.495553],[39.247618,21.49681],[39.247612,21.496853]],[[39.247612,21.496853],[39.245596,21.496511],[39.245878,21.495008]],[[39.247612,21.496853],[39.249516,21.497156]]]},"properties":{"status":"EXT","surface_type":"ALT","length_m":3396.089,"path_id":"NET_BIKE_PATHS-000014"}}]}