{
  "type": "FeatureCollection",
  "name": "net_pedestrian_paths",
  "features": [
    {
      "type": "Feature",
      "id": "PATH-01",
      "geometry": { "type": "LineString", "coordinates": [[39.1585, 21.49255], [39.1592, 21.49255], [39.1602, 21.4904]] },
      "properties": { "path_id": "PATH-01", "path_type": "Plaza", "width_m": 6, "lighting": true, "accessible": true, "length_m": 280 }
    },
    {
      "type": "Feature",
      "id": "PATH-02",
      "geometry": { "type": "LineString", "coordinates": [[39.1592, 21.4908], [39.1592, 21.49255]] },
      "properties": { "path_id": "PATH-02", "path_type": "Sidewalk", "width_m": 3, "lighting": true, "accessible": true, "length_m": 195 }
    },
    {
      "type": "Feature",
      "id": "PATH-03",
      "geometry": { "type": "LineString", "coordinates": [[39.1608, 21.4904], [39.1612, 21.49145]] },
      "properties": { "path_id": "PATH-03", "path_type": "Crosswalk", "width_m": 4, "lighting": true, "accessible": true, "length_m": 130 }
    },
    {
      "type": "Feature",
      "id": "PATH-04",
      "geometry": { "type": "LineString", "coordinates": [[39.1575, 21.4903], [39.1588, 21.4897]] },
      "properties": { "path_id": "PATH-04", "path_type": "Sidewalk", "width_m": 3.5, "lighting": true, "accessible": true, "length_m": 160 }
    },
    {
      "type": "Feature",
      "id": "PATH-05",
      "geometry": { "type": "LineString", "coordinates": [[39.1608, 21.4908], [39.1618, 21.4908]] },
      "properties": { "path_id": "PATH-05", "path_type": "Crosswalk", "width_m": 5, "lighting": true, "accessible": true, "length_m": 105 }
    },
    {
      "type": "Feature",
      "id": "PATH-06",
      "geometry": { "type": "LineString", "coordinates": [[39.1610, 21.4932], [39.1600, 21.4920], [39.1596, 21.4914]] },
      "properties": { "path_id": "PATH-06", "path_type": "Plaza", "width_m": 8, "lighting": true, "accessible": true, "length_m": 240 }
    },
    {
      "type": "Feature",
      "id": "PATH-07",
      "geometry": { "type": "LineString", "coordinates": [[39.1625, 21.4892], [39.1618, 21.4904]] },
      "properties": { "path_id": "PATH-07", "path_type": "Bridge", "width_m": 4, "lighting": true, "accessible": false, "length_m": 155 }
    },
    {
      "type": "Feature",
      "id": "PATH-08",
      "geometry": { "type": "LineString", "coordinates": [[39.1592, 21.4884], [39.1578, 21.4884]] },
      "properties": { "path_id": "PATH-08", "path_type": "Tunnel", "width_m": 3, "lighting": true, "accessible": true, "length_m": 145 }
    },
    {
      "type": "Feature",
      "id": "PATH-09",
      "geometry": { "type": "LineString", "coordinates": [[39.1636, 21.4906], [39.1631, 21.4892]] },
      "properties": { "path_id": "PATH-09", "path_type": "Sidewalk", "width_m": 2.5, "lighting": false, "accessible": true, "length_m": 170 }
    }
  ]
}
