{"type":"FeatureCollection","name":"net_walking_paths","crs":{"type":"name","properties":{"name":"urn:ogc:def:crs:OGC:1.3:CRS84"}},"features":[{"type":"Feature","id":"NET_WALKING_PATHS-000000","geometry":{"type":"MultiLineString","coordinates":[[[39.246656,21.491553],[39.247504,21.491864],[39.248211,21.492115],[39.248418,21.492166],[39.248946,21.492374],[39.249204,21.492461],[39.249866,21.492697],[39.250382,21.492878],[39.250795,21.493024],[39.251228,21.493158],[39.251358,21.493191],[39.25149,21.493217],[39.251623,21.493238],[39.251756,21.493252],[39.25189,21.49326],[39.252025,21.493262],[39.252159,21.493258],[39.252606,21.493259],[39.252876,21.49326],[39.25351,21.493257],[39.253514,21.493258],[39.253517,21.493259],[39.253521,21.49326],[39.253524,21.49326],[39.253528,21.493261],[39.253532,21.493261],[39.253535,21.493262]]]},"properties":{"status":"EXT","surface_type":"ALT","accessible":"Yes","shaded":"Yes","length_m":746.21,"path_id":"NET_WALKING_PATHS-000000"}},{"type":"Feature","id":"NET_WALKING_PATHS-000001","geometry":{"type":"MultiLineString","coordinates":[[[39.239141,21.492118],[39.239476,21.492121],[39.23948,21.492119],[39.239484,21.492117],[39.239488,21.492114],[39.239492,21.492113],[39.239497,21.492111],[39.239501,21.49211],[39.239506,21.492109],[39.239511,21.492108],[39.239515,21.492108],[39.23952,21.492108],[39.239525,21.492108],[39.23953,21.492108],[39.239534,21.492109],[39.240587,21.492016],[39.240968,21.491979],[39.241873,21.4919],[39.242105,21.491922],[39.242526,21.491867],[39.243273,21.491793],[39.243304,21.491828],[39.243337,21.491861],[39.243372,21.491892],[39.24341,21.491921],[39.24345,21.491947],[39.243491,21.491971],[39.243534,21.491993],[39.243586,21.492006],[39.243639,21.492016],[39.243692,21.492023],[39.243746,21.492027],[39.2438,21.492027],[39.243854,21.492024],[39.243908,21.492018],[39.243961,21.492008],[39.244013,21.491995],[39.244064,21.491979],[39.244114,21.49196],[39.244165,21.491905],[39.244164,21.491898],[39.244164,21.491891],[39.244165,21.491884],[39.244166,21.491877],[39.244167,21.49187],[39.244169,21.491863],[39.244172,21.491857],[39.244175,21.49185],[39.244178,21.491844],[39.244182,21.491838],[39.244187,21.491832],[39.244192,21.491827],[39.244197,21.491822],[39.244203,21.491817],[39.244209,21.491813],[39.244215,21.491809],[39.244221,21.491806],[39.244228,21.491803],[39.244235,21.4918],[39.244243,21.491798],[39.24425,21.491796],[39.244257,21.491795],[39.244265,21.491795],[39.24519,21.491678],[39.245569,21.49164],[39.245603,21.491691],[39.246057,21.491729],[39.246465,21.491789],[39.247993,21.492324],[39.248957,21.492642],[39.250216,21.493109],[39.250245,21.493162],[39.250446,21.493211]]]},"properties":{"status":"EXT","surface_type":"ALT","accessible":"Yes","shaded":"Yes","length_m":1229.375,"path_id":"NET_WALKING_PATHS-000001"}},{"type":"Feature","id":"NET_WALKING_PATHS-000002","geometry":{"type":"MultiLineString","coordinates":[[[39.250446,21.493211],[39.250449,21.493209],[39.250453,21.493206],[39.250457,21.493204],[39.25046,21.493202],[39.250464,21.493201],[39.250468,21.493199],[39.250473,21.493198],[39.250477,21.493198],[39.250481,21.493197],[39.250485,21.493197],[39.25049,21.493197],[39.250494,21.493197],[39.250498,21.493198],[39.250503,21.493199],[39.250507,21.4932],[39.250511,21.493201],[39.250515,21.493203],[39.251236,21.493445],[39.251413,21.493475],[39.25159,21.493498],[39.251768,21.493515],[39.251947,21.493526],[39.252126,21.493531],[39.252306,21.49353],[39.252485,21.493522],[39.25352,21.493528],[39.253535,21.493262]]]},"properties":{"status":"EXT","surface_type":"ALT","accessible":"Yes","shaded":"Yes","length_m":353.817,"path_id":"NET_WALKING_PATHS-000002"}},{"type":"Feature","id":"NET_WALKING_PATHS-000003","geometry":{"type":"MultiLineString","coordinates":[[[39.253535,21.493262],[39.253567,21.493257],[39.253598,21.493251],[39.253629,21.493244],[39.253659,21.493234],[39.253688,21.493223],[39.253717,21.49321],[39.253744,21.493195],[39.253771,21.493179],[39.253797,21.493162],[39.253812,21.49315],[39.253826,21.493137],[39.25384,21.493123],[39.253852,21.493108],[39.253864,21.493093],[39.253874,21.493077],[39.253883,21.49306],[39.253891,21.493043],[39.253898,21.493026],[39.253903,21.493008],[39.253908,21.492989],[39.253911,21.492971],[39.253912,21.492952],[39.253912,21.492934],[39.253911,21.492915],[39.253909,21.492896],[39.253906,21.492878],[39.253873,21.492764],[39.253834,21.492651],[39.253789,21.492541],[39.253739,21.492433],[39.253682,21.492327],[39.253621,21.492224],[39.253553,21.492124],[39.253284,21.491729],[39.252937,21.49117],[39.252732,21.490661],[39.252618,21.489965],[39.252555,21.489527],[39.252544,21.489485],[39.25253,21.489443],[39.252514,21.489403],[39.252494,21.489363],[39.252472,21.489325],[39.252447,21.489288],[39.25242,21.489253],[39.252391,21.489219],[39.252359,21.489187],[39.252325,21.489157],[39.252289,21.48913],[39.252219,21.488946],[39.252212,21.488928],[39.252207,21.48891],[39.252203,21.488891],[39.2522,21.488873],[39.252199,21.488854],[39.252199,21.488835],[39.2522,21.488816],[39.252202,21.488797],[39.252205,21.488778],[39.252208,21.488615],[39.252358,21.488369],[39.25238,21.488278],[39.252449,21.487664],[39.25259,21.486888],[39.252687,21.486151]]]},"properties":{"status":"EXT","surface_type":"ALT","accessible":"Yes","shaded":"Yes","length_m":857.598,"path_id":"NET_WALKING_PATHS-000003"}},{"type":"Feature","id":"NET_WALKING_PATHS-000004","geometry":{"type":"MultiLineString","coordinates":[[[39.23867,21.493918],[39.238739,21.49387],[39.238805,21.493818],[39.238868,21.493762],[39.238926,21.493703],[39.23898,21.49364],[39.239031,21.493575],[39.239076,21.493506],[39.239095,21.493475],[39.239112,21.493443],[39.239127,21.493409],[39.23914,21.493375],[39.23915,21.493341],[39.239158,21.493306],[39.239164,21.49327],[39.239108,21.490534],[39.239034,21.487193],[39.239001,21.484799],[39.238998,21.484724]]]},"properties":{"status":"EXT","surface_type":"ALT","accessible":"Yes","shaded":"Yes","length_m":1036.477,"path_id":"NET_WALKING_PATHS-000004"}},{"type":"Feature","id":"NET_WALKING_PATHS-000005","geometry":{"type":"MultiLineString","coordinates":[[[39.23867,21.493918],[39.238661,21.49392],[39.238653,21.493923],[39.238644,21.493925],[39.238635,21.493927],[39.238626,21.49393],[39.238618,21.493932],[39.238609,21.493935],[39.238545,21.493951],[39.23848,21.493965],[39.238414,21.493978],[39.238349,21.49399],[39.238283,21.494],[39.238217,21.494009],[39.238151,21.494016],[39.237252,21.494123],[39.235844,21.4943],[39.235671,21.494322],[39.235282,21.494362],[39.232872,21.494653],[39.232514,21.494699],[39.231032,21.494852]]]},"properties":{"status":"EXT","surface_type":"ALT","accessible":"Yes","shaded":"Yes","length_m":798.189,"path_id":"NET_WALKING_PATHS-000005"}},{"type":"Feature","id":"NET_WALKING_PATHS-000006","geometry":{"type":"MultiLineString","coordinates":[[[39.238724,21.49427],[39.23867,21.493918]]]},"properties":{"status":"EXT","surface_type":"ALT","accessible":"Yes","shaded":"Yes","length_m":39.383,"path_id":"NET_WALKING_PATHS-000006"}},{"type":"Feature","id":"NET_WALKING_PATHS-000007","geometry":{"type":"MultiLineString","coordinates":[[[39.238724,21.49427],[39.2387,21.494272],[39.237349,21.494421],[39.236876,21.494479],[39.235712,21.494627],[39.235284,21.494673],[39.233785,21.494858],[39.232965,21.494964],[39.232893,21.494972]]]},"properties":{"status":"EXT","surface_type":"ALT","accessible":"Yes","shaded":"Yes","length_m":609.057,"path_id":"NET_WALKING_PATHS-000007"}},{"type":"Feature","id":"NET_WALKING_PATHS-000008","geometry":{"type":"MultiLineString","coordinates":[[[39.232893,21.494972],[39.231958,21.495081],[39.231194,21.495226]]]},"properties":{"status":"EXT","surface_type":"ALT","accessible":"Yes","shaded":"Yes","length_m":178.31,"path_id":"NET_WALKING_PATHS-000008"}},{"type":"Feature","id":"NET_WALKING_PATHS-000009","geometry":{"type":"MultiLineString","coordinates":[[[39.239238,21.497791],[39.239237,21.497194],[39.239189,21.494659],[39.239175,21.494624],[39.239159,21.494589],[39.239141,21.494555],[39.239121,21.494522],[39.239098,21.494491],[39.239073,21.494461],[39.239046,21.494433],[39.239017,21.494406],[39.238986,21.494381],[39.238954,21.494359],[39.23892,21.494338],[39.238885,21.494319],[39.238848,21.494303],[39.238811,21.494289],[39.238772,21.494277],[39.238724,21.49427]]]},"properties":{"status":"EXT","surface_type":"ALT","accessible":"Yes","shaded":"Yes","length_m":414.664,"path_id":"NET_WALKING_PATHS-000009"}},{"type":"Feature","id":"NET_WALKING_PATHS-000010","geometry":{"type":"MultiLineString","coordinates":[[[39.239238,21.497783],[39.239543,21.497781],[39.239548,21.497806],[39.239554,21.497831],[39.239563,21.497855],[39.239573,21.497878],[39.239585,21.497901],[39.239599,21.497922],[39.239614,21.497943],[39.239631,21.497963],[39.239649,21.497981],[39.239669,21.497998],[39.23969,21.498014],[39.239712,21.498029],[39.239735,21.498042],[39.239759,21.498053],[39.239784,21.498063],[39.239927,21.498052],[39.240069,21.498041],[39.240212,21.498031],[39.240355,21.49802],[39.240498,21.49801],[39.24064,21.497999],[39.240783,21.497988],[39.241167,21.497989],[39.241547,21.498026],[39.241856,21.498119],[39.242768,21.498391],[39.243354,21.498544],[39.243856,21.498713],[39.244178,21.498808],[39.244626,21.498916],[39.245382,21.499138],[39.246447,21.499435],[39.246843,21.499545],[39.246885,21.499555],[39.246927,21.499563],[39.246971,21.499567],[39.247014,21.499569],[39.247058,21.499567],[39.247101,21.499563],[39.247144,21.499556],[39.247186,21.499546],[39.247227,21.499532],[39.247255,21.499516],[39.247285,21.499501],[39.247315,21.499488],[39.247346,21.499477],[39.247378,21.499468],[39.247411,21.499461],[39.247444,21.499456],[39.247477,21.499453],[39.24751,21.499452],[39.247544,21.499453],[39.247577,21.499456],[39.24761,21.499461],[39.247642,21.499468],[39.247674,21.499477],[39.247705,21.499488],[39.247736,21.499501],[39.247765,21.499515],[39.247794,21.499532],[39.247821,21.49955],[39.247847,21.49957],[39.247871,21.499591],[39.247894,21.499614],[39.247915,21.499638],[39.247954,21.499669],[39.247996,21.499696],[39.248039,21.499721],[39.248084,21.499743],[39.248131,21.499762],[39.248179,21.499778],[39.248228,21.499791],[39.248278,21.4998],[39.248329,21.499806],[39.248977,21.499836],[39.249205,21.499794]]]},"properties":{"status":"EXT","surface_type":"ALT","accessible":"Yes","shaded":"Yes","length_m":1089.45,"path_id":"NET_WALKING_PATHS-000010"}},{"type":"Feature","id":"NET_WALKING_PATHS-000011","geometry":{"type":"MultiLineString","coordinates":[[[39.238916,21.49817],[39.238949,21.498155],[39.238982,21.498138],[39.239013,21.498119],[39.239043,21.498098],[39.239072,21.498076],[39.239099,21.498052],[39.239125,21.498026],[39.239148,21.497999],[39.23917,21.497971],[39.23919,21.497941],[39.239208,21.497911],[39.239224,21.497879],[39.239238,21.497847],[39.239238,21.497791]]]},"properties":{"status":"EXT","surface_type":"ALT","accessible":"Yes","shaded":"Yes","length_m":56.377,"path_id":"NET_WALKING_PATHS-000011"}},{"type":"Feature","id":"NET_WALKING_PATHS-000012","geometry":{"type":"MultiLineString","coordinates":[[[39.238916,21.49817],[39.238887,21.49818],[39.238858,21.498189],[39.238829,21.498198],[39.238799,21.498206],[39.23877,21.498213],[39.23874,21.49822],[39.23871,21.498226],[39.237719,21.498331],[39.236465,21.498478],[39.23579,21.498573],[39.234925,21.498678],[39.234415,21.498736],[39.234098,21.498789],[39.233418,21.498852]]]},"properties":{"status":"EXT","surface_type":"ALT","accessible":"Yes","shaded":"Yes","length_m":574.849,"path_id":"NET_WALKING_PATHS-000012"}},{"type":"Feature","id":"NET_WALKING_PATHS-000013","geometry":{"type":"MultiLineString","coordinates":[[[39.238772,21.49844],[39.238752,21.498217]]]},"properties":{"status":"EXT","surface_type":"ALT","accessible":"Yes","shaded":"Yes","length_m":24.778,"path_id":"NET_WALKING_PATHS-000013"}},{"type":"Feature","id":"NET_WALKING_PATHS-000014","geometry":{"type":"MultiLineString","coordinates":[[[39.239246,21.498843],[39.239241,21.498672],[39.239236,21.498652],[39.239229,21.498631],[39.23922,21.498611],[39.23921,21.498591],[39.239199,21.498573],[39.239186,21.498555],[39.239173,21.498537],[39.239157,21.498521],[39.239141,21.498506],[39.239124,21.498492],[39.239106,21.498479],[39.239086,21.498467],[39.239066,21.498456],[39.239046,21.498447],[39.239024,21.498439],[39.239002,21.498432],[39.23898,21.498427],[39.238957,21.498423],[39.238934,21.498421]]]},"properties":{"status":"EXT","surface_type":"ALT","accessible":"Yes","shaded":"Yes","length_m":64.236,"path_id":"NET_WALKING_PATHS-000014"}},{"type":"Feature","id":"NET_WALKING_PATHS-000015","geometry":{"type":"MultiLineString","coordinates":[[[39.239246,21.498848],[39.239561,21.498846],[39.239562,21.498836],[39.239563,21.498825],[39.239564,21.498815],[39.239564,21.498805],[39.239564,21.498794],[39.239564,21.498784],[39.239564,21.498774],[39.239567,21.498739],[39.239572,21.498704],[39.23958,21.49867],[39.23959,21.498636],[39.239603,21.498603],[39.239618,21.498571],[39.239636,21.49854],[39.239655,21.49851],[39.239677,21.498482],[39.239701,21.498454],[39.239727,21.498429],[39.239754,21.498405],[39.239783,21.498383],[39.239814,21.498363],[39.239846,21.498345],[39.239982,21.498303],[39.240119,21.498268],[39.240258,21.498239],[39.240399,21.498217],[39.24054,21.498201],[39.240683,21.498192],[39.240825,21.49819],[39.24124,21.498203],[39.241557,21.49825],[39.242831,21.498597],[39.243538,21.498853],[39.243695,21.498897],[39.24473,21.499187],[39.245134,21.499306],[39.245839,21.4995],[39.245993,21.499592],[39.246151,21.499775],[39.246342,21.499786],[39.246438,21.499802],[39.247024,21.499904],[39.24706,21.49992],[39.247062,21.499921],[39.247063,21.499922],[39.247064,21.499923],[39.247065,21.499924],[39.247066,21.499926],[39.247068,21.499927],[39.247069,21.499928],[39.247104,21.499963],[39.247137,21.5],[39.247167,21.500039],[39.247195,21.500079],[39.247219,21.500121],[39.247241,21.500164],[39.24726,21.500209],[39.247276,21.500255],[39.247289,21.500301],[39.247298,21.500348],[39.247305,21.500396],[39.24728,21.500721],[39.24712,21.501873]]]},"properties":{"status":"EXT","surface_type":"ALT","accessible":"Yes","shaded":"Yes","length_m":1108.425,"path_id":"NET_WALKING_PATHS-000015"}},{"type":"Feature","id":"NET_WALKING_PATHS-000016","geometry":{"type":"MultiLineString","coordinates":[[[39.233418,21.498852],[39.233368,21.498464],[39.233249,21.497522],[39.233186,21.497203],[39.233181,21.497169],[39.233152,21.496948],[39.232893,21.494972]]]},"properties":{"status":"EXT","surface_type":"ALT","accessible":"Yes","shaded":"Yes","length_m":432.914,"path_id":"NET_WALKING_PATHS-000016"}},{"type":"Feature","id":"NET_WALKING_PATHS-000017","geometry":{"type":"MultiLineString","coordinates":[[[39.23345,21.499096],[39.233418,21.498852]]]},"properties":{"status":"EXT","surface_type":"ALT","accessible":"Yes","shaded":"Yes","length_m":27.245,"path_id":"NET_WALKING_PATHS-000017"}},{"type":"Feature","id":"NET_WALKING_PATHS-000018","geometry":{"type":"MultiLineString","coordinates":[[[39.23345,21.499096],[39.235542,21.49884],[39.235682,21.49882],[39.23591,21.498793],[39.236485,21.498719],[39.237203,21.498631],[39.237948,21.498548],[39.238524,21.498471],[39.238934,21.498421]]]},"properties":{"status":"EXT","surface_type":"ALT","accessible":"Yes","shaded":"Yes","length_m":572.996,"path_id":"NET_WALKING_PATHS-000018"}},{"type":"Feature","id":"NET_WALKING_PATHS-000019","geometry":{"type":"MultiLineString","coordinates":[[[39.249205,21.499794],[39.24957,21.497881],[39.249931,21.496026],[39.250232,21.494299],[39.250425,21.493249],[39.250426,21.493245],[39.250427,21.493241],[39.250428,21.493237],[39.250429,21.493234],[39.250431,21.49323],[39.250433,21.493227],[39.250435,21.493223],[39.250438,21.49322],[39.25044,21.493217],[39.250443,21.493214],[39.250446,21.493211]]]},"properties":{"status":"EXT","surface_type":"ALT","accessible":"Yes","shaded":"Yes","length_m":740.163,"path_id":"NET_WALKING_PATHS-000019"}},{"type":"Feature","id":"NET_WALKING_PATHS-000020","geometry":{"type":"MultiLineString","coordinates":[[[39.23358,21.50007],[39.233456,21.49914],[39.23345,21.499096]]]},"properties":{"status":"EXT","surface_type":"ALT","accessible":"Yes","shaded":"Yes","length_m":108.558,"path_id":"NET_WALKING_PATHS-000020"}},{"type":"Feature","id":"NET_WALKING_PATHS-000021","geometry":{"type":"MultiLineString","coordinates":[[[39.233319,21.500092],[39.233203,21.499131],[39.233135,21.49864],[39.232931,21.497253],[39.232867,21.496737],[39.232646,21.495158],[39.23264,21.495109],[39.23264,21.495109],[39.23264,21.495108],[39.23264,21.495108],[39.23264,21.495107],[39.23264,21.495107],[39.23264,21.495106],[39.23264,21.495105],[39.232629,21.495003]]]},"properties":{"status":"EXT","surface_type":"ALT","accessible":"Yes","shaded":"Yes","length_m":567.769,"path_id":"NET_WALKING_PATHS-000021"}},{"type":"Feature","id":"NET_WALKING_PATHS-000022","geometry":{"type":"MultiLineString","coordinates":[[[39.248977,21.499836],[39.249369,21.497895],[39.249427,21.497583],[39.249651,21.496456],[39.249797,21.495719],[39.249975,21.4948],[39.250192,21.493688],[39.250245,21.493162]]]},"properties":{"status":"EXT","surface_type":"ALT","accessible":"Yes","shaded":"Yes","length_m":750.487,"path_id":"NET_WALKING_PATHS-000022"}},{"type":"Feature","id":"NET_WALKING_PATHS-000023","geometry":{"type":"MultiLineString","coordinates":[[[39.239543,21.497781],[39.239511,21.495488],[39.239503,21.495202],[39.239487,21.49513],[39.239476,21.495057],[39.23947,21.494984],[39.23947,21.49491],[39.239476,21.494837],[39.239487,21.494764],[39.239503,21.494692],[39.239525,21.494621],[39.239551,21.494552],[39.239583,21.494485],[39.23962,21.494419],[39.239662,21.494357],[39.239708,21.494297],[39.239758,21.494241],[39.239812,21.494187],[39.239762,21.493763],[39.239725,21.493741],[39.23969,21.493716],[39.239657,21.49369],[39.239626,21.493661],[39.239597,21.493631],[39.23957,21.493598],[39.239546,21.493565],[39.239523,21.49353],[39.239504,21.493493],[39.239487,21.493456],[39.239472,21.493417],[39.239461,21.493378],[39.239452,21.493338],[39.239445,21.493298],[39.239442,21.493257],[39.239441,21.493216],[39.239444,21.493175],[39.239449,21.493135],[39.239457,21.493095],[39.23945,21.492164],[39.23945,21.492161],[39.23945,21.492158],[39.239451,21.492154],[39.239452,21.492151],[39.239453,21.492148],[39.239454,21.492144],[39.239456,21.492141],[39.239458,21.492138],[39.23946,21.492135],[39.239462,21.492133],[39.239464,21.49213],[39.239467,21.492128],[39.23947,21.492125],[39.239473,21.492123],[39.239476,21.492121]]]},"properties":{"status":"EXT","surface_type":"ALT","accessible":"Yes","shaded":"Yes","length_m":649.495,"path_id":"NET_WALKING_PATHS-000023"}},{"type":"Feature","id":"NET_WALKING_PATHS-000024","geometry":{"type":"MultiLineString","coordinates":[[[39.239134,21.491781],[39.239134,21.491781],[39.239429,21.491783],[39.23943,21.491792],[39.239431,21.491801],[39.239433,21.49181],[39.239435,21.491818],[39.239438,21.491827],[39.239442,21.491835],[39.239446,21.491843],[39.239451,21.491851],[39.239456,21.491858],[39.239462,21.491865],[39.239469,21.491871],[39.239476,21.491877],[39.239483,21.491883],[39.239491,21.491888],[39.239499,21.491892],[39.239508,21.491896],[39.239517,21.4919],[39.239526,21.491902],[39.239535,21.491905],[39.239545,21.491906],[39.239554,21.491907],[39.240005,21.491881],[39.240109,21.491875],[39.240751,21.491812],[39.241695,21.491721],[39.243211,21.491575],[39.243222,21.491572],[39.243233,21.491568],[39.243243,21.491564],[39.243252,21.491559],[39.243262,21.491553],[39.243271,21.491547],[39.243279,21.49154],[39.243287,21.491533],[39.243295,21.491525],[39.243301,21.491516],[39.243308,21.491508],[39.243313,21.491499],[39.243318,21.491489],[39.243322,21.49148],[39.243326,21.49147],[39.243328,21.491459],[39.24333,21.491449],[39.243331,21.491439],[39.243332,21.491428],[39.243331,21.491418],[39.24333,21.491407],[39.243328,21.491397],[39.243326,21.491387],[39.243322,21.491377],[39.243318,21.491367],[39.243314,21.491358],[39.243308,21.491349],[39.243302,21.49134],[39.243295,21.491332],[39.243522,21.491182],[39.243538,21.491198],[39.243554,21.491213],[39.243571,21.491227],[39.24359,21.49124],[39.243609,21.491251],[39.24363,21.491261],[39.243651,21.49127],[39.243672,21.491277],[39.243694,21.491283],[39.243856,21.491311],[39.243931,21.491358]]]},"properties":{"status":"EXT","surface_type":"ALT","accessible":"Yes","shaded":"Yes","length_m":542.065,"path_id":"NET_WALKING_PATHS-000024"}},{"type":"Feature","id":"NET_WALKING_PATHS-000025","geometry":{"type":"MultiLineString","coordinates":[[[39.243931,21.491358],[39.243947,21.491369],[39.243962,21.49138],[39.243976,21.491393],[39.24399,21.491407],[39.244002,21.491421],[39.244014,21.491436],[39.244024,21.491452],[39.244035,21.491461],[39.244047,21.491469],[39.244059,21.491477],[39.244071,21.491484],[39.244084,21.49149],[39.244098,21.491496],[39.244111,21.491501],[39.244126,21.491505],[39.24414,21.491508],[39.244154,21.49151],[39.244169,21.491511],[39.244183,21.491512],[39.244198,21.491511],[39.245255,21.491424],[39.24533,21.491419],[39.245405,21.491415],[39.245481,21.491414],[39.245556,21.491415],[39.245631,21.491418],[39.245706,21.491423],[39.245781,21.491429],[39.245907,21.491438],[39.246033,21.491449],[39.246159,21.491463],[39.246284,21.491481],[39.246409,21.491502],[39.246532,21.491526],[39.246656,21.491553]]]},"properties":{"status":"EXT","surface_type":"ALT","accessible":"Yes","shaded":"Yes","length_m":290.325,"path_id":"NET_WALKING_PATHS-000025"}},{"type":"Feature","id":"NET_WALKING_PATHS-000026","geometry":{"type":"MultiLineString","coordinates":[[[39.244278,21.491505],[39.244295,21.491791]]]},"properties":{"status":"EXT","surface_type":"ALT","accessible":"Yes","shaded":"Yes","length_m":31.703,"path_id":"NET_WALKING_PATHS-000026"}},{"type":"Feature","id":"NET_WALKING_PATHS-000027","geometry":{"type":"MultiLineString","coordinates":[[[39.245553,21.491641],[39.24556,21.491415]]]},"properties":{"status":"EXT","surface_type":"ALT","accessible":"Yes","shaded":"Yes","length_m":25.075,"path_id":"NET_WALKING_PATHS-000027"}},{"type":"Feature","id":"NET_WALKING_PATHS-000028","geometry":{"type":"MultiLineString","coordinates":[[[39.239561,21.498846],[39.239578,21.499199],[39.239623,21.499246],[39.239634,21.50011],[39.239661,21.50101],[39.239665,21.50159]]]},"properties":{"status":"EXT","surface_type":"ALT","accessible":"Yes","shaded":"Yes","length_m":305.593,"path_id":"NET_WALKING_PATHS-000028"}},{"type":"Feature","id":"NET_WALKING_PATHS-000029","geometry":{"type":"MultiLineString","coordinates":[[[39.239745,21.486386],[39.241132,21.486627]]]},"properties":{"status":"EXT","surface_type":"ALT","accessible":"Yes","shaded":"Yes","length_m":146.116,"path_id":"NET_WALKING_PATHS-000029"}},{"type":"Feature","id":"NET_WALKING_PATHS-000030","geometry":{"type":"MultiLineString","coordinates":[[[39.241132,21.486627],[39.241036,21.487103]]]},"properties":{"status":"EXT","surface_type":"ALT","accessible":"Yes","shaded":"Yes","length_m":53.711,"path_id":"NET_WALKING_PATHS-000030"}},{"type":"Feature","id":"NET_WALKING_PATHS-000031","geometry":{"type":"MultiLineString","coordinates":[[[39.241132,21.486627],[39.241214,21.486223]]]},"properties":{"status":"EXT","surface_type":"ALT","accessible":"Yes","shaded":"Yes","length_m":45.494,"path_id":"NET_WALKING_PATHS-000031"}},{"type":"Feature","id":"NET_WALKING_PATHS-000032","geometry":{"type":"MultiLineString","coordinates":[[[39.241214,21.486223],[39.241329,21.485661],[39.239901,21.485443],[39.239745,21.486386]]]},"properties":{"status":"EXT","surface_type":"ALT","accessible":"Yes","shaded":"Yes","length_m":318.904,"path_id":"NET_WALKING_PATHS-000032"}}]}