{"type":"FeatureCollection","name":"utl_fire_hydrants","crs":{"type":"name","properties":{"name":"urn:ogc:def:crs:OGC:1.3:CRS84"}},"features":[{"type":"Feature","id":"UTL_FIRE_HYDRANTS-000000","geometry":{"type":"Point","coordinates":[39.256484,21.500577]},"properties":{"hydrant_type":"Dry Barrel","status":"Planned","branch":"السليمانية","hydrant_id":"UTL_FIRE_HYDRANTS-000000"}},{"type":"Feature","id":"UTL_FIRE_HYDRANTS-000001","geometry":{"type":"Point","coordinates":[39.255313,21.500304]},"properties":{"hydrant_type":"Dry Barrel","status":"Planned","branch":"السليمانية","hydrant_id":"UTL_FIRE_HYDRANTS-000001"}},{"type":"Feature","id":"UTL_FIRE_HYDRANTS-000002","geometry":{"type":"Point","coordinates":[39.254234,21.500227]},"properties":{"hydrant_type":"Dry Barrel","status":"Planned","branch":"السليمانية","hydrant_id":"UTL_FIRE_HYDRANTS-000002"}},{"type":"Feature","id":"UTL_FIRE_HYDRANTS-000003","geometry":{"type":"Point","coordinates":[39.251315,21.500016]},"properties":{"hydrant_type":"Dry Barrel","status":"Planned","branch":"السليمانية","hydrant_id":"UTL_FIRE_HYDRANTS-000003"}},{"type":"Feature","id":"UTL_FIRE_HYDRANTS-000004","geometry":{"type":"Point","coordinates":[39.24892,21.499841]},"properties":{"hydrant_type":"Dry Barrel","status":"Planned","branch":"السليمانية","hydrant_id":"UTL_FIRE_HYDRANTS-000004"}},{"type":"Feature","id":"UTL_FIRE_HYDRANTS-000005","geometry":{"type":"Point","coordinates":[39.244214,21.498803]},"properties":{"hydrant_type":"Dry Barrel","status":"Planned","branch":"السليمانية","hydrant_id":"UTL_FIRE_HYDRANTS-000005"}},{"type":"Feature","id":"UTL_FIRE_HYDRANTS-000006","geometry":{"type":"Point","coordinates":[39.24188,21.498144]},"properties":{"hydrant_type":"Dry Barrel","status":"Planned","branch":"السليمانية","hydrant_id":"UTL_FIRE_HYDRANTS-000006"}},{"type":"Feature","id":"UTL_FIRE_HYDRANTS-000007","geometry":{"type":"Point","coordinates":[39.240111,21.498071]},"properties":{"hydrant_type":"Dry Barrel","status":"Planned","branch":"السليمانية","hydrant_id":"UTL_FIRE_HYDRANTS-000007"}},{"type":"Feature","id":"UTL_FIRE_HYDRANTS-000008","geometry":{"type":"Point","coordinates":[39.238678,21.498223]},"properties":{"hydrant_type":"Dry Barrel","status":"Planned","branch":"السليمانية","hydrant_id":"UTL_FIRE_HYDRANTS-000008"}},{"type":"Feature","id":"UTL_FIRE_HYDRANTS-000009","geometry":{"type":"Point","coordinates":[39.237529,21.498364]},"properties":{"status":"Planned","branch":"السليمانية","hydrant_id":"UTL_FIRE_HYDRANTS-000009"}},{"type":"Feature","id":"UTL_FIRE_HYDRANTS-000010","geometry":{"type":"Point","coordinates":[39.236727,21.498434]},"properties":{"status":"Planned","branch":"السليمانية","hydrant_id":"UTL_FIRE_HYDRANTS-000010"}},{"type":"Feature","id":"UTL_FIRE_HYDRANTS-000011","geometry":{"type":"Point","coordinates":[39.235815,21.498577]},"properties":{"status":"Planned","branch":"السليمانية","hydrant_id":"UTL_FIRE_HYDRANTS-000011"}},{"type":"Feature","id":"UTL_FIRE_HYDRANTS-000012","geometry":{"type":"Point","coordinates":[39.235572,21.498588]},"properties":{"status":"Planned","branch":"السليمانية","hydrant_id":"UTL_FIRE_HYDRANTS-000012"}},{"type":"Feature","id":"UTL_FIRE_HYDRANTS-000013","geometry":{"type":"Point","coordinates":[39.23501,21.498676]},"properties":{"status":"Planned","branch":"السليمانية","hydrant_id":"UTL_FIRE_HYDRANTS-000013"}},{"type":"Feature","id":"UTL_FIRE_HYDRANTS-000014","geometry":{"type":"Point","coordinates":[39.234045,21.498794]},"properties":{"status":"Planned","branch":"السليمانية","hydrant_id":"UTL_FIRE_HYDRANTS-000014"}},{"type":"Feature","id":"UTL_FIRE_HYDRANTS-000015","geometry":{"type":"Point","coordinates":[39.233242,21.497615]},"properties":{"status":"Planned","branch":"السليمانية","hydrant_id":"UTL_FIRE_HYDRANTS-000015"}},{"type":"Feature","id":"UTL_FIRE_HYDRANTS-000016","geometry":{"type":"Point","coordinates":[39.233121,21.496737]},"properties":{"status":"Planned","branch":"السليمانية","hydrant_id":"UTL_FIRE_HYDRANTS-000016"}},{"type":"Feature","id":"UTL_FIRE_HYDRANTS-000017","geometry":{"type":"Point","coordinates":[39.233,21.495891]},"properties":{"status":"Planned","branch":"السليمانية","hydrant_id":"UTL_FIRE_HYDRANTS-000017"}},{"type":"Feature","id":"UTL_FIRE_HYDRANTS-000018","geometry":{"type":"Point","coordinates":[39.232134,21.498282]},"properties":{"status":"Planned","branch":"السليمانية","hydrant_id":"UTL_FIRE_HYDRANTS-000018"}},{"type":"Feature","id":"UTL_FIRE_HYDRANTS-000019","geometry":{"type":"Point","coordinates":[39.232326,21.499958]},"properties":{"status":"Planned","branch":"السليمانية","hydrant_id":"UTL_FIRE_HYDRANTS-000019"}},{"type":"Feature","id":"UTL_FIRE_HYDRANTS-000020","geometry":{"type":"Point","coordinates":[39.233481,21.499346]},"properties":{"status":"Planned","branch":"السليمانية","hydrant_id":"UTL_FIRE_HYDRANTS-000020"}},{"type":"Feature","id":"UTL_FIRE_HYDRANTS-000021","geometry":{"type":"Point","coordinates":[39.264903,21.491011]},"properties":{"status":"Planned","branch":"السليمانية","hydrant_id":"UTL_FIRE_HYDRANTS-000021"}},{"type":"Feature","id":"UTL_FIRE_HYDRANTS-000022","geometry":{"type":"Point","coordinates":[39.265523,21.488908]},"properties":{"status":"Planned","branch":"السليمانية","hydrant_id":"UTL_FIRE_HYDRANTS-000022"}},{"type":"Feature","id":"UTL_FIRE_HYDRANTS-000023","geometry":{"type":"Point","coordinates":[39.264544,21.488467]},"properties":{"status":"Planned","branch":"السليمانية","hydrant_id":"UTL_FIRE_HYDRANTS-000023"}},{"type":"Feature","id":"UTL_FIRE_HYDRANTS-000024","geometry":{"type":"Point","coordinates":[39.263644,21.488172]},"properties":{"status":"Planned","branch":"السليمانية","hydrant_id":"UTL_FIRE_HYDRANTS-000024"}},{"type":"Feature","id":"UTL_FIRE_HYDRANTS-000025","geometry":{"type":"Point","coordinates":[39.23682,21.497368]},"properties":{"status":"Planned","branch":"السليمانية","hydrant_id":"UTL_FIRE_HYDRANTS-000025"}},{"type":"Feature","id":"UTL_FIRE_HYDRANTS-000026","geometry":{"type":"Point","coordinates":[39.262899,21.488327]},"properties":{"status":"Planned","branch":"السليمانية","hydrant_id":"UTL_FIRE_HYDRANTS-000026"}},{"type":"Feature","id":"UTL_FIRE_HYDRANTS-000027","geometry":{"type":"Point","coordinates":[39.26327,21.489497]},"properties":{"status":"Planned","branch":"السليمانية","hydrant_id":"UTL_FIRE_HYDRANTS-000027"}},{"type":"Feature","id":"UTL_FIRE_HYDRANTS-000028","geometry":{"type":"Point","coordinates":[39.263474,21.490157]},"properties":{"status":"Planned","branch":"السليمانية","hydrant_id":"UTL_FIRE_HYDRANTS-000028"}},{"type":"Feature","id":"UTL_FIRE_HYDRANTS-000029","geometry":{"type":"Point","coordinates":[39.253384,21.49932]},"properties":{"hydrant_type":"Dry Barrel","status":"Planned","branch":"السليمانية","hydrant_id":"UTL_FIRE_HYDRANTS-000029"}},{"type":"Feature","id":"UTL_FIRE_HYDRANTS-000030","geometry":{"type":"Point","coordinates":[39.253786,21.49715]},"properties":{"hydrant_type":"Dry Barrel","status":"Planned","branch":"السليمانية","hydrant_id":"UTL_FIRE_HYDRANTS-000030"}},{"type":"Feature","id":"UTL_FIRE_HYDRANTS-000031","geometry":{"type":"Point","coordinates":[39.254183,21.495022]},"properties":{"hydrant_type":"Dry Barrel","status":"Planned","branch":"السليمانية","hydrant_id":"UTL_FIRE_HYDRANTS-000031"}},{"type":"Feature","id":"UTL_FIRE_HYDRANTS-000032","geometry":{"type":"Point","coordinates":[39.252698,21.490402]},"properties":{"hydrant_type":"Dry Barrel","status":"Planned","branch":"السليمانية","hydrant_id":"UTL_FIRE_HYDRANTS-000032"}},{"type":"Feature","id":"UTL_FIRE_HYDRANTS-000033","geometry":{"type":"Point","coordinates":[39.252417,21.488218]},"properties":{"hydrant_type":"Dry Barrel","status":"Planned","branch":"السليمانية","hydrant_id":"UTL_FIRE_HYDRANTS-000033"}},{"type":"Feature","id":"UTL_FIRE_HYDRANTS-000034","geometry":{"type":"Point","coordinates":[39.239235,21.497667]},"properties":{"status":"Planned","branch":"السليمانية","hydrant_id":"UTL_FIRE_HYDRANTS-000034"}},{"type":"Feature","id":"UTL_FIRE_HYDRANTS-000035","geometry":{"type":"Point","coordinates":[39.235632,21.495187]},"properties":{"status":"Planned","branch":"السليمانية","hydrant_id":"UTL_FIRE_HYDRANTS-000035"}},{"type":"Feature","id":"UTL_FIRE_HYDRANTS-000036","geometry":{"type":"Point","coordinates":[39.236208,21.494615]},"properties":{"status":"Planned","branch":"السليمانية","hydrant_id":"UTL_FIRE_HYDRANTS-000036"}},{"type":"Feature","id":"UTL_FIRE_HYDRANTS-000037","geometry":{"type":"Point","coordinates":[39.242584,21.486787]},"properties":{"status":"Planned","branch":"السليمانية","hydrant_id":"UTL_FIRE_HYDRANTS-000037"}},{"type":"Feature","id":"UTL_FIRE_HYDRANTS-000038","geometry":{"type":"Point","coordinates":[39.236804,21.493905]},"properties":{"status":"Planned","branch":"السليمانية","hydrant_id":"UTL_FIRE_HYDRANTS-000038"}},{"type":"Feature","id":"UTL_FIRE_HYDRANTS-000039","geometry":{"type":"Point","coordinates":[39.238046,21.494389]},"properties":{"status":"Planned","branch":"السليمانية","hydrant_id":"UTL_FIRE_HYDRANTS-000039"}},{"type":"Feature","id":"UTL_FIRE_HYDRANTS-000040","geometry":{"type":"Point","coordinates":[39.239559,21.499039]},"properties":{"hydrant_type":"Dry Barrel","status":"Planned","branch":"السليمانية","hydrant_id":"UTL_FIRE_HYDRANTS-000040"}},{"type":"Feature","id":"UTL_FIRE_HYDRANTS-000041","geometry":{"type":"Point","coordinates":[39.239124,21.495598]},"properties":{"status":"Planned","branch":"السليمانية","hydrant_id":"UTL_FIRE_HYDRANTS-000041"}},{"type":"Feature","id":"UTL_FIRE_HYDRANTS-000042","geometry":{"type":"Point","coordinates":[39.239196,21.49549]},"properties":{"status":"Planned","branch":"السليمانية","hydrant_id":"UTL_FIRE_HYDRANTS-000042"}},{"type":"Feature","id":"UTL_FIRE_HYDRANTS-000043","geometry":{"type":"Point","coordinates":[39.236245,21.495189]},"properties":{"status":"Planned","branch":"السليمانية","hydrant_id":"UTL_FIRE_HYDRANTS-000043"}},{"type":"Feature","id":"UTL_FIRE_HYDRANTS-000044","geometry":{"type":"Point","coordinates":[39.2372,21.495011]},"properties":{"status":"Planned","branch":"السليمانية","hydrant_id":"UTL_FIRE_HYDRANTS-000044"}},{"type":"Feature","id":"UTL_FIRE_HYDRANTS-000045","geometry":{"type":"Point","coordinates":[39.238179,21.494951]},"properties":{"status":"Planned","branch":"السليمانية","hydrant_id":"UTL_FIRE_HYDRANTS-000045"}},{"type":"Feature","id":"UTL_FIRE_HYDRANTS-000046","geometry":{"type":"Point","coordinates":[39.23938,21.496335]},"properties":{"hydrant_type":"Dry Barrel","status":"Planned","branch":"السليمانية","hydrant_id":"UTL_FIRE_HYDRANTS-000046"}},{"type":"Feature","id":"UTL_FIRE_HYDRANTS-000047","geometry":{"type":"Point","coordinates":[39.239498,21.495477]},"properties":{"hydrant_type":"Dry Barrel","status":"Planned","branch":"السليمانية","hydrant_id":"UTL_FIRE_HYDRANTS-000047"}},{"type":"Feature","id":"UTL_FIRE_HYDRANTS-000048","geometry":{"type":"Point","coordinates":[39.23944,21.492586]},"properties":{"hydrant_type":"Dry Barrel","status":"Planned","branch":"السليمانية","hydrant_id":"UTL_FIRE_HYDRANTS-000048"}},{"type":"Feature","id":"UTL_FIRE_HYDRANTS-000049","geometry":{"type":"Point","coordinates":[39.239463,21.491772]},"properties":{"hydrant_type":"Dry Barrel","status":"Planned","branch":"السليمانية","hydrant_id":"UTL_FIRE_HYDRANTS-000049"}},{"type":"Feature","id":"UTL_FIRE_HYDRANTS-000050","geometry":{"type":"Point","coordinates":[39.239419,21.490521]},"properties":{"hydrant_type":"Dry Barrel","status":"Planned","branch":"السليمانية","hydrant_id":"UTL_FIRE_HYDRANTS-000050"}},{"type":"Feature","id":"UTL_FIRE_HYDRANTS-000051","geometry":{"type":"Point","coordinates":[39.239398,21.490324]},"properties":{"hydrant_type":"Dry Barrel","status":"Planned","branch":"السليمانية","hydrant_id":"UTL_FIRE_HYDRANTS-000051"}},{"type":"Feature","id":"UTL_FIRE_HYDRANTS-000052","geometry":{"type":"Point","coordinates":[39.239368,21.488159]},"properties":{"hydrant_type":"Dry Barrel","status":"Planned","branch":"السليمانية","hydrant_id":"UTL_FIRE_HYDRANTS-000052"}},{"type":"Feature","id":"UTL_FIRE_HYDRANTS-000053","geometry":{"type":"Point","coordinates":[39.239321,21.486099]},"properties":{"hydrant_type":"Dry Barrel","status":"Planned","branch":"السليمانية","hydrant_id":"UTL_FIRE_HYDRANTS-000053"}},{"type":"Feature","id":"UTL_FIRE_HYDRANTS-000054","geometry":{"type":"Point","coordinates":[39.243475,21.498335]},"properties":{"status":"Planned","branch":"السليمانية","hydrant_id":"UTL_FIRE_HYDRANTS-000054"}},{"type":"Feature","id":"UTL_FIRE_HYDRANTS-000055","geometry":{"type":"Point","coordinates":[39.243585,21.497689]},"properties":{"status":"Planned","branch":"السليمانية","hydrant_id":"UTL_FIRE_HYDRANTS-000055"}},{"type":"Feature","id":"UTL_FIRE_HYDRANTS-000056","geometry":{"type":"Point","coordinates":[39.244922,21.496908]},"properties":{"hydrant_type":"Dry Barrel","status":"Planned","branch":"السليمانية","hydrant_id":"UTL_FIRE_HYDRANTS-000056"}},{"type":"Feature","id":"UTL_FIRE_HYDRANTS-000057","geometry":{"type":"Point","coordinates":[39.246027,21.497088]},"properties":{"hydrant_type":"Dry Barrel","status":"Planned","branch":"السليمانية","hydrant_id":"UTL_FIRE_HYDRANTS-000057"}},{"type":"Feature","id":"UTL_FIRE_HYDRANTS-000058","geometry":{"type":"Point","coordinates":[39.246973,21.497246]},"properties":{"hydrant_type":"Dry Barrel","status":"Planned","branch":"السليمانية","hydrant_id":"UTL_FIRE_HYDRANTS-000058"}},{"type":"Feature","id":"UTL_FIRE_HYDRANTS-000059","geometry":{"type":"Point","coordinates":[39.248092,21.49743]},"properties":{"hydrant_type":"Dry Barrel","status":"Planned","branch":"السليمانية","hydrant_id":"UTL_FIRE_HYDRANTS-000059"}},{"type":"Feature","id":"UTL_FIRE_HYDRANTS-000060","geometry":{"type":"Point","coordinates":[39.249361,21.497638]},"properties":{"status":"Planned","branch":"السليمانية","hydrant_id":"UTL_FIRE_HYDRANTS-000060"}},{"type":"Feature","id":"UTL_FIRE_HYDRANTS-000061","geometry":{"type":"Point","coordinates":[39.2494,21.4987]},"properties":{"hydrant_type":"Dry Barrel","status":"Planned","branch":"السليمانية","hydrant_id":"UTL_FIRE_HYDRANTS-000061"}},{"type":"Feature","id":"UTL_FIRE_HYDRANTS-000062","geometry":{"type":"Point","coordinates":[39.249066,21.499543]},"properties":{"hydrant_type":"Dry Barrel","status":"Planned","branch":"السليمانية","hydrant_id":"UTL_FIRE_HYDRANTS-000062"}},{"type":"Feature","id":"UTL_FIRE_HYDRANTS-000063","geometry":{"type":"Point","coordinates":[39.2504,21.497973]},"properties":{"hydrant_type":"Dry Barrel","status":"Planned","branch":"السليمانية","hydrant_id":"UTL_FIRE_HYDRANTS-000063"}},{"type":"Feature","id":"UTL_FIRE_HYDRANTS-000064","geometry":{"type":"Point","coordinates":[39.251612,21.498011]},"properties":{"hydrant_type":"Dry Barrel","status":"Planned","branch":"السليمانية","hydrant_id":"UTL_FIRE_HYDRANTS-000064"}},{"type":"Feature","id":"UTL_FIRE_HYDRANTS-000065","geometry":{"type":"Point","coordinates":[39.252757,21.498363]},"properties":{"hydrant_type":"Dry Barrel","status":"Planned","branch":"السليمانية","hydrant_id":"UTL_FIRE_HYDRANTS-000065"}},{"type":"Feature","id":"UTL_FIRE_HYDRANTS-000066","geometry":{"type":"Point","coordinates":[39.243939,21.496641]},"properties":{"hydrant_type":"Dry Barrel","status":"Planned","branch":"السليمانية","hydrant_id":"UTL_FIRE_HYDRANTS-000066"}},{"type":"Feature","id":"UTL_FIRE_HYDRANTS-000067","geometry":{"type":"Point","coordinates":[39.244116,21.495742]},"properties":{"hydrant_type":"Dry Barrel","status":"Planned","branch":"السليمانية","hydrant_id":"UTL_FIRE_HYDRANTS-000067"}},{"type":"Feature","id":"UTL_FIRE_HYDRANTS-000068","geometry":{"type":"Point","coordinates":[39.244102,21.494727]},"properties":{"status":"Planned","branch":"السليمانية","hydrant_id":"UTL_FIRE_HYDRANTS-000068"}},{"type":"Feature","id":"UTL_FIRE_HYDRANTS-000069","geometry":{"type":"Point","coordinates":[39.244751,21.498209]},"properties":{"status":"Planned","branch":"السليمانية","hydrant_id":"UTL_FIRE_HYDRANTS-000069"}},{"type":"Feature","id":"UTL_FIRE_HYDRANTS-000070","geometry":{"type":"Point","coordinates":[39.244554,21.484821]},"properties":{"status":"Planned","branch":"السليمانية","hydrant_id":"UTL_FIRE_HYDRANTS-000070"}},{"type":"Feature","id":"UTL_FIRE_HYDRANTS-000071","geometry":{"type":"Point","coordinates":[39.246212,21.485095]},"properties":{"status":"Planned","branch":"السليمانية","hydrant_id":"UTL_FIRE_HYDRANTS-000071"}},{"type":"Feature","id":"UTL_FIRE_HYDRANTS-000072","geometry":{"type":"Point","coordinates":[39.243779,21.489469]},"properties":{"status":"Planned","branch":"السليمانية","hydrant_id":"UTL_FIRE_HYDRANTS-000072"}},{"type":"Feature","id":"UTL_FIRE_HYDRANTS-000073","geometry":{"type":"Point","coordinates":[39.243784,21.489441]},"properties":{"status":"Planned","branch":"السليمانية","hydrant_id":"UTL_FIRE_HYDRANTS-000073"}},{"type":"Feature","id":"UTL_FIRE_HYDRANTS-000074","geometry":{"type":"Point","coordinates":[39.243925,21.487512]},"properties":{"status":"Planned","branch":"السليمانية","hydrant_id":"UTL_FIRE_HYDRANTS-000074"}},{"type":"Feature","id":"UTL_FIRE_HYDRANTS-000075","geometry":{"type":"Point","coordinates":[39.24587,21.486]},"properties":{"status":"Planned","branch":"السليمانية","hydrant_id":"UTL_FIRE_HYDRANTS-000075"}},{"type":"Feature","id":"UTL_FIRE_HYDRANTS-000076","geometry":{"type":"Point","coordinates":[39.251131,21.485934]},"properties":{"status":"Planned","branch":"السليمانية","hydrant_id":"UTL_FIRE_HYDRANTS-000076"}},{"type":"Feature","id":"UTL_FIRE_HYDRANTS-000077","geometry":{"type":"Point","coordinates":[39.25109,21.488808]},"properties":{"status":"Planned","branch":"السليمانية","hydrant_id":"UTL_FIRE_HYDRANTS-000077"}},{"type":"Feature","id":"UTL_FIRE_HYDRANTS-000078","geometry":{"type":"Point","coordinates":[39.249097,21.487652]},"properties":{"status":"Planned","branch":"السليمانية","hydrant_id":"UTL_FIRE_HYDRANTS-000078"}},{"type":"Feature","id":"UTL_FIRE_HYDRANTS-000079","geometry":{"type":"Point","coordinates":[39.248949,21.488749]},"properties":{"status":"Planned","branch":"السليمانية","hydrant_id":"UTL_FIRE_HYDRANTS-000079"}},{"type":"Feature","id":"UTL_FIRE_HYDRANTS-000080","geometry":{"type":"Point","coordinates":[39.250741,21.489684]},"properties":{"status":"Planned","branch":"السليمانية","hydrant_id":"UTL_FIRE_HYDRANTS-000080"}},{"type":"Feature","id":"UTL_FIRE_HYDRANTS-000081","geometry":{"type":"Point","coordinates":[39.249213,21.488674]},"properties":{"status":"Planned","branch":"السليمانية","hydrant_id":"UTL_FIRE_HYDRANTS-000081"}},{"type":"Feature","id":"UTL_FIRE_HYDRANTS-000082","geometry":{"type":"Point","coordinates":[39.248999,21.489643]},"properties":{"status":"Planned","branch":"السليمانية","hydrant_id":"UTL_FIRE_HYDRANTS-000082"}},{"type":"Feature","id":"UTL_FIRE_HYDRANTS-000083","geometry":{"type":"Point","coordinates":[39.245434,21.489746]},"properties":{"status":"Planned","branch":"السليمانية","hydrant_id":"UTL_FIRE_HYDRANTS-000083"}},{"type":"Feature","id":"UTL_FIRE_HYDRANTS-000084","geometry":{"type":"Point","coordinates":[39.254095,21.492956]},"properties":{"hydrant_type":"Dry Barrel","status":"Planned","branch":"السليمانية","hydrant_id":"UTL_FIRE_HYDRANTS-000084"}},{"type":"Feature","id":"UTL_FIRE_HYDRANTS-000085","geometry":{"type":"Point","coordinates":[39.24852,21.490261]},"properties":{"status":"Planned","branch":"السليمانية","hydrant_id":"UTL_FIRE_HYDRANTS-000085"}},{"type":"Feature","id":"UTL_FIRE_HYDRANTS-000086","geometry":{"type":"Point","coordinates":[39.238261,21.497191]},"properties":{"status":"Planned","branch":"السليمانية","hydrant_id":"UTL_FIRE_HYDRANTS-000086"}},{"type":"Feature","id":"UTL_FIRE_HYDRANTS-000087","geometry":{"type":"Point","coordinates":[39.244952,21.499516]},"properties":{"hydrant_type":"Dry Barrel","status":"Planned","branch":"السليمانية","hydrant_id":"UTL_FIRE_HYDRANTS-000087"}},{"type":"Feature","id":"UTL_FIRE_HYDRANTS-000088","geometry":{"type":"Point","coordinates":[39.246014,21.499667]},"properties":{"hydrant_type":"Dry Barrel","status":"Planned","branch":"السليمانية","hydrant_id":"UTL_FIRE_HYDRANTS-000088"}},{"type":"Feature","id":"UTL_FIRE_HYDRANTS-000089","geometry":{"type":"Point","coordinates":[39.246728,21.500229]},"properties":{"hydrant_type":"Dry Barrel","status":"Planned","branch":"السليمانية","hydrant_id":"UTL_FIRE_HYDRANTS-000089"}},{"type":"Feature","id":"UTL_FIRE_HYDRANTS-000090","geometry":{"type":"Point","coordinates":[39.246753,21.50067]},"properties":{"hydrant_type":"Dry Barrel","status":"Planned","branch":"السليمانية","hydrant_id":"UTL_FIRE_HYDRANTS-000090"}},{"type":"Feature","id":"UTL_FIRE_HYDRANTS-000091","geometry":{"type":"Point","coordinates":[39.246505,21.501287]},"properties":{"hydrant_type":"Dry Barrel","status":"Planned","branch":"السليمانية","hydrant_id":"UTL_FIRE_HYDRANTS-000091"}},{"type":"Feature","id":"UTL_FIRE_HYDRANTS-000092","geometry":{"type":"Point","coordinates":[39.24601,21.501552]},"properties":{"hydrant_type":"Dry Barrel","status":"Planned","branch":"السليمانية","hydrant_id":"UTL_FIRE_HYDRANTS-000092"}},{"type":"Feature","id":"UTL_FIRE_HYDRANTS-000093","geometry":{"type":"Point","coordinates":[39.244468,21.501267]},"properties":{"hydrant_type":"Dry Barrel","status":"Planned","branch":"السليمانية","hydrant_id":"UTL_FIRE_HYDRANTS-000093"}},{"type":"Feature","id":"UTL_FIRE_HYDRANTS-000094","geometry":{"type":"Point","coordinates":[39.24391,21.50097]},"properties":{"hydrant_type":"Dry Barrel","status":"Planned","branch":"السليمانية","hydrant_id":"UTL_FIRE_HYDRANTS-000094"}},{"type":"Feature","id":"UTL_FIRE_HYDRANTS-000095","geometry":{"type":"Point","coordinates":[39.2433,21.500997]},"properties":{"hydrant_type":"Dry Barrel","status":"Planned","branch":"السليمانية","hydrant_id":"UTL_FIRE_HYDRANTS-000095"}},{"type":"Feature","id":"UTL_FIRE_HYDRANTS-000096","geometry":{"type":"Point","coordinates":[39.243857,21.500266]},"properties":{"hydrant_type":"Dry Barrel","status":"Planned","branch":"السليمانية","hydrant_id":"UTL_FIRE_HYDRANTS-000096"}},{"type":"Feature","id":"UTL_FIRE_HYDRANTS-000097","geometry":{"type":"Point","coordinates":[39.243269,21.500195]},"properties":{"hydrant_type":"Dry Barrel","status":"Planned","branch":"السليمانية","hydrant_id":"UTL_FIRE_HYDRANTS-000097"}},{"type":"Feature","id":"UTL_FIRE_HYDRANTS-000098","geometry":{"type":"Point","coordinates":[39.244196,21.499608]},"properties":{"hydrant_type":"Dry Barrel","status":"Planned","branch":"السليمانية","hydrant_id":"UTL_FIRE_HYDRANTS-000098"}},{"type":"Feature","id":"UTL_FIRE_HYDRANTS-000099","geometry":{"type":"Point","coordinates":[39.243595,21.499424]},"properties":{"hydrant_type":"Dry Barrel","status":"Planned","branch":"السليمانية","hydrant_id":"UTL_FIRE_HYDRANTS-000099"}},{"type":"Feature","id":"UTL_FIRE_HYDRANTS-000100","geometry":{"type":"Point","coordinates":[39.247093,21.491635]},"properties":{"hydrant_type":"Dry Barrel","status":"Planned","branch":"السليمانية","hydrant_id":"UTL_FIRE_HYDRANTS-000100"}},{"type":"Feature","id":"UTL_FIRE_HYDRANTS-000101","geometry":{"type":"Point","coordinates":[39.24727,21.50098]},"properties":{"hydrant_type":"Dry Barrel","status":"Planned","branch":"السليمانية","hydrant_id":"UTL_FIRE_HYDRANTS-000101"}},{"type":"Feature","id":"UTL_FIRE_HYDRANTS-000102","geometry":{"type":"Point","coordinates":[39.249554,21.48855]},"properties":{"status":"Planned","branch":"السليمانية","hydrant_id":"UTL_FIRE_HYDRANTS-000102"}},{"type":"Feature","id":"UTL_FIRE_HYDRANTS-000103","geometry":{"type":"Point","coordinates":[39.234375,21.494839]},"properties":{"status":"Planned","branch":"السليمانية","hydrant_id":"UTL_FIRE_HYDRANTS-000103"}},{"type":"Feature","id":"UTL_FIRE_HYDRANTS-000104","geometry":{"type":"Point","coordinates":[39.233223,21.494982]},"properties":{"status":"Planned","branch":"السليمانية","hydrant_id":"UTL_FIRE_HYDRANTS-000104"}},{"type":"Feature","id":"UTL_FIRE_HYDRANTS-000105","geometry":{"type":"Point","coordinates":[39.233824,21.495379]},"properties":{"status":"Planned","branch":"السليمانية","hydrant_id":"UTL_FIRE_HYDRANTS-000105"}},{"type":"Feature","id":"UTL_FIRE_HYDRANTS-000106","geometry":{"type":"Point","coordinates":[39.233835,21.495448]},"properties":{"status":"Planned","branch":"السليمانية","hydrant_id":"UTL_FIRE_HYDRANTS-000106"}},{"type":"Feature","id":"UTL_FIRE_HYDRANTS-000107","geometry":{"type":"Point","coordinates":[39.233839,21.495471]},"properties":{"status":"Planned","branch":"السليمانية","hydrant_id":"UTL_FIRE_HYDRANTS-000107"}},{"type":"Feature","id":"UTL_FIRE_HYDRANTS-000108","geometry":{"type":"Point","coordinates":[39.233911,21.496035]},"properties":{"status":"Planned","branch":"السليمانية","hydrant_id":"UTL_FIRE_HYDRANTS-000108"}},{"type":"Feature","id":"UTL_FIRE_HYDRANTS-000109","geometry":{"type":"Point","coordinates":[39.233778,21.499947]},"properties":{"status":"Planned","branch":"السليمانية","hydrant_id":"UTL_FIRE_HYDRANTS-000109"}},{"type":"Feature","id":"UTL_FIRE_HYDRANTS-000110","geometry":{"type":"Point","coordinates":[39.234584,21.499027]},"properties":{"status":"Planned","branch":"السليمانية","hydrant_id":"UTL_FIRE_HYDRANTS-000110"}},{"type":"Feature","id":"UTL_FIRE_HYDRANTS-000111","geometry":{"type":"Point","coordinates":[39.239583,21.499464]},"properties":{"status":"Planned","branch":"السليمانية","hydrant_id":"UTL_FIRE_HYDRANTS-000111"}},{"type":"Feature","id":"UTL_FIRE_HYDRANTS-000112","geometry":{"type":"Point","coordinates":[39.239523,21.496168]},"properties":{"status":"Planned","branch":"السليمانية","hydrant_id":"UTL_FIRE_HYDRANTS-000112"}},{"type":"Feature","id":"UTL_FIRE_HYDRANTS-000113","geometry":{"type":"Point","coordinates":[39.239529,21.49484]},"properties":{"status":"Planned","branch":"السليمانية","hydrant_id":"UTL_FIRE_HYDRANTS-000113"}},{"type":"Feature","id":"UTL_FIRE_HYDRANTS-000114","geometry":{"type":"Point","coordinates":[39.257754,21.492198]},"properties":{"status":"Planned","branch":"السليمانية","hydrant_id":"UTL_FIRE_HYDRANTS-000114"}},{"type":"Feature","id":"UTL_FIRE_HYDRANTS-000115","geometry":{"type":"Point","coordinates":[39.259099,21.490543]},"properties":{"status":"Planned","branch":"السليمانية","hydrant_id":"UTL_FIRE_HYDRANTS-000115"}},{"type":"Feature","id":"UTL_FIRE_HYDRANTS-000116","geometry":{"type":"Point","coordinates":[39.259644,21.489859]},"properties":{"status":"Planned","branch":"السليمانية","hydrant_id":"UTL_FIRE_HYDRANTS-000116"}},{"type":"Feature","id":"UTL_FIRE_HYDRANTS-000117","geometry":{"type":"Point","coordinates":[39.258904,21.488767]},"properties":{"status":"Planned","branch":"السليمانية","hydrant_id":"UTL_FIRE_HYDRANTS-000117"}},{"type":"Feature","id":"UTL_FIRE_HYDRANTS-000118","geometry":{"type":"Point","coordinates":[39.258462,21.489726]},"properties":{"status":"Planned","branch":"السليمانية","hydrant_id":"UTL_FIRE_HYDRANTS-000118"}},{"type":"Feature","id":"UTL_FIRE_HYDRANTS-000119","geometry":{"type":"Point","coordinates":[39.257239,21.487236]},"properties":{"status":"Planned","branch":"السليمانية","hydrant_id":"UTL_FIRE_HYDRANTS-000119"}},{"type":"Feature","id":"UTL_FIRE_HYDRANTS-000120","geometry":{"type":"Point","coordinates":[39.25638,21.48827]},"properties":{"status":"Planned","branch":"السليمانية","hydrant_id":"UTL_FIRE_HYDRANTS-000120"}},{"type":"Feature","id":"UTL_FIRE_HYDRANTS-000121","geometry":{"type":"Point","coordinates":[39.257519,21.488906]},"properties":{"status":"Planned","branch":"السليمانية","hydrant_id":"UTL_FIRE_HYDRANTS-000121"}},{"type":"Feature","id":"UTL_FIRE_HYDRANTS-000122","geometry":{"type":"Point","coordinates":[39.254429,21.489096]},"properties":{"status":"Planned","branch":"السليمانية","hydrant_id":"UTL_FIRE_HYDRANTS-000122"}},{"type":"Feature","id":"UTL_FIRE_HYDRANTS-000123","geometry":{"type":"Point","coordinates":[39.255018,21.488193]},"properties":{"status":"Planned","branch":"السليمانية","hydrant_id":"UTL_FIRE_HYDRANTS-000123"}},{"type":"Feature","id":"UTL_FIRE_HYDRANTS-000124","geometry":{"type":"Point","coordinates":[39.253724,21.488583]},"properties":{"status":"Planned","branch":"السليمانية","hydrant_id":"UTL_FIRE_HYDRANTS-000124"}},{"type":"Feature","id":"UTL_FIRE_HYDRANTS-000125","geometry":{"type":"Point","coordinates":[39.253702,21.490048]},"properties":{"status":"Planned","branch":"السليمانية","hydrant_id":"UTL_FIRE_HYDRANTS-000125"}},{"type":"Feature","id":"UTL_FIRE_HYDRANTS-000126","geometry":{"type":"Point","coordinates":[39.254265,21.490534]},"properties":{"status":"Planned","branch":"السليمانية","hydrant_id":"UTL_FIRE_HYDRANTS-000126"}},{"type":"Feature","id":"UTL_FIRE_HYDRANTS-000127","geometry":{"type":"Point","coordinates":[39.255958,21.490393]},"properties":{"status":"Planned","branch":"السليمانية","hydrant_id":"UTL_FIRE_HYDRANTS-000127"}},{"type":"Feature","id":"UTL_FIRE_HYDRANTS-000128","geometry":{"type":"Point","coordinates":[39.183185,21.577015]},"properties":{"hydrant_type":"Wet Barrel","status":"Planned","description":"FIRE-HYDRANT","branch":"الفيصلية","hydrant_id":"UTL_FIRE_HYDRANTS-000128"}},{"type":"Feature","id":"UTL_FIRE_HYDRANTS-000129","geometry":{"type":"Point","coordinates":[39.181246,21.577814]},"properties":{"hydrant_type":"Wet Barrel","status":"Planned","description":"FIRE-HYDRANT","branch":"الفيصلية","hydrant_id":"UTL_FIRE_HYDRANTS-000129"}},{"type":"Feature","id":"UTL_FIRE_HYDRANTS-000130","geometry":{"type":"Point","coordinates":[39.180982,21.578674]},"properties":{"hydrant_type":"Wet Barrel","status":"Planned","description":"FIRE-HYDRANT","branch":"الفيصلية","hydrant_id":"UTL_FIRE_HYDRANTS-000130"}},{"type":"Feature","id":"UTL_FIRE_HYDRANTS-000131","geometry":{"type":"Point","coordinates":[39.18275,21.576899]},"properties":{"hydrant_type":"Wet Barrel","status":"Planned","description":"FIRE-HYDRANT","branch":"الفيصلية","hydrant_id":"UTL_FIRE_HYDRANTS-000131"}},{"type":"Feature","id":"UTL_FIRE_HYDRANTS-000132","geometry":{"type":"Point","coordinates":[39.182284,21.576775]},"properties":{"hydrant_type":"Wet Barrel","status":"Planned","description":"FIRE-HYDRANT","branch":"الفيصلية","hydrant_id":"UTL_FIRE_HYDRANTS-000132"}},{"type":"Feature","id":"UTL_FIRE_HYDRANTS-000133","geometry":{"type":"Point","coordinates":[39.18076,21.579415]},"properties":{"hydrant_type":"Wet Barrel","status":"Planned","description":"FIRE-HYDRANT","branch":"الفيصلية","hydrant_id":"UTL_FIRE_HYDRANTS-000133"}},{"type":"Feature","id":"UTL_FIRE_HYDRANTS-000134","geometry":{"type":"Point","coordinates":[39.180496,21.580275]},"properties":{"hydrant_type":"Wet Barrel","status":"Planned","description":"FIRE-HYDRANT","branch":"الفيصلية","hydrant_id":"UTL_FIRE_HYDRANTS-000134"}},{"type":"Feature","id":"UTL_FIRE_HYDRANTS-000135","geometry":{"type":"Point","coordinates":[39.181266,21.577748]},"properties":{"hydrant_type":"Wet Barrel","status":"Planned","description":"FIRE-HYDRANT","branch":"الفيصلية","hydrant_id":"UTL_FIRE_HYDRANTS-000135"}},{"type":"Feature","id":"UTL_FIRE_HYDRANTS-000136","geometry":{"type":"Point","coordinates":[39.183208,21.576982]},"properties":{"hydrant_type":"Wet Barrel","status":"Planned","description":"FIRE-HYDRANT","branch":"الفيصلية","hydrant_id":"UTL_FIRE_HYDRANTS-000136"}},{"type":"Feature","id":"UTL_FIRE_HYDRANTS-000137","geometry":{"type":"Point","coordinates":[39.181195,21.57803]},"properties":{"hydrant_type":"Wet Barrel","status":"Planned","description":"FIRE-HYDRANT","branch":"الفيصلية","hydrant_id":"UTL_FIRE_HYDRANTS-000137"}},{"type":"Feature","id":"UTL_FIRE_HYDRANTS-000138","geometry":{"type":"Point","coordinates":[39.180974,21.578716]},"properties":{"hydrant_type":"Wet Barrel","status":"Planned","description":"FIRE-HYDRANT","branch":"الفيصلية","hydrant_id":"UTL_FIRE_HYDRANTS-000138"}},{"type":"Feature","id":"UTL_FIRE_HYDRANTS-000139","geometry":{"type":"Point","coordinates":[39.180977,21.578883]},"properties":{"hydrant_type":"Wet Barrel","status":"Planned","description":"FIRE-HYDRANT","branch":"الفيصلية","hydrant_id":"UTL_FIRE_HYDRANTS-000139"}},{"type":"Feature","id":"UTL_FIRE_HYDRANTS-000140","geometry":{"type":"Point","coordinates":[39.181637,21.578328]},"properties":{"hydrant_type":"Wet Barrel","status":"Planned","description":"FIRE-HYDRANT","branch":"الفيصلية","hydrant_id":"UTL_FIRE_HYDRANTS-000140"}},{"type":"Feature","id":"UTL_FIRE_HYDRANTS-000141","geometry":{"type":"Point","coordinates":[39.181598,21.57849]},"properties":{"hydrant_type":"Wet Barrel","status":"Planned","description":"FIRE-HYDRANT","branch":"الفيصلية","hydrant_id":"UTL_FIRE_HYDRANTS-000141"}},{"type":"Feature","id":"UTL_FIRE_HYDRANTS-000142","geometry":{"type":"Point","coordinates":[39.180839,21.57938]},"properties":{"hydrant_type":"Wet Barrel","status":"Planned","description":"FIRE-HYDRANT","branch":"الفيصلية","hydrant_id":"UTL_FIRE_HYDRANTS-000142"}},{"type":"Feature","id":"UTL_FIRE_HYDRANTS-000143","geometry":{"type":"Point","coordinates":[39.181648,21.576528]},"properties":{"hydrant_type":"Wet Barrel","status":"Planned","description":"FIRE-HYDRANT","branch":"الفيصلية","hydrant_id":"UTL_FIRE_HYDRANTS-000143"}},{"type":"Feature","id":"UTL_FIRE_HYDRANTS-000144","geometry":{"type":"Point","coordinates":[39.181672,21.576492]},"properties":{"hydrant_type":"Wet Barrel","status":"Planned","description":"FIRE-HYDRANT","branch":"الفيصلية","hydrant_id":"UTL_FIRE_HYDRANTS-000144"}},{"type":"Feature","id":"UTL_FIRE_HYDRANTS-000145","geometry":{"type":"Point","coordinates":[39.181347,21.576463]},"properties":{"hydrant_type":"Wet Barrel","status":"Planned","description":"FIRE-HYDRANT","branch":"الفيصلية","hydrant_id":"UTL_FIRE_HYDRANTS-000145"}},{"type":"Feature","id":"UTL_FIRE_HYDRANTS-000146","geometry":{"type":"Point","coordinates":[39.181373,21.576427]},"properties":{"hydrant_type":"Wet Barrel","status":"Planned","description":"FIRE-HYDRANT","branch":"الفيصلية","hydrant_id":"UTL_FIRE_HYDRANTS-000146"}},{"type":"Feature","id":"UTL_FIRE_HYDRANTS-000147","geometry":{"type":"Point","coordinates":[39.180771,21.579343]},"properties":{"hydrant_type":"Wet Barrel","status":"Planned","description":"FIRE-HYDRANT","branch":"الفيصلية","hydrant_id":"UTL_FIRE_HYDRANTS-000147"}},{"type":"Feature","id":"UTL_FIRE_HYDRANTS-000148","geometry":{"type":"Point","coordinates":[39.180486,21.580317]},"properties":{"hydrant_type":"Wet Barrel","status":"Planned","description":"FIRE-HYDRANT","branch":"الفيصلية","hydrant_id":"UTL_FIRE_HYDRANTS-000148"}},{"type":"Feature","id":"UTL_FIRE_HYDRANTS-000149","geometry":{"type":"Point","coordinates":[39.180493,21.580441]},"properties":{"hydrant_type":"Wet Barrel","status":"Planned","description":"FIRE-HYDRANT","branch":"الفيصلية","hydrant_id":"UTL_FIRE_HYDRANTS-000149"}},{"type":"Feature","id":"UTL_FIRE_HYDRANTS-000150","geometry":{"type":"Point","coordinates":[39.181152,21.579929]},"properties":{"hydrant_type":"Wet Barrel","status":"Planned","description":"FIRE-HYDRANT","branch":"الفيصلية","hydrant_id":"UTL_FIRE_HYDRANTS-000150"}},{"type":"Feature","id":"UTL_FIRE_HYDRANTS-000151","geometry":{"type":"Point","coordinates":[39.181541,21.581683]},"properties":{"hydrant_type":"Wet Barrel","status":"Planned","description":"FIRE-HYDRANT","branch":"الفيصلية","hydrant_id":"UTL_FIRE_HYDRANTS-000151"}},{"type":"Feature","id":"UTL_FIRE_HYDRANTS-000152","geometry":{"type":"Point","coordinates":[39.18157,21.581651]},"properties":{"hydrant_type":"Wet Barrel","status":"Planned","description":"FIRE-HYDRANT","branch":"الفيصلية","hydrant_id":"UTL_FIRE_HYDRANTS-000152"}},{"type":"Feature","id":"UTL_FIRE_HYDRANTS-000153","geometry":{"type":"Point","coordinates":[39.182175,21.576653]},"properties":{"hydrant_type":"Wet Barrel","status":"Planned","description":"FIRE-HYDRANT","branch":"الفيصلية","hydrant_id":"UTL_FIRE_HYDRANTS-000153"}},{"type":"Feature","id":"UTL_FIRE_HYDRANTS-000154","geometry":{"type":"Point","coordinates":[39.182199,21.576617]},"properties":{"hydrant_type":"Wet Barrel","status":"Planned","description":"FIRE-HYDRANT","branch":"الفيصلية","hydrant_id":"UTL_FIRE_HYDRANTS-000154"}},{"type":"Feature","id":"UTL_FIRE_HYDRANTS-000155","geometry":{"type":"Point","coordinates":[39.245406,21.492961]},"properties":{"hydrant_type":"Pillar","status":"Planned","branch":"السليمانية","hydrant_id":"UTL_FIRE_HYDRANTS-000155"}},{"type":"Feature","id":"UTL_FIRE_HYDRANTS-000156","geometry":{"type":"Point","coordinates":[39.244954,21.491709]},"properties":{"hydrant_type":"Pillar","status":"Planned","branch":"السليمانية","hydrant_id":"UTL_FIRE_HYDRANTS-000156"}},{"type":"Feature","id":"UTL_FIRE_HYDRANTS-000157","geometry":{"type":"Point","coordinates":[38.964941,22.787068]},"properties":{"hydrant_type":"Wet Barrel","status":"Planned","description":"FIRE HYDRANT","branch":"رابغ","hydrant_id":"UTL_FIRE_HYDRANTS-000157"}},{"type":"Feature","id":"UTL_FIRE_HYDRANTS-000158","geometry":{"type":"Point","coordinates":[38.964536,22.787508]},"properties":{"hydrant_type":"Wet Barrel","status":"Planned","description":"FIRE HYDRANT","branch":"رابغ","hydrant_id":"UTL_FIRE_HYDRANTS-000158"}},{"type":"Feature","id":"UTL_FIRE_HYDRANTS-000159","geometry":{"type":"Point","coordinates":[38.965759,22.78763]},"properties":{"hydrant_type":"Wet Barrel","status":"Planned","description":"FIRE HYDRANT","branch":"رابغ","hydrant_id":"UTL_FIRE_HYDRANTS-000159"}},{"type":"Feature","id":"UTL_FIRE_HYDRANTS-000160","geometry":{"type":"Point","coordinates":[38.964354,22.787875]},"properties":{"hydrant_type":"Wet Barrel","status":"Planned","description":"FIRE HYDRANT","branch":"رابغ","hydrant_id":"UTL_FIRE_HYDRANTS-000160"}},{"type":"Feature","id":"UTL_FIRE_HYDRANTS-000161","geometry":{"type":"Point","coordinates":[38.964087,22.787967]},"properties":{"hydrant_type":"Wet Barrel","status":"Planned","description":"FIRE HYDRANT","branch":"رابغ","hydrant_id":"UTL_FIRE_HYDRANTS-000161"}},{"type":"Feature","id":"UTL_FIRE_HYDRANTS-000162","geometry":{"type":"Point","coordinates":[38.966158,22.7882]},"properties":{"hydrant_type":"Wet Barrel","status":"Planned","description":"FIRE HYDRANT","branch":"رابغ","hydrant_id":"UTL_FIRE_HYDRANTS-000162"}},{"type":"Feature","id":"UTL_FIRE_HYDRANTS-000163","geometry":{"type":"Point","coordinates":[38.965357,22.788256]},"properties":{"hydrant_type":"Wet Barrel","status":"Planned","description":"FIRE HYDRANT","branch":"رابغ","hydrant_id":"UTL_FIRE_HYDRANTS-000163"}},{"type":"Feature","id":"UTL_FIRE_HYDRANTS-000164","geometry":{"type":"Point","coordinates":[38.963842,22.788462]},"properties":{"hydrant_type":"Wet Barrel","status":"Planned","description":"FIRE HYDRANT","branch":"رابغ","hydrant_id":"UTL_FIRE_HYDRANTS-000164"}},{"type":"Feature","id":"UTL_FIRE_HYDRANTS-000165","geometry":{"type":"Point","coordinates":[38.965766,22.788617]},"properties":{"hydrant_type":"Wet Barrel","status":"Planned","description":"FIRE HYDRANT","branch":"رابغ","hydrant_id":"UTL_FIRE_HYDRANTS-000165"}},{"type":"Feature","id":"UTL_FIRE_HYDRANTS-000166","geometry":{"type":"Point","coordinates":[38.965093,22.78877]},"properties":{"hydrant_type":"Wet Barrel","status":"Planned","description":"FIRE HYDRANT","branch":"رابغ","hydrant_id":"UTL_FIRE_HYDRANTS-000166"}},{"type":"Feature","id":"UTL_FIRE_HYDRANTS-000167","geometry":{"type":"Point","coordinates":[38.965661,22.78883]},"properties":{"hydrant_type":"Wet Barrel","status":"Planned","description":"FIRE HYDRANT","branch":"رابغ","hydrant_id":"UTL_FIRE_HYDRANTS-000167"}},{"type":"Feature","id":"UTL_FIRE_HYDRANTS-000168","geometry":{"type":"Point","coordinates":[38.964784,22.788896]},"properties":{"hydrant_type":"Wet Barrel","status":"Planned","description":"FIRE HYDRANT","branch":"رابغ","hydrant_id":"UTL_FIRE_HYDRANTS-000168"}},{"type":"Feature","id":"UTL_FIRE_HYDRANTS-000169","geometry":{"type":"Point","coordinates":[38.963483,22.789186]},"properties":{"hydrant_type":"Wet Barrel","status":"Planned","description":"FIRE HYDRANT","branch":"رابغ","hydrant_id":"UTL_FIRE_HYDRANTS-000169"}},{"type":"Feature","id":"UTL_FIRE_HYDRANTS-000170","geometry":{"type":"Point","coordinates":[38.964206,22.789292]},"properties":{"hydrant_type":"Wet Barrel","status":"Planned","description":"FIRE HYDRANT","branch":"رابغ","hydrant_id":"UTL_FIRE_HYDRANTS-000170"}},{"type":"Feature","id":"UTL_FIRE_HYDRANTS-000171","geometry":{"type":"Point","coordinates":[38.965483,22.789304]},"properties":{"hydrant_type":"Wet Barrel","status":"Planned","description":"FIRE HYDRANT","branch":"رابغ","hydrant_id":"UTL_FIRE_HYDRANTS-000171"}},{"type":"Feature","id":"UTL_FIRE_HYDRANTS-000172","geometry":{"type":"Point","coordinates":[38.964944,22.789573]},"properties":{"hydrant_type":"Wet Barrel","status":"Planned","description":"FIRE HYDRANT","branch":"رابغ","hydrant_id":"UTL_FIRE_HYDRANTS-000172"}},{"type":"Feature","id":"UTL_FIRE_HYDRANTS-000173","geometry":{"type":"Point","coordinates":[38.964338,22.789588]},"properties":{"hydrant_type":"Wet Barrel","status":"Planned","description":"FIRE HYDRANT","branch":"رابغ","hydrant_id":"UTL_FIRE_HYDRANTS-000173"}},{"type":"Feature","id":"UTL_FIRE_HYDRANTS-000174","geometry":{"type":"Point","coordinates":[38.963464,22.789599]},"properties":{"hydrant_type":"Wet Barrel","status":"Planned","description":"FIRE HYDRANT","branch":"رابغ","hydrant_id":"UTL_FIRE_HYDRANTS-000174"}},{"type":"Feature","id":"UTL_FIRE_HYDRANTS-000175","geometry":{"type":"Point","coordinates":[38.964794,22.789786]},"properties":{"hydrant_type":"Wet Barrel","status":"Planned","description":"FIRE HYDRANT","branch":"رابغ","hydrant_id":"UTL_FIRE_HYDRANTS-000175"}},{"type":"Feature","id":"UTL_FIRE_HYDRANTS-000176","geometry":{"type":"Point","coordinates":[38.963666,22.789853]},"properties":{"hydrant_type":"Wet Barrel","status":"Planned","description":"FIRE HYDRANT","branch":"رابغ","hydrant_id":"UTL_FIRE_HYDRANTS-000176"}},{"type":"Feature","id":"UTL_FIRE_HYDRANTS-000177","geometry":{"type":"Point","coordinates":[38.96436,22.790141]},"properties":{"hydrant_type":"Wet Barrel","status":"Planned","description":"FIRE HYDRANT","branch":"رابغ","hydrant_id":"UTL_FIRE_HYDRANTS-000177"}},{"type":"Feature","id":"UTL_FIRE_HYDRANTS-000178","geometry":{"type":"Point","coordinates":[39.246007,21.501553]},"properties":{"status":"Planned","description":"FIRE HYDRANT","branch":"السليمانية","hydrant_id":"UTL_FIRE_HYDRANTS-000178"}},{"type":"Feature","id":"UTL_FIRE_HYDRANTS-000179","geometry":{"type":"Point","coordinates":[39.246503,21.50129]},"properties":{"status":"Planned","description":"FIRE HYDRANT","branch":"السليمانية","hydrant_id":"UTL_FIRE_HYDRANTS-000179"}},{"type":"Feature","id":"UTL_FIRE_HYDRANTS-000180","geometry":{"type":"Point","coordinates":[39.246753,21.500674]},"properties":{"status":"Planned","description":"FIRE HYDRANT","branch":"السليمانية","hydrant_id":"UTL_FIRE_HYDRANTS-000180"}},{"type":"Feature","id":"UTL_FIRE_HYDRANTS-000181","geometry":{"type":"Point","coordinates":[39.24673,21.500232]},"properties":{"status":"Planned","description":"FIRE HYDRANT","branch":"السليمانية","hydrant_id":"UTL_FIRE_HYDRANTS-000181"}},{"type":"Feature","id":"UTL_FIRE_HYDRANTS-000182","geometry":{"type":"Point","coordinates":[39.246019,21.499666]},"properties":{"status":"Planned","description":"FIRE HYDRANT","branch":"السليمانية","hydrant_id":"UTL_FIRE_HYDRANTS-000182"}},{"type":"Feature","id":"UTL_FIRE_HYDRANTS-000183","geometry":{"type":"Point","coordinates":[39.247268,21.500982]},"properties":{"status":"Planned","description":"FIRE HYDRANT","branch":"السليمانية","hydrant_id":"UTL_FIRE_HYDRANTS-000183"}},{"type":"Feature","id":"UTL_FIRE_HYDRANTS-000184","geometry":{"type":"Point","coordinates":[39.181648,21.576528]},"properties":{"hydrant_type":"Wet Barrel","status":"Planned","description":"FIRE-HYDRANT","branch":"الفيصلية","hydrant_id":"UTL_FIRE_HYDRANTS-000184"}},{"type":"Feature","id":"UTL_FIRE_HYDRANTS-000185","geometry":{"type":"Point","coordinates":[39.181672,21.576492]},"properties":{"hydrant_type":"Wet Barrel","status":"Planned","description":"FIRE-HYDRANT","branch":"الفيصلية","hydrant_id":"UTL_FIRE_HYDRANTS-000185"}},{"type":"Feature","id":"UTL_FIRE_HYDRANTS-000186","geometry":{"type":"Point","coordinates":[39.182199,21.576617]},"properties":{"hydrant_type":"Wet Barrel","status":"Planned","description":"FIRE-HYDRANT","branch":"الفيصلية","hydrant_id":"UTL_FIRE_HYDRANTS-000186"}},{"type":"Feature","id":"UTL_FIRE_HYDRANTS-000187","geometry":{"type":"Point","coordinates":[39.181266,21.577748]},"properties":{"hydrant_type":"Wet Barrel","status":"Planned","description":"FIRE-HYDRANT","branch":"الفيصلية","hydrant_id":"UTL_FIRE_HYDRANTS-000187"}},{"type":"Feature","id":"UTL_FIRE_HYDRANTS-000188","geometry":{"type":"Point","coordinates":[39.181598,21.57849]},"properties":{"hydrant_type":"Wet Barrel","status":"Planned","description":"FIRE-HYDRANT","branch":"الفيصلية","hydrant_id":"UTL_FIRE_HYDRANTS-000188"}},{"type":"Feature","id":"UTL_FIRE_HYDRANTS-000189","geometry":{"type":"Point","coordinates":[39.181373,21.576427]},"properties":{"hydrant_type":"Wet Barrel","status":"Planned","description":"FIRE-HYDRANT","branch":"الفيصلية","hydrant_id":"UTL_FIRE_HYDRANTS-000189"}},{"type":"Feature","id":"UTL_FIRE_HYDRANTS-000190","geometry":{"type":"Point","coordinates":[39.18076,21.579415]},"properties":{"hydrant_type":"Wet Barrel","status":"Planned","description":"FIRE-HYDRANT","branch":"الفيصلية","hydrant_id":"UTL_FIRE_HYDRANTS-000190"}},{"type":"Feature","id":"UTL_FIRE_HYDRANTS-000191","geometry":{"type":"Point","coordinates":[39.181195,21.57803]},"properties":{"hydrant_type":"Wet Barrel","status":"Planned","description":"FIRE-HYDRANT","branch":"الفيصلية","hydrant_id":"UTL_FIRE_HYDRANTS-000191"}},{"type":"Feature","id":"UTL_FIRE_HYDRANTS-000192","geometry":{"type":"Point","coordinates":[39.180486,21.580317]},"properties":{"hydrant_type":"Wet Barrel","status":"Planned","description":"FIRE-HYDRANT","branch":"الفيصلية","hydrant_id":"UTL_FIRE_HYDRANTS-000192"}},{"type":"Feature","id":"UTL_FIRE_HYDRANTS-000193","geometry":{"type":"Point","coordinates":[39.182175,21.576653]},"properties":{"hydrant_type":"Wet Barrel","status":"Planned","description":"FIRE-HYDRANT","branch":"الفيصلية","hydrant_id":"UTL_FIRE_HYDRANTS-000193"}},{"type":"Feature","id":"UTL_FIRE_HYDRANTS-000194","geometry":{"type":"Point","coordinates":[39.180982,21.578674]},"properties":{"hydrant_type":"Wet Barrel","status":"Planned","description":"FIRE-HYDRANT","branch":"الفيصلية","hydrant_id":"UTL_FIRE_HYDRANTS-000194"}},{"type":"Feature","id":"UTL_FIRE_HYDRANTS-000195","geometry":{"type":"Point","coordinates":[39.181637,21.578328]},"properties":{"hydrant_type":"Wet Barrel","status":"Planned","description":"FIRE-HYDRANT","branch":"الفيصلية","hydrant_id":"UTL_FIRE_HYDRANTS-000195"}},{"type":"Feature","id":"UTL_FIRE_HYDRANTS-000196","geometry":{"type":"Point","coordinates":[39.18157,21.581651]},"properties":{"hydrant_type":"Wet Barrel","status":"Planned","description":"FIRE-HYDRANT","branch":"الفيصلية","hydrant_id":"UTL_FIRE_HYDRANTS-000196"}},{"type":"Feature","id":"UTL_FIRE_HYDRANTS-000197","geometry":{"type":"Point","coordinates":[39.183208,21.576982]},"properties":{"hydrant_type":"Wet Barrel","status":"Planned","description":"FIRE-HYDRANT","branch":"الفيصلية","hydrant_id":"UTL_FIRE_HYDRANTS-000197"}},{"type":"Feature","id":"UTL_FIRE_HYDRANTS-000198","geometry":{"type":"Point","coordinates":[39.180839,21.57938]},"properties":{"hydrant_type":"Wet Barrel","status":"Planned","description":"FIRE-HYDRANT","branch":"الفيصلية","hydrant_id":"UTL_FIRE_HYDRANTS-000198"}},{"type":"Feature","id":"UTL_FIRE_HYDRANTS-000199","geometry":{"type":"Point","coordinates":[39.180974,21.578716]},"properties":{"hydrant_type":"Wet Barrel","status":"Planned","description":"FIRE-HYDRANT","branch":"الفيصلية","hydrant_id":"UTL_FIRE_HYDRANTS-000199"}},{"type":"Feature","id":"UTL_FIRE_HYDRANTS-000200","geometry":{"type":"Point","coordinates":[39.18275,21.576899]},"properties":{"hydrant_type":"Wet Barrel","status":"Planned","description":"FIRE-HYDRANT","branch":"الفيصلية","hydrant_id":"UTL_FIRE_HYDRANTS-000200"}},{"type":"Feature","id":"UTL_FIRE_HYDRANTS-000201","geometry":{"type":"Point","coordinates":[39.182284,21.576775]},"properties":{"hydrant_type":"Wet Barrel","status":"Planned","description":"FIRE-HYDRANT","branch":"الفيصلية","hydrant_id":"UTL_FIRE_HYDRANTS-000201"}},{"type":"Feature","id":"UTL_FIRE_HYDRANTS-000202","geometry":{"type":"Point","coordinates":[39.180977,21.578883]},"properties":{"hydrant_type":"Wet Barrel","status":"Planned","description":"FIRE-HYDRANT","branch":"الفيصلية","hydrant_id":"UTL_FIRE_HYDRANTS-000202"}},{"type":"Feature","id":"UTL_FIRE_HYDRANTS-000203","geometry":{"type":"Point","coordinates":[39.180496,21.580275]},"properties":{"hydrant_type":"Wet Barrel","status":"Planned","description":"FIRE-HYDRANT","branch":"الفيصلية","hydrant_id":"UTL_FIRE_HYDRANTS-000203"}},{"type":"Feature","id":"UTL_FIRE_HYDRANTS-000204","geometry":{"type":"Point","coordinates":[39.180771,21.579343]},"properties":{"hydrant_type":"Wet Barrel","status":"Planned","description":"FIRE-HYDRANT","branch":"الفيصلية","hydrant_id":"UTL_FIRE_HYDRANTS-000204"}},{"type":"Feature","id":"UTL_FIRE_HYDRANTS-000205","geometry":{"type":"Point","coordinates":[39.181246,21.577814]},"properties":{"hydrant_type":"Wet Barrel","status":"Planned","description":"FIRE-HYDRANT","branch":"الفيصلية","hydrant_id":"UTL_FIRE_HYDRANTS-000205"}},{"type":"Feature","id":"UTL_FIRE_HYDRANTS-000206","geometry":{"type":"Point","coordinates":[39.183185,21.577015]},"properties":{"hydrant_type":"Wet Barrel","status":"Planned","description":"FIRE-HYDRANT","branch":"الفيصلية","hydrant_id":"UTL_FIRE_HYDRANTS-000206"}},{"type":"Feature","id":"UTL_FIRE_HYDRANTS-000207","geometry":{"type":"Point","coordinates":[39.181347,21.576463]},"properties":{"hydrant_type":"Wet Barrel","status":"Planned","description":"FIRE-HYDRANT","branch":"الفيصلية","hydrant_id":"UTL_FIRE_HYDRANTS-000207"}},{"type":"Feature","id":"UTL_FIRE_HYDRANTS-000208","geometry":{"type":"Point","coordinates":[39.180493,21.580441]},"properties":{"hydrant_type":"Wet Barrel","status":"Planned","description":"FIRE-HYDRANT","branch":"الفيصلية","hydrant_id":"UTL_FIRE_HYDRANTS-000208"}},{"type":"Feature","id":"UTL_FIRE_HYDRANTS-000209","geometry":{"type":"Point","coordinates":[39.181152,21.579929]},"properties":{"hydrant_type":"Wet Barrel","status":"Planned","description":"FIRE-HYDRANT","branch":"الفيصلية","hydrant_id":"UTL_FIRE_HYDRANTS-000209"}},{"type":"Feature","id":"UTL_FIRE_HYDRANTS-000210","geometry":{"type":"Point","coordinates":[39.181541,21.581683]},"properties":{"hydrant_type":"Wet Barrel","status":"Planned","description":"FIRE-HYDRANT","branch":"الفيصلية","hydrant_id":"UTL_FIRE_HYDRANTS-000210"}},{"type":"Feature","id":"UTL_FIRE_HYDRANTS-000211","geometry":{"type":"Point","coordinates":[39.182991,21.57631]},"properties":{"hydrant_type":"Wet Barrel","status":"Planned","description":"FIRE HYDRANT","branch":"الفيصلية","hydrant_id":"UTL_FIRE_HYDRANTS-000211"}},{"type":"Feature","id":"UTL_FIRE_HYDRANTS-000212","geometry":{"type":"Point","coordinates":[39.182264,21.576623]},"properties":{"hydrant_type":"Wet Barrel","status":"Planned","description":"FIRE HYDRANT","branch":"الفيصلية","hydrant_id":"UTL_FIRE_HYDRANTS-000212"}},{"type":"Feature","id":"UTL_FIRE_HYDRANTS-000213","geometry":{"type":"Point","coordinates":[39.182754,21.576953]},"properties":{"hydrant_type":"Wet Barrel","status":"Planned","description":"FIRE HYDRANT","branch":"الفيصلية","hydrant_id":"UTL_FIRE_HYDRANTS-000213"}},{"type":"Feature","id":"UTL_FIRE_HYDRANTS-000214","geometry":{"type":"Point","coordinates":[39.181687,21.576514]},"properties":{"hydrant_type":"Wet Barrel","status":"Planned","description":"FIRE HYDRANT","branch":"الفيصلية","hydrant_id":"UTL_FIRE_HYDRANTS-000214"}},{"type":"Feature","id":"UTL_FIRE_HYDRANTS-000215","geometry":{"type":"Point","coordinates":[39.181215,21.576415]},"properties":{"hydrant_type":"Wet Barrel","status":"Planned","description":"FIRE HYDRANT","branch":"الفيصلية","hydrant_id":"UTL_FIRE_HYDRANTS-000215"}},{"type":"Feature","id":"UTL_FIRE_HYDRANTS-000216","geometry":{"type":"Point","coordinates":[39.181252,21.577709]},"properties":{"hydrant_type":"Wet Barrel","status":"Planned","description":"FIRE HYDRANT","branch":"الفيصلية","hydrant_id":"UTL_FIRE_HYDRANTS-000216"}},{"type":"Feature","id":"UTL_FIRE_HYDRANTS-000217","geometry":{"type":"Point","coordinates":[39.180773,21.579346]},"properties":{"hydrant_type":"Wet Barrel","status":"Planned","description":"FIRE HYDRANT","branch":"الفيصلية","hydrant_id":"UTL_FIRE_HYDRANTS-000217"}},{"type":"Feature","id":"UTL_FIRE_HYDRANTS-000218","geometry":{"type":"Point","coordinates":[39.261333,21.495024]},"properties":{"hydrant_type":"Wet Barrel","status":"Planned","description":"FHYD","branch":"السليمانية","hydrant_id":"UTL_FIRE_HYDRANTS-000218"}},{"type":"Feature","id":"UTL_FIRE_HYDRANTS-000219","geometry":{"type":"Point","coordinates":[39.261732,21.494508]},"properties":{"hydrant_type":"Wet Barrel","status":"Planned","description":"FHYD","branch":"السليمانية","hydrant_id":"UTL_FIRE_HYDRANTS-000219"}},{"type":"Feature","id":"UTL_FIRE_HYDRANTS-000220","geometry":{"type":"Point","coordinates":[39.261968,21.493941]},"properties":{"hydrant_type":"Wet Barrel","status":"Planned","description":"FHYD","branch":"السليمانية","hydrant_id":"UTL_FIRE_HYDRANTS-000220"}},{"type":"Feature","id":"UTL_FIRE_HYDRANTS-000221","geometry":{"type":"Point","coordinates":[39.259321,21.4937]},"properties":{"hydrant_type":"Wet Barrel","status":"Planned","description":"FHYD","branch":"السليمانية","hydrant_id":"UTL_FIRE_HYDRANTS-000221"}},{"type":"Feature","id":"UTL_FIRE_HYDRANTS-000222","geometry":{"type":"Point","coordinates":[39.259541,21.493139]},"properties":{"hydrant_type":"Wet Barrel","status":"Planned","description":"FHYD","branch":"السليمانية","hydrant_id":"UTL_FIRE_HYDRANTS-000222"}},{"type":"Feature","id":"UTL_FIRE_HYDRANTS-000223","geometry":{"type":"Point","coordinates":[39.260766,21.493294]},"properties":{"hydrant_type":"Wet Barrel","status":"Planned","description":"FHYD","branch":"السليمانية","hydrant_id":"UTL_FIRE_HYDRANTS-000223"}},{"type":"Feature","id":"UTL_FIRE_HYDRANTS-000224","geometry":{"type":"Point","coordinates":[39.261751,21.493133]},"properties":{"hydrant_type":"Wet Barrel","status":"Planned","description":"FHYD","branch":"السليمانية","hydrant_id":"UTL_FIRE_HYDRANTS-000224"}},{"type":"Feature","id":"UTL_FIRE_HYDRANTS-000225","geometry":{"type":"Point","coordinates":[39.261237,21.492808]},"properties":{"hydrant_type":"Wet Barrel","status":"Planned","description":"FHYD","branch":"السليمانية","hydrant_id":"UTL_FIRE_HYDRANTS-000225"}},{"type":"Feature","id":"UTL_FIRE_HYDRANTS-000226","geometry":{"type":"Point","coordinates":[39.260723,21.492483]},"properties":{"hydrant_type":"Wet Barrel","status":"Planned","description":"FHYD","branch":"السليمانية","hydrant_id":"UTL_FIRE_HYDRANTS-000226"}},{"type":"Feature","id":"UTL_FIRE_HYDRANTS-000227","geometry":{"type":"Point","coordinates":[39.260219,21.492137]},"properties":{"hydrant_type":"Wet Barrel","status":"Planned","description":"FHYD","branch":"السليمانية","hydrant_id":"UTL_FIRE_HYDRANTS-000227"}},{"type":"Feature","id":"UTL_FIRE_HYDRANTS-000228","geometry":{"type":"Point","coordinates":[39.259703,21.491812]},"properties":{"hydrant_type":"Wet Barrel","status":"Planned","description":"FHYD","branch":"السليمانية","hydrant_id":"UTL_FIRE_HYDRANTS-000228"}},{"type":"Feature","id":"UTL_FIRE_HYDRANTS-000229","geometry":{"type":"Point","coordinates":[39.259209,21.491984]},"properties":{"hydrant_type":"Wet Barrel","status":"Planned","description":"FHYD","branch":"السليمانية","hydrant_id":"UTL_FIRE_HYDRANTS-000229"}},{"type":"Feature","id":"UTL_FIRE_HYDRANTS-000230","geometry":{"type":"Point","coordinates":[39.258585,21.49206]},"properties":{"hydrant_type":"Wet Barrel","status":"Planned","description":"FHYD","branch":"السليمانية","hydrant_id":"UTL_FIRE_HYDRANTS-000230"}},{"type":"Feature","id":"UTL_FIRE_HYDRANTS-000231","geometry":{"type":"Point","coordinates":[39.257998,21.492135]},"properties":{"hydrant_type":"Wet Barrel","status":"Planned","description":"FHYD","branch":"السليمانية","hydrant_id":"UTL_FIRE_HYDRANTS-000231"}},{"type":"Feature","id":"UTL_FIRE_HYDRANTS-000232","geometry":{"type":"Point","coordinates":[39.260418,21.493772]},"properties":{"hydrant_type":"Wet Barrel","status":"Planned","description":"FHYD","branch":"السليمانية","hydrant_id":"UTL_FIRE_HYDRANTS-000232"}},{"type":"Feature","id":"UTL_FIRE_HYDRANTS-000233","geometry":{"type":"Point","coordinates":[39.260316,21.494422]},"properties":{"hydrant_type":"Wet Barrel","status":"Planned","description":"FHYD","branch":"السليمانية","hydrant_id":"UTL_FIRE_HYDRANTS-000233"}},{"type":"Feature","id":"UTL_FIRE_HYDRANTS-000234","geometry":{"type":"Point","coordinates":[39.259762,21.49259]},"properties":{"hydrant_type":"Wet Barrel","status":"Planned","description":"FHYD","branch":"السليمانية","hydrant_id":"UTL_FIRE_HYDRANTS-000234"}},{"type":"Feature","id":"UTL_FIRE_HYDRANTS-000235","geometry":{"type":"Point","coordinates":[39.258682,21.492472]},"properties":{"hydrant_type":"Wet Barrel","status":"Planned","description":"FHYD","branch":"السليمانية","hydrant_id":"UTL_FIRE_HYDRANTS-000235"}},{"type":"Feature","id":"UTL_FIRE_HYDRANTS-000236","geometry":{"type":"Point","coordinates":[39.258221,21.492872]},"properties":{"hydrant_type":"Wet Barrel","status":"Planned","description":"FHYD","branch":"السليمانية","hydrant_id":"UTL_FIRE_HYDRANTS-000236"}},{"type":"Feature","id":"UTL_FIRE_HYDRANTS-000237","geometry":{"type":"Point","coordinates":[39.2578,21.490884]},"properties":{"hydrant_type":"Wet Barrel","status":"Planned","description":"FHYD","branch":"السليمانية","hydrant_id":"UTL_FIRE_HYDRANTS-000237"}},{"type":"Feature","id":"UTL_FIRE_HYDRANTS-000238","geometry":{"type":"Point","coordinates":[39.25825,21.490804]},"properties":{"hydrant_type":"Wet Barrel","status":"Planned","description":"FHYD","branch":"السليمانية","hydrant_id":"UTL_FIRE_HYDRANTS-000238"}},{"type":"Feature","id":"UTL_FIRE_HYDRANTS-000239","geometry":{"type":"Point","coordinates":[39.258867,21.49074]},"properties":{"hydrant_type":"Wet Barrel","status":"Planned","description":"FHYD","branch":"السليمانية","hydrant_id":"UTL_FIRE_HYDRANTS-000239"}},{"type":"Feature","id":"UTL_FIRE_HYDRANTS-000240","geometry":{"type":"Point","coordinates":[39.259639,21.491039]},"properties":{"hydrant_type":"Wet Barrel","status":"Planned","description":"FHYD","branch":"السليمانية","hydrant_id":"UTL_FIRE_HYDRANTS-000240"}},{"type":"Feature","id":"UTL_FIRE_HYDRANTS-000241","geometry":{"type":"Point","coordinates":[39.260101,21.496716]},"properties":{"hydrant_type":"Wet Barrel","status":"Planned","description":"FHYD","branch":"السليمانية","hydrant_id":"UTL_FIRE_HYDRANTS-000241"}},{"type":"Feature","id":"UTL_FIRE_HYDRANTS-000242","geometry":{"type":"Point","coordinates":[39.260454,21.49623]},"properties":{"hydrant_type":"Wet Barrel","status":"Planned","description":"FHYD","branch":"السليمانية","hydrant_id":"UTL_FIRE_HYDRANTS-000242"}},{"type":"Feature","id":"UTL_FIRE_HYDRANTS-000243","geometry":{"type":"Point","coordinates":[39.260803,21.495752]},"properties":{"hydrant_type":"Wet Barrel","status":"Planned","description":"FHYD","branch":"السليمانية","hydrant_id":"UTL_FIRE_HYDRANTS-000243"}},{"type":"Feature","id":"UTL_FIRE_HYDRANTS-000244","geometry":{"type":"Point","coordinates":[39.25979,21.495168]},"properties":{"hydrant_type":"Wet Barrel","status":"Planned","description":"FHYD","branch":"السليمانية","hydrant_id":"UTL_FIRE_HYDRANTS-000244"}},{"type":"Feature","id":"UTL_FIRE_HYDRANTS-000245","geometry":{"type":"Point","coordinates":[39.259439,21.495641]},"properties":{"hydrant_type":"Wet Barrel","status":"Planned","description":"FHYD","branch":"السليمانية","hydrant_id":"UTL_FIRE_HYDRANTS-000245"}},{"type":"Feature","id":"UTL_FIRE_HYDRANTS-000246","geometry":{"type":"Point","coordinates":[39.259195,21.496178]},"properties":{"hydrant_type":"Wet Barrel","status":"Planned","description":"FHYD","branch":"السليمانية","hydrant_id":"UTL_FIRE_HYDRANTS-000246"}},{"type":"Feature","id":"UTL_FIRE_HYDRANTS-000247","geometry":{"type":"Point","coordinates":[39.258796,21.494436]},"properties":{"hydrant_type":"Wet Barrel","status":"Planned","description":"FHYD","branch":"السليمانية","hydrant_id":"UTL_FIRE_HYDRANTS-000247"}},{"type":"Feature","id":"UTL_FIRE_HYDRANTS-000248","geometry":{"type":"Point","coordinates":[39.258448,21.494914]},"properties":{"hydrant_type":"Wet Barrel","status":"Planned","description":"FHYD","branch":"السليمانية","hydrant_id":"UTL_FIRE_HYDRANTS-000248"}},{"type":"Feature","id":"UTL_FIRE_HYDRANTS-000249","geometry":{"type":"Point","coordinates":[39.258086,21.495424]},"properties":{"hydrant_type":"Wet Barrel","status":"Planned","description":"FHYD","branch":"السليمانية","hydrant_id":"UTL_FIRE_HYDRANTS-000249"}},{"type":"Feature","id":"UTL_FIRE_HYDRANTS-000250","geometry":{"type":"Point","coordinates":[39.258011,21.495334]},"properties":{"hydrant_type":"Wet Barrel","status":"Planned","description":"FHYD","branch":"السليمانية","hydrant_id":"UTL_FIRE_HYDRANTS-000250"}},{"type":"Feature","id":"UTL_FIRE_HYDRANTS-000251","geometry":{"type":"Point","coordinates":[39.258359,21.494857]},"properties":{"hydrant_type":"Wet Barrel","status":"Planned","description":"FHYD","branch":"السليمانية","hydrant_id":"UTL_FIRE_HYDRANTS-000251"}},{"type":"Feature","id":"UTL_FIRE_HYDRANTS-000252","geometry":{"type":"Point","coordinates":[39.258618,21.494243]},"properties":{"hydrant_type":"Wet Barrel","status":"Planned","description":"FHYD","branch":"السليمانية","hydrant_id":"UTL_FIRE_HYDRANTS-000252"}},{"type":"Feature","id":"UTL_FIRE_HYDRANTS-000253","geometry":{"type":"Point","coordinates":[39.258311,21.493728]},"properties":{"hydrant_type":"Wet Barrel","status":"Planned","description":"FHYD","branch":"السليمانية","hydrant_id":"UTL_FIRE_HYDRANTS-000253"}},{"type":"Feature","id":"UTL_FIRE_HYDRANTS-000254","geometry":{"type":"Point","coordinates":[39.257706,21.493974]},"properties":{"hydrant_type":"Wet Barrel","status":"Planned","description":"FHYD","branch":"السليمانية","hydrant_id":"UTL_FIRE_HYDRANTS-000254"}},{"type":"Feature","id":"UTL_FIRE_HYDRANTS-000255","geometry":{"type":"Point","coordinates":[39.257208,21.494908]},"properties":{"hydrant_type":"Wet Barrel","status":"Planned","description":"FHYD","branch":"السليمانية","hydrant_id":"UTL_FIRE_HYDRANTS-000255"}},{"type":"Feature","id":"UTL_FIRE_HYDRANTS-000256","geometry":{"type":"Point","coordinates":[39.256591,21.493722]},"properties":{"hydrant_type":"Wet Barrel","status":"Planned","description":"FHYD","branch":"السليمانية","hydrant_id":"UTL_FIRE_HYDRANTS-000256"}},{"type":"Feature","id":"UTL_FIRE_HYDRANTS-000257","geometry":{"type":"Point","coordinates":[39.256811,21.499926]},"properties":{"hydrant_type":"Wet Barrel","status":"Planned","description":"FHYD","branch":"السليمانية","hydrant_id":"UTL_FIRE_HYDRANTS-000257"}},{"type":"Feature","id":"UTL_FIRE_HYDRANTS-000258","geometry":{"type":"Point","coordinates":[39.256483,21.498541]},"properties":{"hydrant_type":"Wet Barrel","status":"Planned","description":"FHYD","branch":"السليمانية","hydrant_id":"UTL_FIRE_HYDRANTS-000258"}},{"type":"Feature","id":"UTL_FIRE_HYDRANTS-000259","geometry":{"type":"Point","coordinates":[39.25545,21.497882]},"properties":{"hydrant_type":"Wet Barrel","status":"Planned","description":"FHYD","branch":"السليمانية","hydrant_id":"UTL_FIRE_HYDRANTS-000259"}},{"type":"Feature","id":"UTL_FIRE_HYDRANTS-000260","geometry":{"type":"Point","coordinates":[39.25448,21.49732]},"properties":{"hydrant_type":"Wet Barrel","status":"Planned","description":"FHYD","branch":"السليمانية","hydrant_id":"UTL_FIRE_HYDRANTS-000260"}},{"type":"Feature","id":"UTL_FIRE_HYDRANTS-000261","geometry":{"type":"Point","coordinates":[39.254588,21.498154]},"properties":{"hydrant_type":"Wet Barrel","status":"Planned","description":"FHYD","branch":"السليمانية","hydrant_id":"UTL_FIRE_HYDRANTS-000261"}},{"type":"Feature","id":"UTL_FIRE_HYDRANTS-000262","geometry":{"type":"Point","coordinates":[39.254878,21.498678]},"properties":{"hydrant_type":"Wet Barrel","status":"Planned","description":"FHYD","branch":"السليمانية","hydrant_id":"UTL_FIRE_HYDRANTS-000262"}},{"type":"Feature","id":"UTL_FIRE_HYDRANTS-000263","geometry":{"type":"Point","coordinates":[39.254171,21.498989]},"properties":{"hydrant_type":"Wet Barrel","status":"Planned","description":"FHYD","branch":"السليمانية","hydrant_id":"UTL_FIRE_HYDRANTS-000263"}},{"type":"Feature","id":"UTL_FIRE_HYDRANTS-000264","geometry":{"type":"Point","coordinates":[39.255237,21.499776]},"properties":{"hydrant_type":"Wet Barrel","status":"Planned","description":"FHYD","branch":"السليمانية","hydrant_id":"UTL_FIRE_HYDRANTS-000264"}},{"type":"Feature","id":"UTL_FIRE_HYDRANTS-000265","geometry":{"type":"Point","coordinates":[39.255863,21.499265]},"properties":{"hydrant_type":"Wet Barrel","status":"Planned","description":"FHYD","branch":"السليمانية","hydrant_id":"UTL_FIRE_HYDRANTS-000265"}},{"type":"Feature","id":"UTL_FIRE_HYDRANTS-000266","geometry":{"type":"Point","coordinates":[39.25769,21.499328]},"properties":{"hydrant_type":"Wet Barrel","status":"Planned","description":"FHYD","branch":"السليمانية","hydrant_id":"UTL_FIRE_HYDRANTS-000266"}},{"type":"Feature","id":"UTL_FIRE_HYDRANTS-000267","geometry":{"type":"Point","coordinates":[39.25751,21.498141]},"properties":{"hydrant_type":"Wet Barrel","status":"Planned","description":"FHYD","branch":"السليمانية","hydrant_id":"UTL_FIRE_HYDRANTS-000267"}},{"type":"Feature","id":"UTL_FIRE_HYDRANTS-000268","geometry":{"type":"Point","coordinates":[39.258594,21.498793]},"properties":{"hydrant_type":"Wet Barrel","status":"Planned","description":"FHYD","branch":"السليمانية","hydrant_id":"UTL_FIRE_HYDRANTS-000268"}},{"type":"Feature","id":"UTL_FIRE_HYDRANTS-000269","geometry":{"type":"Point","coordinates":[39.257795,21.497622]},"properties":{"hydrant_type":"Wet Barrel","status":"Planned","description":"FHYD","branch":"السليمانية","hydrant_id":"UTL_FIRE_HYDRANTS-000269"}},{"type":"Feature","id":"UTL_FIRE_HYDRANTS-000270","geometry":{"type":"Point","coordinates":[39.258979,21.498278]},"properties":{"hydrant_type":"Wet Barrel","status":"Planned","description":"FHYD","branch":"السليمانية","hydrant_id":"UTL_FIRE_HYDRANTS-000270"}},{"type":"Feature","id":"UTL_FIRE_HYDRANTS-000271","geometry":{"type":"Point","coordinates":[39.259283,21.497839]},"properties":{"hydrant_type":"Wet Barrel","status":"Planned","description":"FHYD","branch":"السليمانية","hydrant_id":"UTL_FIRE_HYDRANTS-000271"}},{"type":"Feature","id":"UTL_FIRE_HYDRANTS-000272","geometry":{"type":"Point","coordinates":[39.259756,21.497186]},"properties":{"hydrant_type":"Wet Barrel","status":"Planned","description":"FHYD","branch":"السليمانية","hydrant_id":"UTL_FIRE_HYDRANTS-000272"}},{"type":"Feature","id":"UTL_FIRE_HYDRANTS-000273","geometry":{"type":"Point","coordinates":[39.25669,21.497583]},"properties":{"hydrant_type":"Wet Barrel","status":"Planned","description":"FHYD","branch":"السليمانية","hydrant_id":"UTL_FIRE_HYDRANTS-000273"}},{"type":"Feature","id":"UTL_FIRE_HYDRANTS-000274","geometry":{"type":"Point","coordinates":[39.257274,21.496526]},"properties":{"hydrant_type":"Wet Barrel","status":"Planned","description":"FHYD","branch":"السليمانية","hydrant_id":"UTL_FIRE_HYDRANTS-000274"}},{"type":"Feature","id":"UTL_FIRE_HYDRANTS-000275","geometry":{"type":"Point","coordinates":[39.25823,21.497012]},"properties":{"hydrant_type":"Wet Barrel","status":"Planned","description":"FHYD","branch":"السليمانية","hydrant_id":"UTL_FIRE_HYDRANTS-000275"}},{"type":"Feature","id":"UTL_FIRE_HYDRANTS-000276","geometry":{"type":"Point","coordinates":[39.258721,21.496581]},"properties":{"hydrant_type":"Wet Barrel","status":"Planned","description":"FHYD","branch":"السليمانية","hydrant_id":"UTL_FIRE_HYDRANTS-000276"}},{"type":"Feature","id":"UTL_FIRE_HYDRANTS-000277","geometry":{"type":"Point","coordinates":[39.257855,21.495981]},"properties":{"hydrant_type":"Wet Barrel","status":"Planned","description":"FHYD","branch":"السليمانية","hydrant_id":"UTL_FIRE_HYDRANTS-000277"}},{"type":"Feature","id":"UTL_FIRE_HYDRANTS-000278","geometry":{"type":"Point","coordinates":[39.25652,21.49736]},"properties":{"hydrant_type":"Wet Barrel","status":"Planned","description":"FHYD","branch":"السليمانية","hydrant_id":"UTL_FIRE_HYDRANTS-000278"}},{"type":"Feature","id":"UTL_FIRE_HYDRANTS-000279","geometry":{"type":"Point","coordinates":[39.255353,21.496802]},"properties":{"hydrant_type":"Wet Barrel","status":"Planned","description":"FHYD","branch":"السليمانية","hydrant_id":"UTL_FIRE_HYDRANTS-000279"}},{"type":"Feature","id":"UTL_FIRE_HYDRANTS-000280","geometry":{"type":"Point","coordinates":[39.25556,21.49622]},"properties":{"hydrant_type":"Wet Barrel","status":"Planned","description":"FHYD","branch":"السليمانية","hydrant_id":"UTL_FIRE_HYDRANTS-000280"}},{"type":"Feature","id":"UTL_FIRE_HYDRANTS-000281","geometry":{"type":"Point","coordinates":[39.256869,21.496886]},"properties":{"hydrant_type":"Wet Barrel","status":"Planned","description":"FHYD","branch":"السليمانية","hydrant_id":"UTL_FIRE_HYDRANTS-000281"}},{"type":"Feature","id":"UTL_FIRE_HYDRANTS-000282","geometry":{"type":"Point","coordinates":[39.257095,21.49633]},"properties":{"hydrant_type":"Wet Barrel","status":"Planned","description":"FHYD","branch":"السليمانية","hydrant_id":"UTL_FIRE_HYDRANTS-000282"}},{"type":"Feature","id":"UTL_FIRE_HYDRANTS-000283","geometry":{"type":"Point","coordinates":[39.25589,21.495747]},"properties":{"hydrant_type":"Wet Barrel","status":"Planned","description":"FHYD","branch":"السليمانية","hydrant_id":"UTL_FIRE_HYDRANTS-000283"}},{"type":"Feature","id":"UTL_FIRE_HYDRANTS-000284","geometry":{"type":"Point","coordinates":[39.257693,21.495754]},"properties":{"hydrant_type":"Wet Barrel","status":"Planned","description":"FHYD","branch":"السليمانية","hydrant_id":"UTL_FIRE_HYDRANTS-000284"}},{"type":"Feature","id":"UTL_FIRE_HYDRANTS-000285","geometry":{"type":"Point","coordinates":[39.256407,21.495079]},"properties":{"hydrant_type":"Wet Barrel","status":"Planned","description":"FHYD","branch":"السليمانية","hydrant_id":"UTL_FIRE_HYDRANTS-000285"}},{"type":"Feature","id":"UTL_FIRE_HYDRANTS-000286","geometry":{"type":"Point","coordinates":[39.254448,21.496174]},"properties":{"hydrant_type":"Wet Barrel","status":"Planned","description":"FHYD","branch":"السليمانية","hydrant_id":"UTL_FIRE_HYDRANTS-000286"}},{"type":"Feature","id":"UTL_FIRE_HYDRANTS-000287","geometry":{"type":"Point","coordinates":[39.254544,21.495538]},"properties":{"hydrant_type":"Wet Barrel","status":"Planned","description":"FHYD","branch":"السليمانية","hydrant_id":"UTL_FIRE_HYDRANTS-000287"}},{"type":"Feature","id":"UTL_FIRE_HYDRANTS-000288","geometry":{"type":"Point","coordinates":[39.256916,21.497022]},"properties":{"hydrant_type":"Wet Barrel","status":"Planned","description":"FHYD","branch":"السليمانية","hydrant_id":"UTL_FIRE_HYDRANTS-000288"}},{"type":"Feature","id":"UTL_FIRE_HYDRANTS-000289","geometry":{"type":"Point","coordinates":[39.255812,21.492697]},"properties":{"hydrant_type":"Wet Barrel","status":"Planned","description":"FHYD","branch":"السليمانية","hydrant_id":"UTL_FIRE_HYDRANTS-000289"}},{"type":"Feature","id":"UTL_FIRE_HYDRANTS-000290","geometry":{"type":"Point","coordinates":[39.25518,21.492747]},"properties":{"hydrant_type":"Wet Barrel","status":"Planned","description":"FHYD","branch":"السليمانية","hydrant_id":"UTL_FIRE_HYDRANTS-000290"}},{"type":"Feature","id":"UTL_FIRE_HYDRANTS-000291","geometry":{"type":"Point","coordinates":[39.254404,21.492874]},"properties":{"hydrant_type":"Wet Barrel","status":"Planned","description":"FHYD","branch":"السليمانية","hydrant_id":"UTL_FIRE_HYDRANTS-000291"}},{"type":"Feature","id":"UTL_FIRE_HYDRANTS-000292","geometry":{"type":"Point","coordinates":[39.254109,21.492324]},"properties":{"hydrant_type":"Wet Barrel","status":"Planned","description":"FHYD","branch":"السليمانية","hydrant_id":"UTL_FIRE_HYDRANTS-000292"}},{"type":"Feature","id":"UTL_FIRE_HYDRANTS-000293","geometry":{"type":"Point","coordinates":[39.255132,21.49216]},"properties":{"hydrant_type":"Wet Barrel","status":"Planned","description":"FHYD","branch":"السليمانية","hydrant_id":"UTL_FIRE_HYDRANTS-000293"}},{"type":"Feature","id":"UTL_FIRE_HYDRANTS-000294","geometry":{"type":"Point","coordinates":[39.253739,21.491755]},"properties":{"hydrant_type":"Wet Barrel","status":"Planned","description":"FHYD","branch":"السليمانية","hydrant_id":"UTL_FIRE_HYDRANTS-000294"}},{"type":"Feature","id":"UTL_FIRE_HYDRANTS-000295","geometry":{"type":"Point","coordinates":[39.253428,21.491214]},"properties":{"hydrant_type":"Wet Barrel","status":"Planned","description":"FHYD","branch":"السليمانية","hydrant_id":"UTL_FIRE_HYDRANTS-000295"}},{"type":"Feature","id":"UTL_FIRE_HYDRANTS-000296","geometry":{"type":"Point","coordinates":[39.254481,21.491086]},"properties":{"hydrant_type":"Wet Barrel","status":"Planned","description":"FHYD","branch":"السليمانية","hydrant_id":"UTL_FIRE_HYDRANTS-000296"}},{"type":"Feature","id":"UTL_FIRE_HYDRANTS-000297","geometry":{"type":"Point","coordinates":[39.255897,21.490787]},"properties":{"hydrant_type":"Wet Barrel","status":"Planned","description":"FHYD","branch":"السليمانية","hydrant_id":"UTL_FIRE_HYDRANTS-000297"}},{"type":"Feature","id":"UTL_FIRE_HYDRANTS-000298","geometry":{"type":"Point","coordinates":[39.255974,21.491353]},"properties":{"hydrant_type":"Wet Barrel","status":"Planned","description":"FHYD","branch":"السليمانية","hydrant_id":"UTL_FIRE_HYDRANTS-000298"}},{"type":"Feature","id":"UTL_FIRE_HYDRANTS-000299","geometry":{"type":"Point","coordinates":[39.256054,21.491927]},"properties":{"hydrant_type":"Wet Barrel","status":"Planned","description":"FHYD","branch":"السليمانية","hydrant_id":"UTL_FIRE_HYDRANTS-000299"}},{"type":"Feature","id":"UTL_FIRE_HYDRANTS-000300","geometry":{"type":"Point","coordinates":[39.255024,21.491589]},"properties":{"hydrant_type":"Wet Barrel","status":"Planned","description":"FHYD","branch":"السليمانية","hydrant_id":"UTL_FIRE_HYDRANTS-000300"}},{"type":"Feature","id":"UTL_FIRE_HYDRANTS-000301","geometry":{"type":"Point","coordinates":[39.265719,21.517331]},"properties":{"hydrant_type":"Dry Barrel","status":"Planned","description":"FIRE HYDRANT","branch":"ابرق الرغامة","hydrant_id":"UTL_FIRE_HYDRANTS-000301"}},{"type":"Feature","id":"UTL_FIRE_HYDRANTS-000302","geometry":{"type":"Point","coordinates":[39.266362,21.518053]},"properties":{"hydrant_type":"Dry Barrel","status":"Planned","description":"FIRE HYDRANT","branch":"ابرق الرغامة","hydrant_id":"UTL_FIRE_HYDRANTS-000302"}},{"type":"Feature","id":"UTL_FIRE_HYDRANTS-000303","geometry":{"type":"Point","coordinates":[39.265615,21.518214]},"properties":{"hydrant_type":"Dry Barrel","status":"Planned","description":"FIRE HYDRANT","branch":"ابرق الرغامة","hydrant_id":"UTL_FIRE_HYDRANTS-000303"}},{"type":"Feature","id":"UTL_FIRE_HYDRANTS-000304","geometry":{"type":"Point","coordinates":[39.266962,21.51847]},"properties":{"hydrant_type":"Dry Barrel","status":"Planned","description":"FIRE HYDRANT","branch":"ابرق الرغامة","hydrant_id":"UTL_FIRE_HYDRANTS-000304"}},{"type":"Feature","id":"UTL_FIRE_HYDRANTS-000305","geometry":{"type":"Point","coordinates":[39.265556,21.518799]},"properties":{"hydrant_type":"Dry Barrel","status":"Planned","description":"FIRE HYDRANT","branch":"ابرق الرغامة","hydrant_id":"UTL_FIRE_HYDRANTS-000305"}},{"type":"Feature","id":"UTL_FIRE_HYDRANTS-000306","geometry":{"type":"Point","coordinates":[39.266461,21.519046]},"properties":{"hydrant_type":"Dry Barrel","status":"Planned","description":"FIRE HYDRANT","branch":"ابرق الرغامة","hydrant_id":"UTL_FIRE_HYDRANTS-000306"}},{"type":"Feature","id":"UTL_FIRE_HYDRANTS-000307","geometry":{"type":"Point","coordinates":[39.265502,21.519336]},"properties":{"hydrant_type":"Dry Barrel","status":"Planned","description":"FIRE HYDRANT","branch":"ابرق الرغامة","hydrant_id":"UTL_FIRE_HYDRANTS-000307"}},{"type":"Feature","id":"UTL_FIRE_HYDRANTS-000308","geometry":{"type":"Point","coordinates":[39.26674,21.519684]},"properties":{"hydrant_type":"Dry Barrel","status":"Planned","description":"FIRE HYDRANT","branch":"ابرق الرغامة","hydrant_id":"UTL_FIRE_HYDRANTS-000308"}},{"type":"Feature","id":"UTL_FIRE_HYDRANTS-000309","geometry":{"type":"Point","coordinates":[39.2654,21.520518]},"properties":{"hydrant_type":"Dry Barrel","status":"Planned","description":"FIRE HYDRANT","branch":"ابرق الرغامة","hydrant_id":"UTL_FIRE_HYDRANTS-000309"}},{"type":"Feature","id":"UTL_FIRE_HYDRANTS-000310","geometry":{"type":"Point","coordinates":[39.265379,21.521155]},"properties":{"hydrant_type":"Dry Barrel","status":"Planned","description":"FIRE HYDRANT","branch":"ابرق الرغامة","hydrant_id":"UTL_FIRE_HYDRANTS-000310"}},{"type":"Feature","id":"UTL_FIRE_HYDRANTS-000311","geometry":{"type":"Point","coordinates":[39.266541,21.521219]},"properties":{"hydrant_type":"Dry Barrel","status":"Planned","description":"FIRE HYDRANT","branch":"ابرق الرغامة","hydrant_id":"UTL_FIRE_HYDRANTS-000311"}},{"type":"Feature","id":"UTL_FIRE_HYDRANTS-000312","geometry":{"type":"Point","coordinates":[39.266661,21.520618]},"properties":{"hydrant_type":"Dry Barrel","status":"Planned","description":"FIRE HYDRANT","branch":"ابرق الرغامة","hydrant_id":"UTL_FIRE_HYDRANTS-000312"}}]}